{"type":"FeatureCollection","features":[{"type":"Feature","properties":{},"geometry":{"type":"Polygon","coordinates":[[[-25,24],[-8,24],[-8,33],[-25,33],[-25,24]],[[-15.37902,27.93177],[-15.36102,27.93661],[-15.37902,27.94631],[-15.38352,27.96731],[-15.36777,27.99155],[-15.38801,28.0287],[-15.415,28.04809],[-15.4195,28.06263],[-15.41051,28.09818],[-15.4285,28.12564],[-15.4285,28.14665],[-15.41275,28.12887],[-15.40376,28.17411],[-15.42175,28.18057],[-15.44199,28.1628],[-15.43075,28.14503],[-15.44649,28.13049],[-15.46898,28.12564],[-15.47798,28.13695],[-15.52971,28.15472],[-15.5432,28.14826],[-15.57919,28.14341],[-15.61293,28.14826],[-15.63767,28.1725],[-15.66466,28.15796],[-15.68265,28.16926],[-15.70964,28.16603],[-15.69614,28.15149],[-15.71414,28.10302],[-15.70739,28.0901],[-15.73888,28.05455],[-15.76587,28.04648],[-15.79061,28.01901],[-15.82209,28.01255],[-15.8176,28.00447],[-15.83334,27.97539],[-15.82884,27.94954],[-15.83334,27.91076],[-15.8176,27.89299],[-15.78611,27.83483],[-15.72538,27.78798],[-15.6894,27.77182],[-15.67365,27.7492],[-15.66016,27.75728],[-15.62867,27.74435],[-15.61967,27.7492],[-15.59943,27.73466],[-15.56794,27.73951],[-15.56345,27.7589],[-15.48698,27.79282],[-15.43974,27.8009],[-15.42175,27.8106],[-15.41275,27.84775],[-15.38576,27.85745],[-15.39251,27.88491],[-15.37902,27.93177]],[[-14.36017,28.04809],[-14.32643,28.04648],[-14.30169,28.07394],[-14.24996,28.11756],[-14.22297,28.1628],[-14.20048,28.1725],[-14.15774,28.17573],[-14.15325,28.18219],[-14.07228,28.20158],[-14.0093,28.20966],[-13.98906,28.22743],[-13.94858,28.22743],[-13.92609,28.24197],[-13.89685,28.28882],[-13.90359,28.2969],[-13.8946,28.32436],[-13.87885,28.33729],[-13.86311,28.38576],[-13.85186,28.39384],[-13.85186,28.42453],[-13.86311,28.43907],[-13.85636,28.46008],[-13.86761,28.48108],[-13.86311,28.49401],[-13.84287,28.5037],[-13.83837,28.54247],[-13.82712,28.55217],[-13.82937,28.58287],[-13.82263,28.59256],[-13.83387,28.67496],[-13.83162,28.69434],[-13.84512,28.72827],[-13.86761,28.73635],[-13.86761,28.74604],[-13.8901,28.75735],[-13.91484,28.74443],[-13.92609,28.75089],[-13.95757,28.73473],[-13.97557,28.73473],[-14.0183,28.71535],[-14.0183,28.69434],[-14.0093,28.67657],[-14.03854,28.61195],[-14.03404,28.59256],[-14.06778,28.55055],[-14.07453,28.5247],[-14.10152,28.47623],[-14.12626,28.45685],[-14.151,28.42938],[-14.16224,28.39222],[-14.16224,28.37283],[-14.17574,28.34698],[-14.20273,28.32921],[-14.21397,28.28721],[-14.20947,28.25974],[-14.22297,28.21612],[-14.24546,28.19511],[-14.31518,28.14503],[-14.38266,28.11433],[-14.42989,28.10141],[-14.49961,28.09979],[-14.49286,28.08364],[-14.50411,28.07233],[-14.47712,28.07717],[-14.40965,28.05779],[-14.36017,28.04809]],[[-13.82263,28.73797],[-13.81363,28.76543],[-13.83612,28.75251],[-13.82263,28.73797]],[[-13.70117,28.9173],[-13.64494,28.91892],[-13.61571,28.93022],[-13.59996,28.948],[-13.55048,28.95769],[-13.49425,28.99323],[-13.48526,28.99162],[-13.46277,29.02393],[-13.46951,29.03363],[-13.44702,29.09179],[-13.46277,29.11602],[-13.44702,29.14672],[-13.42903,29.1548],[-13.42003,29.20165],[-13.46951,29.23881],[-13.4965,29.21781],[-13.52124,29.17095],[-13.52349,29.14187],[-13.53924,29.1241],[-13.56173,29.11764],[-13.58422,29.13379],[-13.60446,29.13541],[-13.63145,29.11764],[-13.65844,29.1241],[-13.66294,29.11279],[-13.71017,29.07886],[-13.7529,29.07886],[-13.81363,29.03363],[-13.83387,28.99],[-13.82937,28.93022],[-13.8811,28.88499],[-13.8766,28.85914],[-13.82937,28.86237],[-13.79339,28.85429],[-13.78664,28.83813],[-13.7529,28.87368],[-13.73491,28.90761],[-13.70117,28.9173]],[[-13.48751,29.2485],[-13.47176,29.26628],[-13.48301,29.2792],[-13.50775,29.29051],[-13.52349,29.26628],[-13.52574,29.24204],[-13.54598,29.23235],[-13.54373,29.21942],[-13.52124,29.21942],[-13.48751,29.2485]],[[-13.52349,29.41168],[-13.53024,29.38583],[-13.50775,29.38422],[-13.48976,29.4036],[-13.5055,29.41653],[-13.52349,29.41168]],[[-17.96101,27.69265],[-17.95651,27.72012],[-17.93177,27.7282],[-17.92502,27.74597],[-17.88229,27.81221],[-17.89354,27.8316],[-17.91828,27.84775],[-17.95426,27.84129],[-17.9925,27.8219],[-17.98575,27.80736],[-17.99699,27.79121],[-18.03973,27.76213],[-18.06447,27.75405],[-18.10495,27.75728],[-18.13194,27.77182],[-18.15218,27.76051],[-18.15218,27.73143],[-18.16118,27.71689],[-18.14544,27.70396],[-18.12519,27.70558],[-18.05097,27.69265],[-18.02848,27.6765],[-18.01049,27.64903],[-17.98575,27.63772],[-17.97001,27.64903],[-17.97225,27.67165],[-17.96101,27.69265]],[[-17.91828,28.59256],[-17.90028,28.57317],[-17.88004,28.54086],[-17.87554,28.49077],[-17.85755,28.46008],[-17.83281,28.45846],[-17.81707,28.49401],[-17.79682,28.51824],[-17.78783,28.54409],[-17.76084,28.56994],[-17.75634,28.61356],[-17.74959,28.62002],[-17.76983,28.67657],[-17.74509,28.71212],[-17.7316,28.72019],[-17.72485,28.74281],[-17.75859,28.78643],[-17.75859,28.80421],[-17.77883,28.83813],[-17.80807,28.84298],[-17.85755,28.83329],[-17.89578,28.84298],[-17.92052,28.85752],[-17.96776,28.82521],[-17.979,28.80421],[-17.99475,28.79613],[-18.00599,28.77674],[-18.00149,28.75251],[-17.98125,28.72827],[-17.96326,28.66849],[-17.93852,28.63941],[-17.91828,28.59256]],[[-17.32901,28.08041],[-17.32001,28.06102],[-17.27278,28.03517],[-17.27053,28.02547],[-17.24354,28.02063],[-17.2278,28.02709],[-17.19856,28.02386],[-17.16707,28.03678],[-17.15357,28.05455],[-17.0996,28.09495],[-17.10409,28.12887],[-17.11759,28.15149],[-17.17607,28.17734],[-17.20081,28.19996],[-17.24354,28.19996],[-17.25928,28.21773],[-17.27503,28.21773],[-17.31776,28.20319],[-17.347,28.14826],[-17.34025,28.13211],[-17.34925,28.09818],[-17.32901,28.08041]],[[-16.63853,28.0077],[-16.59579,28.0287],[-16.55981,28.03194],[-16.54631,28.02547],[-16.54181,28.04325],[-16.49233,28.08202],[-16.46309,28.11918],[-16.42486,28.15149],[-16.43386,28.15634],[-16.42036,28.19835],[-16.42486,28.20158],[-16.38662,28.26459],[-16.38437,28.28397],[-16.36188,28.30659],[-16.35963,28.31952],[-16.36863,28.35506],[-16.35514,28.38253],[-16.32815,28.40191],[-16.31915,28.4003],[-16.26742,28.44877],[-16.25393,28.45038],[-16.23593,28.48593],[-16.22019,28.48916],[-16.15496,28.52309],[-16.14372,28.52147],[-16.12123,28.55217],[-16.13472,28.58125],[-16.15721,28.58933],[-16.1932,28.57156],[-16.22469,28.56509],[-16.27417,28.57802],[-16.29891,28.56832],[-16.3304,28.5764],[-16.33265,28.55702],[-16.36638,28.54571],[-16.37763,28.54732],[-16.42261,28.51824],[-16.42936,28.48916],[-16.47434,28.45361],[-16.47659,28.44069],[-16.49683,28.43907],[-16.50358,28.42453],[-16.52157,28.41807],[-16.55531,28.41807],[-16.60254,28.39384],[-16.65202,28.39545],[-16.67451,28.4003],[-16.68126,28.39061],[-16.75548,28.37445],[-16.80946,28.37606],[-16.8297,28.39384],[-16.87019,28.37122],[-16.91742,28.35991],[-16.91967,28.34214],[-16.90392,28.33891],[-16.88143,28.30336],[-16.86119,28.28721],[-16.8387,28.25489],[-16.84544,28.23874],[-16.8342,28.20158],[-16.80496,28.17088],[-16.79371,28.14018],[-16.76897,28.10949],[-16.73974,28.08848],[-16.73749,28.05455],[-16.7105,28.04648],[-16.70825,28.01093],[-16.67901,27.99801],[-16.66552,28.0077],[-16.63853,28.0077]]]}}]}