{"type":"FeatureCollection","features":[{"type":"Feature","properties":{},"geometry":{"type":"Polygon","coordinates":[[[-40,15],[30,15],[30,60],[-40,60],[-40,15]],[[-0.03776,38.88734],[-0.10748,38.94227],[-0.13447,38.96973],[-0.17945,39.02951],[-0.21094,39.07798],[-0.23568,39.13614],[-0.24018,39.16684],[-0.21994,39.18623],[-0.28966,39.30255],[-0.32115,39.37364],[-0.33239,39.40918],[-0.33015,39.42857],[-0.31665,39.42372],[-0.3234,39.45765],[-0.31215,39.44311],[-0.30316,39.46088],[-0.3189,39.46088],[-0.3234,39.50127],[-0.30765,39.53682],[-0.27617,39.57236],[-0.26042,39.61275],[-0.23793,39.63699],[-0.21094,39.65314],[-0.18845,39.72261],[-0.13672,39.78886],[-0.12098,39.81471],[-0.07824,39.86156],[-0.067,39.86156],[-0.03326,39.89549],[-0.00402,39.91649],[0.00272,39.95042],[0.02522,39.97788],[0.03421,40.0102],[0.04996,40.03605],[0.08594,40.05705],[0.11968,40.0619],[0.14667,40.0829],[0.14892,40.10067],[0.18265,40.16045],[0.2029,40.18145],[0.23438,40.19922],[0.26362,40.20892],[0.27937,40.24446],[0.3311,40.28001],[0.35134,40.30101],[0.36483,40.32363],[0.40082,40.35756],[0.41881,40.40118],[0.46604,40.45934],[0.47729,40.4658],[0.51552,40.52235],[0.53802,40.56759],[0.60099,40.62252],[0.66397,40.62575],[0.68871,40.63544],[0.72694,40.64029],[0.74493,40.63706],[0.7067,40.59021],[0.65947,40.59182],[0.64822,40.57243],[0.61673,40.58536],[0.61673,40.57728],[0.59199,40.57728],[0.60099,40.56113],[0.62348,40.55143],[0.67746,40.56436],[0.7067,40.58536],[0.75843,40.64029],[0.84839,40.67907],[0.86639,40.69522],[0.87313,40.73077],[0.85514,40.73723],[0.84165,40.73077],[0.8214,40.74046],[0.76743,40.79216],[0.73369,40.79216],[0.78317,40.77116],[0.76293,40.76146],[0.72919,40.76954],[0.69995,40.80024],[0.7112,40.81155],[0.74044,40.82286],[0.74493,40.83901],[0.79666,40.87617],[0.90012,40.97634],[0.93161,40.9925],[0.9541,41.01835],[0.98334,41.03935],[1.00358,41.04258],[1.04632,41.06359],[1.0823,41.06359],[1.12953,41.07489],[1.17227,41.05551],[1.19926,41.09428],[1.22175,41.10559],[1.224,41.09105],[1.25773,41.11367],[1.29372,41.12659],[1.3432,41.12498],[1.37469,41.13306],[1.39493,41.13144],[1.45791,41.16214],[1.54337,41.18314],[1.6041,41.18799],[1.64683,41.19445],[1.67382,41.19768],[1.7278,41.21545],[1.78853,41.22353],[1.81552,41.23646],[1.85375,41.23484],[1.86949,41.24292],[1.93472,41.26231],[2.02244,41.26554],[2.07417,41.27685],[2.14164,41.29947],[2.15513,41.31562],[2.17538,41.36732],[2.18662,41.36409],[2.19787,41.38671],[2.22486,41.40771],[2.2451,41.4368],[2.26759,41.45941],[2.29908,41.47395],[2.38005,41.49496],[2.40703,41.5095],[2.47001,41.54666],[2.49475,41.55312],[2.54873,41.57574],[2.71966,41.62905],[2.77814,41.65006],[2.79388,41.67268],[2.82087,41.68883],[2.85461,41.70014],[2.88835,41.70176],[2.93558,41.7163],[2.98056,41.75992],[3.04354,41.77931],[3.06603,41.80031],[3.07053,41.8197],[3.10426,41.84555],[3.1335,41.84555],[3.15149,41.86171],[3.17848,41.86817],[3.18298,41.88756],[3.20322,41.89079],[3.21672,41.91825],[3.21672,41.94249],[3.23246,41.95056],[3.23021,41.96995],[3.21222,41.97641],[3.19423,42.02004],[3.19648,42.03942],[3.20772,42.07012],[3.17623,42.11213],[3.12226,42.13151],[3.11326,42.15736],[3.11101,42.20583],[3.13575,42.24784],[3.16949,42.264],[3.18073,42.24622],[3.19423,42.24784],[3.21672,42.2333],[3.23021,42.25107],[3.27969,42.25269],[3.28869,42.26723],[3.27745,42.28015],[3.31118,42.31731],[3.30668,42.32701],[3.2617,42.33993],[3.25046,42.33024],[3.22796,42.35124],[3.20322,42.34639],[3.19648,42.33508],[3.18523,42.35124],[3.16274,42.36093],[3.15599,42.37871],[3.16724,42.39002],[3.15374,42.39486],[3.17174,42.41587],[3.16049,42.42879],[3.12001,42.43848],[3.08627,42.42556],[3.04803,42.45626],[3.04129,42.47403],[3.0143,42.46595],[2.98956,42.47403],[2.96707,42.46595],[2.94682,42.48211],[2.91759,42.45626],[2.8816,42.4611],[2.87035,42.46757],[2.86136,42.45464],[2.83887,42.45949],[2.82762,42.43848],[2.80513,42.43041],[2.79838,42.4191],[2.77139,42.41102],[2.75565,42.42556],[2.71741,42.42071],[2.69267,42.40617],[2.67918,42.40617],[2.67243,42.3884],[2.65444,42.3884],[2.66119,42.36578],[2.67468,42.35932],[2.67468,42.34155],[2.60946,42.34639],[2.58696,42.3577],[2.56222,42.3577],[2.54198,42.33347],[2.49925,42.34316],[2.48351,42.33993],[2.45427,42.37063],[2.43402,42.37709],[2.43178,42.39486],[2.41378,42.39163],[2.36205,42.40294],[2.30582,42.42879],[2.29908,42.42394],[2.25634,42.43848],[2.2451,42.42879],[2.20686,42.41748],[2.16863,42.42556],[2.12814,42.41263],[2.1169,42.38355],[2.08991,42.37386],[2.08766,42.36417],[2.02468,42.35609],[2.01569,42.34639],[1.97071,42.37386],[1.93247,42.45464],[1.91673,42.44656],[1.88299,42.45141],[1.88074,42.45949],[1.847,42.46757],[1.84251,42.47726],[1.80427,42.49018],[1.76379,42.48695],[1.73005,42.4918],[1.72555,42.50472],[1.70306,42.49018],[1.66258,42.49342],[1.65808,42.46757],[1.63109,42.46272],[1.5996,42.46757],[1.58161,42.44979],[1.55687,42.45464],[1.55237,42.43202],[1.51638,42.42879],[1.45341,42.43687],[1.44441,42.44172],[1.44216,42.47564],[1.41967,42.48211],[1.46915,42.50957],[1.45341,42.53865],[1.43991,42.5435],[1.41292,42.53542],[1.42642,42.55804],[1.44441,42.57258],[1.42642,42.58227],[1.43991,42.5952],[1.41967,42.62428],[1.41292,42.65498],[1.38818,42.6679],[1.39043,42.68567],[1.34995,42.70345],[1.3567,42.7196],[1.3342,42.72445],[1.31621,42.7196],[1.25324,42.71476],[1.2285,42.72768],[1.21725,42.7196],[1.16552,42.70829],[1.13403,42.72768],[1.13178,42.7503],[1.10929,42.7713],[1.07331,42.78261],[1.00583,42.79069],[0.98334,42.78746],[0.96085,42.80523],[0.93161,42.78908],[0.90687,42.79715],[0.85739,42.82623],[0.83265,42.82785],[0.80116,42.84078],[0.78092,42.83593],[0.73594,42.84885],[0.70895,42.86178],[0.67746,42.85532],[0.65947,42.83754],[0.67071,42.82462],[0.67071,42.80523],[0.65047,42.78584],[0.66621,42.77615],[0.65047,42.76484],[0.67296,42.71799],[0.68196,42.70829],[0.67521,42.69052],[0.65947,42.69052],[0.60549,42.6986],[0.58974,42.69537],[0.53127,42.70183],[0.51777,42.69214],[0.48179,42.70022],[0.42106,42.69052],[0.39632,42.70022],[0.36033,42.72445],[0.32435,42.70506],[0.32435,42.68729],[0.29511,42.67275],[0.27037,42.69214],[0.25912,42.71637],[0.22764,42.71799],[0.20515,42.7293],[0.17591,42.73738],[0.16241,42.72445],[0.13767,42.72283],[0.10618,42.70991],[0.09044,42.71637],[0.04771,42.69537],[0.02522,42.70183],[0.00048,42.68567],[-0.0625,42.69537],[-0.06925,42.71799],[-0.10748,42.72122],[-0.10973,42.73414],[-0.13897,42.76646],[-0.15022,42.76969],[-0.15921,42.79877],[-0.17945,42.78584],[-0.23793,42.80846],[-0.27617,42.83593],[-0.31215,42.84885],[-0.3234,42.83431],[-0.34589,42.83754],[-0.36388,42.81654],[-0.39537,42.79877],[-0.40887,42.80846],[-0.4426,42.79554],[-0.51008,42.82462],[-0.52582,42.81008],[-0.53032,42.79069],[-0.54381,42.79392],[-0.55281,42.77777],[-0.56855,42.781],[-0.56405,42.79877],[-0.57755,42.80846],[-0.60004,42.80523],[-0.60229,42.8327],[-0.66077,42.86339],[-0.67876,42.8844],[-0.699,42.87955],[-0.73274,42.89732],[-0.72824,42.91994],[-0.73049,42.94579],[-0.75073,42.96679],[-0.78672,42.96356],[-0.81146,42.95064],[-0.86319,42.95064],[-0.91492,42.96356],[-0.94416,42.95387],[-1.00038,42.9781],[-1.00713,42.99103],[-1.08585,43.00234],[-1.11509,43.02334],[-1.14208,43.00718],[-1.14433,43.02334],[-1.17357,43.03788],[-1.18031,43.03303],[-1.22979,43.05565],[-1.24779,43.04273],[-1.30851,43.06858],[-1.28827,43.10412],[-1.27028,43.11866],[-1.31976,43.1122],[-1.34675,43.0912],[-1.34225,43.05404],[-1.3535,43.02819],[-1.44121,43.04596],[-1.4727,43.0815],[-1.47045,43.0912],[-1.41422,43.12836],[-1.40298,43.15582],[-1.40298,43.17844],[-1.38723,43.1946],[-1.37824,43.23014],[-1.38498,43.25438],[-1.41422,43.27376],[-1.42772,43.2673],[-1.46145,43.27215],[-1.50644,43.29315],[-1.53567,43.29477],[-1.56491,43.2883],[-1.55592,43.27861],[-1.57616,43.24953],[-1.61664,43.25761],[-1.63014,43.28507],[-1.62564,43.30608],[-1.66837,43.31415],[-1.69536,43.31254],[-1.7291,43.29477],[-1.74259,43.31739],[-1.7381,43.33031],[-1.75834,43.34324],[-1.78983,43.35293],[-1.77858,43.36424],[-1.79657,43.38201],[-1.79207,43.39332],[-1.8483,43.38039],[-1.87079,43.36909],[-1.87979,43.35454],[-1.91578,43.33677],[-1.96301,43.33839],[-1.98775,43.32708],[-1.99,43.31739],[-2.00799,43.32385],[-2.11145,43.29961],[-2.12944,43.28992],[-2.14969,43.29477],[-2.17667,43.2883],[-2.2284,43.31092],[-2.28238,43.29477],[-2.3566,43.30446],[-2.39934,43.32223],[-2.41283,43.32062],[-2.43532,43.33516],[-2.46006,43.33516],[-2.48705,43.36424],[-2.50954,43.37716],[-2.54553,43.37393],[-2.56352,43.3917],[-2.57927,43.38686],[-2.61975,43.3917],[-2.64674,43.41594],[-2.66248,43.40948],[-2.69622,43.40624],[-2.73671,43.42725],[-2.75245,43.45633],[-2.80868,43.43048],[-2.86715,43.43209],[-2.88065,43.43694],[-2.94587,43.43533],[-2.95262,43.41109],[-2.97511,43.40463],[-3.0066,43.38363],[-3.03809,43.37232],[-3.0201,43.35778],[-3.0111,43.33677],[-3.0201,43.32546],[-3.03359,43.34647],[-3.04708,43.34324],[-3.09432,43.36262],[-3.11231,43.35131],[-3.15279,43.35293],[-3.16179,43.35131],[-3.19553,43.37232],[-3.21127,43.37555],[-3.22027,43.39332],[-3.25625,43.40301],[-3.27649,43.40301],[-3.32598,43.41594],[-3.36646,43.41109],[-3.37096,43.41755],[-3.42269,43.41271],[-3.44968,43.43533],[-3.46542,43.40463],[-3.46092,43.43856],[-3.42494,43.44502],[-3.43168,43.46279],[-3.47217,43.46602],[-3.51265,43.47733],[-3.51265,43.49187],[-3.53964,43.49349],[-3.54864,43.50964],[-3.57788,43.50641],[-3.59587,43.51288],[-3.61161,43.49995],[-3.64535,43.49834],[-3.68134,43.47895],[-3.70608,43.47895],[-3.73307,43.45956],[-3.7758,43.45956],[-3.74431,43.44825],[-3.76905,43.44825],[-3.79154,43.43048],[-3.7803,43.42402],[-3.81628,43.40786],[-3.80279,43.42563],[-3.81628,43.43694],[-3.80954,43.45633],[-3.7713,43.46764],[-3.7848,43.49187],[-3.81179,43.4951],[-3.86352,43.47572],[-3.87476,43.48056],[-3.94448,43.46925],[-3.95798,43.45633],[-3.99846,43.44017],[-4.0232,43.44179],[-4.07718,43.43048],[-4.08168,43.43856],[-4.11092,43.41917],[-4.21663,43.39655],[-4.23237,43.39978],[-4.2796,43.38847],[-4.32908,43.3917],[-4.33808,43.40463],[-4.37182,43.39332],[-4.44379,43.39817],[-4.47303,43.39009],[-4.49102,43.39655],[-4.51351,43.39332],[-4.545,43.39978],[-4.56749,43.3917],[-4.57874,43.39817],[-4.65296,43.4014],[-4.67995,43.40948],[-4.74292,43.41755],[-4.76541,43.42886],[-4.82389,43.43533],[-4.84188,43.44502],[-4.87112,43.44179],[-4.88462,43.44825],[-4.93635,43.45956],[-4.97458,43.46279],[-5.01282,43.45794],[-5.07129,43.46602],[-5.08704,43.47572],[-5.11628,43.47733],[-5.12977,43.48379],[-5.21524,43.4741],[-5.22648,43.48703],[-5.26922,43.50964],[-5.26697,43.51934],[-5.3007,43.53549],[-5.38617,43.53549],[-5.41316,43.55488],[-5.46939,43.55165],[-5.49638,43.54519],[-5.51887,43.55165],[-5.59984,43.54842],[-5.61783,43.55811],[-5.64707,43.54196],[-5.6943,43.5468],[-5.70105,43.56781],[-5.73478,43.57427],[-5.75503,43.58235],[-5.79101,43.61466],[-5.78427,43.63082],[-5.827,43.63889],[-5.84274,43.65667],[-5.85849,43.65667],[-5.85849,43.64051],[-5.88772,43.62274],[-5.91471,43.62435],[-5.91471,43.60981],[-5.94845,43.59689],[-5.9417,43.58881],[-5.9597,43.57912],[-6.01143,43.58073],[-6.02267,43.58558],[-6.06765,43.56619],[-6.11264,43.55488],[-6.17111,43.56942],[-6.19136,43.56619],[-6.18911,43.57912],[-6.20485,43.57427],[-6.24309,43.59043],[-6.30606,43.56296],[-6.33305,43.56134],[-6.37129,43.55165],[-6.39603,43.55973],[-6.42976,43.55327],[-6.47025,43.57104],[-6.4725,43.55165],[-6.52423,43.55004],[-6.58045,43.5565],[-6.58945,43.55327],[-6.62769,43.56942],[-6.65917,43.56781],[-6.68391,43.55811],[-6.70865,43.56458],[-6.7244,43.5565],[-6.73339,43.56458],[-6.75813,43.56134],[-6.76713,43.56942],[-6.78512,43.5565],[-6.80986,43.55488],[-6.82786,43.56619],[-6.87059,43.56781],[-6.87509,43.56296],[-6.91332,43.57265],[-6.94931,43.57265],[-6.97405,43.5565],[-7.03028,43.5565],[-7.03253,43.54519],[-7.06402,43.55811],[-7.08876,43.55488],[-7.11575,43.56134],[-7.16748,43.55488],[-7.17872,43.56134],[-7.2372,43.56942],[-7.24395,43.55165],[-7.26194,43.55811],[-7.24619,43.57427],[-7.29343,43.59366],[-7.32266,43.62759],[-7.33166,43.62597],[-7.3564,43.6599],[-7.3564,43.67121],[-7.40363,43.68252],[-7.40813,43.68898],[-7.46886,43.70352],[-7.47785,43.71321],[-7.46661,43.72291],[-7.4936,43.72775],[-7.51384,43.72291],[-7.52509,43.73745],[-7.55657,43.72937],[-7.55882,43.7116],[-7.58581,43.70837],[-7.57682,43.69221],[-7.59706,43.67444],[-7.6128,43.67444],[-7.61505,43.7019],[-7.6083,43.71968],[-7.63079,43.72291],[-7.63754,43.7536],[-7.65104,43.74391],[-7.67353,43.74714],[-7.68252,43.72937],[-7.70052,43.73583],[-7.68927,43.75684],[-7.66228,43.77784],[-7.68927,43.78915],[-7.68702,43.77622],[-7.71851,43.7633],[-7.72526,43.75037],[-7.78149,43.7326],[-7.82422,43.71483],[-7.82872,43.70029],[-7.86695,43.69867],[-7.84671,43.66798],[-7.88494,43.66313],[-7.90519,43.67121],[-7.87145,43.67121],[-7.8782,43.72129],[-7.85346,43.70837],[-7.85121,43.71806],[-7.8692,43.73099],[-7.8602,43.7633],[-7.8692,43.77461],[-7.88944,43.7633],[-7.90294,43.76815],[-7.92993,43.73906],[-7.95017,43.7423],[-7.96366,43.72129],[-8.0064,43.70514],[-8.04013,43.71321],[-8.06263,43.70514],[-8.07612,43.68252],[-8.07612,43.6599],[-8.05588,43.6599],[-8.05363,43.64859],[-8.09411,43.65344],[-8.14134,43.63243],[-8.16609,43.61304],[-8.18858,43.62112],[-8.19307,43.60335],[-8.21557,43.59204],[-8.21557,43.58396],[-8.26055,43.55811],[-8.30103,43.5565],[-8.31678,43.56942],[-8.32577,43.55973],[-8.29653,43.53549],[-8.30328,43.5258],[-8.32352,43.5258],[-8.33027,43.50803],[-8.32127,43.50318],[-8.32802,43.48218],[-8.34377,43.46925],[-8.34152,43.45794],[-8.31678,43.47087],[-8.29878,43.46118],[-8.2673,43.46764],[-8.24705,43.49349],[-8.2493,43.47572],[-8.19083,43.48218],[-8.16609,43.51288],[-8.15034,43.51449],[-8.17283,43.47733],[-8.20207,43.45956],[-8.23131,43.45471],[-8.2538,43.46602],[-8.31228,43.4531],[-8.31678,43.44502],[-8.27854,43.43694],[-8.2583,43.41917],[-8.23806,43.42886],[-8.21557,43.41755],[-8.19757,43.42725],[-8.17508,43.42079],[-8.17733,43.41109],[-8.20657,43.40948],[-8.22006,43.38524],[-8.20882,43.32869],[-8.25155,43.3497],[-8.25155,43.36262],[-8.2673,43.38524],[-8.29653,43.38524],[-8.30553,43.40463],[-8.35051,43.39655],[-8.35501,43.38039],[-8.33927,43.38201],[-8.34826,43.34647],[-8.38425,43.34162],[-8.38425,43.35293],[-8.40449,43.36424],[-8.3865,43.36909],[-8.40674,43.38847],[-8.40449,43.37393],[-8.44273,43.38039],[-8.47197,43.35454],[-8.48546,43.36101],[-8.5192,43.35454],[-8.49896,43.34808],[-8.53044,43.31739],[-8.55293,43.31092],[-8.59342,43.32062],[-8.62041,43.31739],[-8.6429,43.30608],[-8.71262,43.28992],[-8.7711,43.29961],[-8.80259,43.31415],[-8.80708,43.32708],[-8.82508,43.32869],[-8.83182,43.34485],[-8.84757,43.33677],[-8.85881,43.31739],[-8.87456,43.32223],[-8.91054,43.32223],[-8.90605,43.29477],[-8.93753,43.28992],[-8.95778,43.29315],[-8.99151,43.27376],[-8.97802,43.26407],[-8.95328,43.25922],[-8.93978,43.22691],[-8.98027,43.22853],[-8.99151,43.21722],[-9.00276,43.22853],[-9.05899,43.1849],[-9.08148,43.18167],[-9.11521,43.1946],[-9.1512,43.19298],[-9.16694,43.18329],[-9.17369,43.19137],[-9.18044,43.16713],[-9.19843,43.15421],[-9.21193,43.15905],[-9.20518,43.12997],[-9.18269,43.12351],[-9.16919,43.14774],[-9.15795,43.12674],[-9.16919,43.10412],[-9.19393,43.0912],[-9.19843,43.10412],[-9.21642,43.10412],[-9.24341,43.08473],[-9.25691,43.0912],[-9.25016,43.06858],[-9.26141,43.04919],[-9.2884,43.04434],[-9.2749,43.0088],[-9.25691,43.00234],[-9.26815,42.96518],[-9.2839,42.95387],[-9.29739,42.92156],[-9.2749,42.9054],[-9.28165,42.89409],[-9.2704,42.87955],[-9.25916,42.92317],[-9.23442,42.9264],[-9.23442,42.94094],[-9.21867,42.94094],[-9.20968,42.91671],[-9.18269,42.91671],[-9.19393,42.94579],[-9.17369,42.94418],[-9.1602,42.91186],[-9.12646,42.9054],[-9.13995,42.89571],[-9.14895,42.8747],[-9.12871,42.84401],[-9.11297,42.84239],[-9.10622,42.823],[-9.11521,42.81008],[-9.1512,42.79877],[-9.13546,42.78908],[-9.11297,42.75192],[-9.10172,42.75515],[-9.08148,42.73738],[-9.07473,42.75676],[-9.04774,42.76969],[-9.06573,42.78584],[-9.01175,42.79877],[-9.01625,42.78423],[-8.98252,42.77777],[-8.97802,42.79069],[-8.95328,42.781],[-8.94203,42.802],[-8.9083,42.79715],[-8.90605,42.81816],[-8.8993,42.79715],[-8.92179,42.79069],[-8.94203,42.77453],[-8.95328,42.74868],[-8.99151,42.74061],[-9.00951,42.72768],[-9.00951,42.71152],[-9.02525,42.70829],[-9.0365,42.64852],[-9.04549,42.62913],[-9.06124,42.61782],[-9.06798,42.59843],[-9.07923,42.59843],[-9.08822,42.56935],[-9.06124,42.57743],[-9.04549,42.57097],[-9.02975,42.55158],[-9.04099,42.51765],[-9.0185,42.51765],[-8.98701,42.53865],[-8.98926,42.56612],[-8.96227,42.56935],[-8.95553,42.58389],[-8.92179,42.58551],[-8.93753,42.60651],[-8.90155,42.64044],[-8.87456,42.63236],[-8.8858,42.61459],[-8.86106,42.60651],[-8.85432,42.63074],[-8.85207,42.66467],[-8.84307,42.68244],[-8.81383,42.65982],[-8.82283,42.6469],[-8.79359,42.63721],[-8.7711,42.65336],[-8.75535,42.6469],[-8.72837,42.6776],[-8.72612,42.68891],[-8.72837,42.66629],[-8.77785,42.61459],[-8.76885,42.60651],[-8.80933,42.57581],[-8.82958,42.57581],[-8.83632,42.55158],[-8.82733,42.54027],[-8.82958,42.51765],[-8.81383,42.52896],[-8.81833,42.50149],[-8.83182,42.48211],[-8.82058,42.45141],[-8.83182,42.45787],[-8.86781,42.44818],[-8.87231,42.4611],[-8.85657,42.47241],[-8.86331,42.49826],[-8.88131,42.49988],[-8.8903,42.48211],[-8.91279,42.47564],[-8.93304,42.47887],[-8.94203,42.46433],[-8.88355,42.45464],[-8.87231,42.43364],[-8.88131,42.41587],[-8.86556,42.41102],[-8.83857,42.38355],[-8.81608,42.39971],[-8.7711,42.39002],[-8.74186,42.41425],[-8.71262,42.42233],[-8.69013,42.43848],[-8.68113,42.42071],[-8.65639,42.42556],[-8.69913,42.39486],[-8.70587,42.39809],[-8.73961,42.37386],[-8.75311,42.34478],[-8.79134,42.32701],[-8.80034,42.33832],[-8.83407,42.34155],[-8.81833,42.30762],[-8.82283,42.27531],[-8.85881,42.30439],[-8.86331,42.26884],[-8.82508,42.25107],[-8.81608,42.25915],[-8.78909,42.24784],[-8.78459,42.26238],[-8.7666,42.25915],[-8.71937,42.28985],[-8.71262,42.27854],[-8.69013,42.28015],[-8.6519,42.29792],[-8.66314,42.31085],[-8.63615,42.32701],[-8.64515,42.3367],[-8.62715,42.35124],[-8.61141,42.34639],[-8.61141,42.32862],[-8.62266,42.30923],[-8.61366,42.29792],[-8.6294,42.285],[-8.6474,42.28985],[-8.66764,42.27854],[-8.67664,42.264],[-8.70363,42.25915],[-8.71262,42.24138],[-8.72612,42.24299],[-8.73961,42.22684],[-8.76435,42.23007],[-8.7801,42.20422],[-8.81608,42.18806],[-8.81833,42.16221],[-8.84982,42.14929],[-8.82283,42.14282],[-8.82283,42.11697],[-8.83407,42.11213],[-8.86331,42.12182],[-8.88131,42.11051],[-8.90155,42.11213],[-8.89255,42.08305],[-8.89705,42.06689],[-8.8858,42.05073],[-8.88805,42.01519],[-8.88131,42.00388],[-8.88805,41.97803],[-8.8858,41.91664],[-8.87456,41.89886],[-8.88131,41.88271],[-8.87231,41.86978],[-8.85657,41.87463],[-8.81833,41.90694],[-8.78459,41.91664],[-8.75535,41.93441],[-8.74411,41.96511],[-8.71487,41.97965],[-8.67664,41.99257],[-8.66089,42.00388],[-8.65864,42.02973],[-8.6294,42.05073],[-8.59342,42.0572],[-8.54619,42.05396],[-8.5237,42.06366],[-8.5237,42.0782],[-8.44273,42.08305],[-8.43148,42.07335],[-8.40449,42.07981],[-8.382,42.07658],[-8.37076,42.08789],[-8.33252,42.08305],[-8.32352,42.10082],[-8.30328,42.10405],[-8.27404,42.12344],[-8.2583,42.12182],[-8.2448,42.13959],[-8.22456,42.13313],[-8.19757,42.15413],[-8.18183,42.06527],[-8.15034,42.07981],[-8.11885,42.08305],[-8.09636,42.07174],[-8.08512,42.0475],[-8.08512,42.01681],[-8.1301,42.00388],[-8.14134,41.98934],[-8.16384,41.98288],[-8.17508,41.95541],[-8.18858,41.94733],[-8.21781,41.91341],[-8.19982,41.87301],[-8.17058,41.87948],[-8.16159,41.86171],[-8.16609,41.81808],[-8.1301,41.80839],[-8.09411,41.80839],[-8.05813,41.81647],[-8.04013,41.82939],[-8.01314,41.82939],[-7.9884,41.86817],[-7.97041,41.87625],[-7.94792,41.8714],[-7.92093,41.88109],[-7.90744,41.92633],[-7.88719,41.92633],[-7.88494,41.88917],[-7.89169,41.86009],[-7.8737,41.84555],[-7.86695,41.85847],[-7.84221,41.86655],[-7.84446,41.88109],[-7.77924,41.88756],[-7.76349,41.89886],[-7.73425,41.8924],[-7.70502,41.90694],[-7.65329,41.88109],[-7.58581,41.88109],[-7.60156,41.86655],[-7.61505,41.83101],[-7.57457,41.82939],[-7.52059,41.84232],[-7.50484,41.8504],[-7.51384,41.86171],[-7.49135,41.8714],[-7.4846,41.86171],[-7.45311,41.86494],[-7.44862,41.84555],[-7.42612,41.83101],[-7.42837,41.80677],[-7.39689,41.82616],[-7.39014,41.84232],[-7.36315,41.85363],[-7.3564,41.8407],[-7.31592,41.84232],[-7.25744,41.86655],[-7.2327,41.86655],[-7.19671,41.87948],[-7.17422,41.91987],[-7.18322,41.93279],[-7.18547,41.96995],[-7.17872,41.97965],[-7.15848,41.97641],[-7.14049,41.99096],[-7.08651,41.97318],[-7.07751,41.95218],[-7.00554,41.95056],[-6.9853,41.97157],[-6.95831,41.96834],[-6.94481,41.9441],[-6.88409,41.94087],[-6.87059,41.94895],[-6.8481,41.94249],[-6.82111,41.94572],[-6.80986,41.96995],[-6.81211,41.99257],[-6.76938,41.98449],[-6.75139,41.9441],[-6.69966,41.93279],[-6.59845,41.94895],[-6.5872,41.96834],[-6.54897,41.9441],[-6.54672,41.93118],[-6.57146,41.88271],[-6.51748,41.87463],[-6.54672,41.79385],[-6.55571,41.7583],[-6.56921,41.74376],[-6.55571,41.73892],[-6.54222,41.70337],[-6.54897,41.6856],[-6.51298,41.66137],[-6.48824,41.65814],[-6.45675,41.66621],[-6.45225,41.68075],[-6.40502,41.68075],[-6.37354,41.67429],[-6.35554,41.67591],[-6.30156,41.66137],[-6.25433,41.63229],[-6.23634,41.60644],[-6.20935,41.59836],[-6.18911,41.57412],[-6.2116,41.55958],[-6.23634,41.52081],[-6.25883,41.51273],[-6.24983,41.50142],[-6.28357,41.4788],[-6.28807,41.46588],[-6.30606,41.44972],[-6.29482,41.43518],[-6.33305,41.4061],[-6.31506,41.38994],[-6.35329,41.37863],[-6.36679,41.39317],[-6.39153,41.38348],[-6.39378,41.37055],[-6.37578,41.36086],[-6.39378,41.34955],[-6.41627,41.34794],[-6.45001,41.29947],[-6.47924,41.29462],[-6.49049,41.28493],[-6.47924,41.27685],[-6.49949,41.26554],[-6.51748,41.27523],[-6.54672,41.25746],[-6.55122,41.24615],[-6.58495,41.2413],[-6.5872,41.25261],[-6.62994,41.24292],[-6.64793,41.24777],[-6.69291,41.20738],[-6.69291,41.19284],[-6.70865,41.17345],[-6.76713,41.13467],[-6.77163,41.12336],[-6.75364,41.10398],[-6.80986,41.03612],[-6.83461,41.02804],[-6.86834,41.02643],[-6.92007,41.03774],[-6.93132,41.02966],[-6.92232,41.00219],[-6.90883,40.99896],[-6.87509,40.96019],[-6.85935,40.95049],[-6.8481,40.92303],[-6.8481,40.90202],[-6.8391,40.89071],[-6.80986,40.88263],[-6.80087,40.84871],[-6.82336,40.84548],[-6.81661,40.79701],[-6.82561,40.7857],[-6.83011,40.74208],[-6.80986,40.71623],[-6.81436,40.70815],[-6.79412,40.66129],[-6.82111,40.61121],[-6.8391,40.59344],[-6.84585,40.56597],[-6.80087,40.54982],[-6.80537,40.54012],[-6.79637,40.51104],[-6.81211,40.50458],[-6.85035,40.45126],[-6.8391,40.4141],[-6.82111,40.39633],[-6.78063,40.36402],[-6.79412,40.35594],[-6.78962,40.33494],[-6.81886,40.32524],[-6.86384,40.29616],[-6.86384,40.27031],[-6.86834,40.26385],[-6.90658,40.25416],[-6.95156,40.25739],[-6.96281,40.238],[-6.97855,40.24123],[-7.01229,40.22507],[-7.03028,40.18468],[-7.01678,40.17661],[-7.02128,40.14429],[-7.00104,40.12006],[-6.94031,40.11198],[-6.92007,40.08775],[-6.91782,40.06674],[-6.89308,40.06028],[-6.88184,40.04089],[-6.87284,39.99566],[-6.88633,39.98111],[-6.88633,39.94072],[-6.90658,39.91972],[-6.89983,39.90195],[-6.90433,39.87125],[-6.93357,39.85025],[-6.93582,39.83894],[-6.95831,39.8244],[-6.96955,39.8244],[-6.98755,39.80986],[-6.9763,39.7727],[-6.99429,39.74039],[-6.98755,39.72746],[-7.00554,39.70161],[-7.01453,39.67091],[-7.05502,39.65961],[-7.12699,39.66284],[-7.15173,39.65314],[-7.25069,39.66768],[-7.28668,39.65961],[-7.33166,39.64183],[-7.37439,39.65153],[-7.39913,39.64668],[-7.45536,39.66284],[-7.53408,39.66768],[-7.52733,39.63537],[-7.50934,39.61921],[-7.50035,39.59013],[-7.46661,39.57721],[-7.44637,39.54813],[-7.42612,39.53197],[-7.39014,39.53036],[-7.39014,39.50289],[-7.38114,39.49158],[-7.34965,39.48835],[-7.34291,39.47865],[-7.32042,39.47381],[-7.29343,39.45604],[-7.30917,39.43019],[-7.30017,39.41726],[-7.32266,39.38495],[-7.31142,39.36879],[-7.31142,39.34133],[-7.26869,39.30901],[-7.27093,39.30417],[-7.23045,39.27832],[-7.24844,39.25408],[-7.2417,39.20885],[-7.20121,39.18623],[-7.16298,39.17976],[-7.13149,39.16522],[-7.14049,39.15068],[-7.14498,39.10868],[-7.1045,39.09898],[-7.05277,39.11837],[-7.02803,39.11514],[-6.9808,39.08767],[-6.95831,39.05374],[-6.9673,39.0392],[-6.95156,39.02305],[-6.98755,38.97619],[-7.02128,38.93742],[-7.02578,38.92449],[-7.05277,38.90672],[-7.03253,38.87764],[-7.05277,38.85825],[-7.06851,38.85341],[-7.09775,38.81463],[-7.12474,38.81625],[-7.14723,38.80009],[-7.16073,38.7807],[-7.19446,38.76616],[-7.20121,38.75001],[-7.25969,38.72416],[-7.26644,38.70154],[-7.27093,38.63691],[-7.24395,38.62399],[-7.25744,38.61268],[-7.26419,38.58844],[-7.30242,38.54482],[-7.30242,38.52867],[-7.31367,38.51413],[-7.31817,38.47535],[-7.29568,38.47535],[-7.31592,38.43981],[-7.28893,38.42527],[-7.26869,38.39134],[-7.20121,38.32833],[-7.17647,38.28794],[-7.15623,38.27824],[-7.14273,38.26209],[-7.14273,38.24108],[-7.09775,38.17808],[-7.08651,38.17],[-7.05727,38.18615],[-7.02803,38.18292],[-7.01004,38.19908],[-6.9808,38.212],[-6.9718,38.20231],[-6.95606,38.21685],[-6.93582,38.22008],[-6.93132,38.20877],[-6.95381,38.18615],[-6.96955,38.1603],[-6.95831,38.15061],[-6.97405,38.10537],[-6.98755,38.10376],[-6.98979,38.05367],[-7.00104,38.04882],[-7.00104,38.02297],[-7.02353,38.02459],[-7.04377,38.01328],[-7.06402,38.01974],[-7.06626,38.03428],[-7.09775,38.04398],[-7.12924,38.02944],[-7.12024,38.0052],[-7.17422,37.99228],[-7.20121,38.00359],[-7.22595,37.98743],[-7.24619,37.99228],[-7.26194,37.97774],[-7.24844,37.95512],[-7.25519,37.92281],[-7.28218,37.89696],[-7.27993,37.87595],[-7.32042,37.81941],[-7.37889,37.78225],[-7.39689,37.76447],[-7.42387,37.75478],[-7.41938,37.74347],[-7.44862,37.69823],[-7.45536,37.64653],[-7.49135,37.60291],[-7.50259,37.57706],[-7.51609,37.56898],[-7.50709,37.55767],[-7.52284,37.55283],[-7.50934,37.52375],[-7.4936,37.52375],[-7.48235,37.49628],[-7.46436,37.48659],[-7.46886,37.47205],[-7.45761,37.45427],[-7.45761,37.42842],[-7.44637,37.42035],[-7.46211,37.40742],[-7.43962,37.39126],[-7.43737,37.35895],[-7.44412,37.34764],[-7.44187,37.30725],[-7.42163,37.27332],[-7.43287,37.24747],[-7.41938,37.23616],[-7.40813,37.18285],[-7.37215,37.16992],[-7.30242,37.19577],[-7.27093,37.20224],[-7.14498,37.2087],[-7.07301,37.20547],[-7.06402,37.21031],[-7.01453,37.199],[-6.95381,37.16992],[-6.88858,37.14569],[-6.91557,37.16346],[-6.91557,37.17639],[-6.87509,37.14892],[-6.8391,37.13761],[-6.83011,37.12792],[-6.79187,37.11822],[-6.7154,37.0843],[-6.5827,37.01482],[-6.50623,36.96635],[-6.459,36.9195],[-6.44326,36.90011],[-6.39603,36.80641],[-6.36454,36.79025],[-6.36229,36.78379],[-6.41627,36.74824],[-6.44326,36.73855],[-6.44101,36.72078],[-6.39378,36.64808],[-6.39378,36.63354],[-6.35554,36.61576],[-6.3398,36.62546],[-6.30156,36.61899],[-6.27907,36.60445],[-6.26558,36.58022],[-6.24084,36.58507],[-6.22284,36.56891],[-6.23634,36.52529],[-6.25658,36.52044],[-6.23184,36.50429],[-6.20935,36.50913],[-6.20035,36.52852],[-6.17336,36.52206],[-6.17336,36.50913],[-6.19361,36.48651],[-6.21385,36.48167],[-6.22734,36.46228],[-6.25433,36.46874],[-6.26558,36.48974],[-6.25883,36.49944],[-6.27907,36.53014],[-6.30606,36.5366],[-6.28582,36.51559],[-6.23634,36.43966],[-6.21835,36.39281],[-6.18236,36.36857],[-6.14188,36.29587],[-6.11264,36.29264],[-6.0879,36.26517],[-6.0789,36.24417],[-6.03392,36.18116],[-6.01143,36.18601],[-5.98669,36.17793],[-5.94395,36.18601],[-5.91471,36.18439],[-5.87423,36.15693],[-5.84949,36.13431],[-5.82475,36.10361],[-5.79551,36.07776],[-5.78202,36.08745],[-5.75053,36.0713],[-5.71229,36.05837],[-5.6943,36.06645],[-5.64932,36.05191],[-5.60658,36.0099],[-5.5751,36.01475],[-5.51662,36.03737],[-5.48738,36.05353],[-5.46489,36.05029],[-5.43115,36.0713],[-5.42666,36.08261],[-5.4424,36.08907],[-5.43115,36.11007],[-5.4424,36.12138],[-5.42216,36.11977],[-5.42216,36.13269],[-5.44015,36.12784],[-5.4424,36.15854],[-5.42666,36.17631],[-5.38617,36.17954],[-5.37493,36.16339],[-5.35243,36.15208],[-5.36143,36.144],[-5.34794,36.11007],[-5.34119,36.11653],[-5.33894,36.15369],[-5.33444,36.18116],[-5.31645,36.22801],[-5.29621,36.24578],[-5.26697,36.30072],[-5.25347,36.31203],[-5.24673,36.31041],[-5.21974,36.37504],[-5.177,36.41543],[-5.15451,36.41543],[-5.13427,36.42835],[-5.10728,36.43481],[-5.08254,36.44935],[-5.06005,36.44935],[-5.03306,36.46066],[-5.00832,36.45905],[-4.9341,36.49944],[-4.89811,36.50752],[-4.85538,36.50752],[-4.74067,36.4849],[-4.69119,36.49136],[-4.67545,36.50429],[-4.63946,36.50752],[-4.60797,36.55922],[-4.58548,36.57376],[-4.54275,36.5786],[-4.51351,36.59476],[-4.48202,36.64],[-4.45503,36.66423],[-4.43479,36.69978],[-4.39656,36.72239],[-4.34033,36.7127],[-4.28185,36.71432],[-4.24812,36.71109],[-4.17389,36.71593],[-4.11092,36.72563],[-4.08393,36.74501],[-4.06594,36.74824],[-3.99396,36.73855],[-3.95798,36.72563],[-3.91974,36.74017],[-3.87926,36.74178],[-3.86576,36.74986],[-3.83428,36.75471],[-3.79154,36.74663],[-3.77805,36.73855],[-3.7668,36.72886],[-3.75556,36.73855],[-3.73532,36.72724],[-3.71957,36.73209],[-3.67459,36.73047],[-3.66109,36.74663],[-3.60037,36.7434],[-3.58013,36.72401],[-3.55314,36.71432],[-3.52615,36.72401],[-3.48341,36.69654],[-3.41819,36.69493],[-3.41369,36.70139],[-3.36421,36.71432],[-3.33947,36.73855],[-3.30573,36.73855],[-3.24501,36.75471],[-3.20902,36.74501],[-3.20227,36.74986],[-3.1438,36.7434],[-3.12805,36.75148],[-3.07182,36.74501],[-3.02234,36.74663],[-2.97736,36.73855],[-2.93913,36.75148],[-2.91888,36.74986],[-2.89639,36.73694],[-2.85816,36.69816],[-2.84466,36.69493],[-2.81992,36.70624],[-2.79743,36.69978],[-2.7592,36.68039],[-2.70072,36.68362],[-2.65124,36.69978],[-2.61975,36.72724],[-2.59951,36.77409],[-2.56127,36.8161],[-2.5028,36.82418],[-2.47581,36.8371],[-2.42633,36.81125],[-2.40159,36.82741],[-2.3611,36.84195],[-2.31837,36.83387],[-2.29363,36.82095],[-2.2509,36.7854],[-2.19242,36.72078],[-2.15193,36.73047],[-2.12494,36.73209],[-2.1047,36.76279],[-2.06422,36.77571],[-2.06197,36.80318],[-2.02149,36.8371],[-1.99899,36.84034],[-2.00124,36.88396],[-1.9855,36.90011],[-1.96751,36.8985],[-1.95401,36.92435],[-1.93377,36.93889],[-1.91353,36.93404],[-1.89553,36.94858],[-1.90003,36.98736],[-1.87754,37.01482],[-1.87754,37.03421],[-1.85055,37.06814],[-1.8438,37.10853],[-1.83256,37.11984],[-1.82356,37.16992],[-1.79657,37.2297],[-1.77408,37.2394],[-1.75834,37.26363],[-1.70661,37.30725],[-1.68862,37.33956],[-1.67062,37.35734],[-1.65038,37.35734],[-1.63014,37.37511],[-1.5919,37.40257],[-1.56491,37.40419],[-1.51993,37.43166],[-1.49069,37.42196],[-1.4772,37.42842],[-1.4817,37.45266],[-1.4592,37.48659],[-1.44121,37.4979],[-1.40073,37.50759],[-1.39173,37.52536],[-1.36474,37.54313],[-1.32426,37.56414],[-1.25678,37.55767],[-1.23879,37.57706],[-1.20056,37.57383],[-1.16907,37.55767],[-1.16457,37.54152],[-1.10609,37.53506],[-1.12633,37.55283],[-1.10834,37.56898],[-1.09485,37.56898],[-1.07461,37.58352],[-1.01163,37.57545],[-0.98914,37.59806],[-0.97564,37.59806],[-0.97564,37.57706],[-0.95315,37.56737],[-0.97115,37.55929],[-0.91942,37.55444],[-0.85194,37.58191],[-0.8227,37.57545],[-0.78222,37.59483],[-0.73274,37.6013],[-0.699,37.63361],[-0.72824,37.67077],[-0.74174,37.71116],[-0.72824,37.74832],[-0.74398,37.7564],[-0.74398,37.77902],[-0.75748,37.78063],[-0.73949,37.74347],[-0.74398,37.71116],[-0.73274,37.674],[-0.73949,37.65784],[-0.72149,37.64976],[-0.72599,37.63522],[-0.78672,37.65138],[-0.81146,37.66269],[-0.85869,37.71762],[-0.84969,37.74186],[-0.8272,37.75478],[-0.80021,37.78225],[-0.79571,37.80971],[-0.77547,37.81941],[-0.75298,37.78871],[-0.76198,37.84687],[-0.75073,37.89696],[-0.74174,37.90988],[-0.71924,37.9115],[-0.71699,37.93735],[-0.70575,37.94058],[-0.69675,37.96966],[-0.65402,37.98582],[-0.64952,38.05529],[-0.63828,38.13284],[-0.61129,38.17646],[-0.59779,38.18615],[-0.5663,38.191],[-0.53707,38.18777],[-0.51008,38.20231],[-0.50783,38.21847],[-0.51907,38.26693],[-0.51907,38.29763],[-0.51008,38.3251],[-0.4471,38.36226],[-0.40212,38.35256],[-0.40887,38.36064],[-0.39987,38.41234],[-0.37513,38.44304],[-0.34364,38.45596],[-0.30316,38.48181],[-0.26717,38.49474],[-0.23343,38.5012],[-0.1907,38.51574],[-0.17271,38.51574],[-0.15022,38.53513],[-0.10973,38.53351],[-0.09624,38.52382],[-0.04901,38.56421],[-0.06475,38.57229],[-0.058,38.58683],[-0.03101,38.61591],[-0.00627,38.63045],[0.02971,38.6256],[0.04996,38.64176],[0.0702,38.63853],[0.09944,38.67246],[0.11518,38.67407],[0.12867,38.687],[0.14667,38.687],[0.19615,38.729],[0.23213,38.73224],[0.22089,38.7597],[0.20964,38.7597],[0.1849,38.78555],[0.1984,38.80171],[0.14667,38.8324],[0.12418,38.83402],[0.09494,38.85341],[0.0522,38.8631],[0.03421,38.85987],[-0.02202,38.87603],[-0.03776,38.88734]],[[1.43317,38.77424],[1.42192,38.79686],[1.41742,38.78555],[1.43317,38.77424]],[[1.41067,38.89057],[1.42192,38.90349],[1.43766,38.90188],[1.43991,38.91642],[1.4759,38.91319],[1.50514,38.93257],[1.50964,38.94711],[1.52988,38.9455],[1.53213,38.97943],[1.55237,38.99235],[1.58161,38.98912],[1.58386,39.01497],[1.61759,39.03759],[1.5951,39.05213],[1.5906,39.07475],[1.6086,39.07798],[1.5906,39.09737],[1.55687,39.09414],[1.53213,39.11837],[1.50514,39.11191],[1.49614,39.09898],[1.45341,39.09737],[1.43991,39.08121],[1.42642,39.09252],[1.41742,39.07798],[1.38593,39.07798],[1.37469,39.06182],[1.36119,39.07475],[1.31171,39.04405],[1.29147,39.02466],[1.28472,38.99881],[1.30721,38.97296],[1.26448,38.96812],[1.23299,38.96812],[1.215,38.95681],[1.23524,38.94065],[1.21275,38.89703],[1.24649,38.85664],[1.26673,38.87764],[1.29822,38.87603],[1.30497,38.86633],[1.3432,38.87118],[1.36119,38.85987],[1.37244,38.83079],[1.38368,38.8421],[1.40618,38.8324],[1.40393,38.87441],[1.41067,38.89057]],[[1.38818,38.64176],[1.42867,38.66599],[1.44216,38.68377],[1.4759,38.68215],[1.52538,38.65307],[1.57261,38.65145],[1.58161,38.6773],[1.56137,38.69184],[1.52988,38.67246],[1.49164,38.69023],[1.4714,38.71931],[1.44891,38.73224],[1.43541,38.7597],[1.41742,38.72254],[1.39718,38.73062],[1.37919,38.71931],[1.38818,38.69346],[1.38144,38.69346],[1.38818,38.64176]],[[2.30582,39.57236],[2.31932,39.57721],[2.33731,39.59821],[2.30807,39.58206],[2.30582,39.57236]],[[2.59821,39.54813],[2.6252,39.54651],[2.63195,39.56913],[2.68818,39.55297],[2.72641,39.53197],[2.75115,39.5045],[2.72191,39.47542],[2.7489,39.43665],[2.7399,39.41726],[2.75115,39.39464],[2.78939,39.36233],[2.80513,39.36718],[2.82987,39.35587],[2.84336,39.36556],[2.8816,39.36556],[2.90859,39.35587],[2.93108,39.36395],[2.96482,39.3591],[2.99181,39.33648],[2.98506,39.31548],[3.0053,39.31548],[3.0188,39.29447],[3.04129,39.27993],[3.05028,39.26539],[3.07277,39.26862],[3.12001,39.31225],[3.147,39.33002],[3.17174,39.32679],[3.18748,39.33486],[3.21222,39.36395],[3.22347,39.35748],[3.25046,39.38656],[3.25495,39.4011],[3.2752,39.41565],[3.28194,39.46896],[3.29544,39.49966],[3.34042,39.54166],[3.36741,39.55136],[3.37866,39.57559],[3.40115,39.57721],[3.3854,39.58852],[3.39215,39.6176],[3.41014,39.63699],[3.43488,39.63214],[3.43938,39.65476],[3.45513,39.65476],[3.45737,39.70484],[3.47537,39.721],[3.45288,39.721],[3.45737,39.74523],[3.43263,39.74523],[3.4034,39.76462],[3.37866,39.76624],[3.34717,39.78886],[3.33592,39.78401],[3.32468,39.75816],[3.25495,39.72908],[3.21222,39.742],[3.15374,39.76785],[3.12001,39.8034],[3.12001,39.83248],[3.17848,39.84056],[3.19423,39.85671],[3.18523,39.87125],[3.20322,39.88902],[3.19423,39.89387],[3.1425,39.86479],[3.1335,39.86964],[3.11101,39.85833],[3.09077,39.86641],[3.07952,39.88902],[3.09077,39.91164],[3.10876,39.90518],[3.13125,39.92618],[3.15374,39.92295],[3.18298,39.93911],[3.20322,39.94396],[3.21447,39.96173],[3.18073,39.95203],[3.16499,39.9585],[3.147,39.95365],[3.12001,39.93103],[3.05478,39.92295],[3.06153,39.93265],[3.02779,39.93588],[2.98731,39.90841],[2.95132,39.91972],[2.93558,39.90356],[2.90634,39.89872],[2.87485,39.87771],[2.85461,39.87448],[2.80513,39.85186],[2.77364,39.85186],[2.77589,39.84056],[2.7489,39.82763],[2.74215,39.83248],[2.70167,39.81147],[2.68818,39.79693],[2.67018,39.79209],[2.66568,39.77593],[2.63645,39.76462],[2.62295,39.74846],[2.58472,39.71615],[2.55548,39.7],[2.53074,39.70161],[2.49925,39.68384],[2.46326,39.65153],[2.42053,39.63537],[2.38454,39.61275],[2.35531,39.60629],[2.34406,39.5869],[2.35531,39.57721],[2.34631,39.56428],[2.36655,39.55459],[2.38679,39.52066],[2.40479,39.53682],[2.42278,39.5352],[2.41828,39.52389],[2.45202,39.53682],[2.46776,39.51905],[2.45652,39.5045],[2.5015,39.46088],[2.52399,39.45765],[2.53748,39.48835],[2.53748,39.51743],[2.55998,39.53197],[2.58921,39.53359],[2.59821,39.54813]],[[2.94682,39.12483],[2.95807,39.12806],[2.95807,39.14907],[2.97606,39.15876],[2.94682,39.16361],[2.94907,39.14907],[2.92433,39.15553],[2.91309,39.14422],[2.94682,39.12483]],[[4.15685,39.8551],[4.18384,39.83894],[4.24007,39.81632],[4.27156,39.80824],[4.2963,39.82278],[4.30754,39.84863],[4.30754,39.86479],[4.29405,39.88095],[4.30979,39.87771],[4.30529,39.8971],[4.28505,39.91164],[4.27605,39.93265],[4.2828,39.94396],[4.25581,39.96334],[4.25806,39.99566],[4.24682,40.0005],[4.21983,39.99727],[4.18834,40.03443],[4.18159,40.02151],[4.1591,40.04251],[4.16585,40.05867],[4.13661,40.06674],[4.13886,40.03282],[4.12311,40.03766],[4.13436,40.06351],[4.10287,40.04412],[4.08713,40.06836],[4.04889,40.0522],[4.03315,40.06513],[4.0219,40.05867],[3.96793,40.05382],[3.95893,40.0619],[3.92069,40.05705],[3.90945,40.04897],[3.8982,40.06028],[3.87796,40.0522],[3.85322,40.05543],[3.82173,40.05059],[3.81049,40.02958],[3.79249,40.01989],[3.79474,40.0005],[3.82623,39.99566],[3.83523,39.96011],[3.82398,39.95203],[3.82173,39.92295],[3.89595,39.92295],[3.95668,39.93911],[4.01291,39.91972],[4.01966,39.92295],[4.07813,39.89549],[4.09837,39.87933],[4.15685,39.8551]],[[-9.01175,42.46433],[-8.99826,42.46918],[-9.01625,42.48534],[-9.01175,42.46433]],[[1.97295,42.48534],[1.95721,42.45787],[1.9842,42.44656],[2.01344,42.44818],[1.98645,42.47564],[1.99769,42.48534],[1.97745,42.49503],[1.97295,42.48534]],[[-8.93978,42.35609],[-8.92629,42.39002],[-8.94428,42.38032],[-8.93978,42.35609]],[[-8.91504,42.2123],[-8.8993,42.21714],[-8.9038,42.24299],[-8.91504,42.2123]],[[-8.87231,42.52573],[-8.85881,42.55804],[-8.87681,42.5742],[-8.88805,42.56773],[-8.87006,42.55642],[-8.88131,42.53381],[-8.87231,42.52573]],[[-5.38167,35.91297],[-5.37268,35.88065],[-5.34344,35.87096],[-5.32095,35.88712],[-5.28046,35.89358],[-5.28721,35.9065],[-5.3142,35.88873],[-5.33444,35.89358],[-5.36593,35.91781],[-5.38167,35.91297]],[[-2.95262,35.32003],[-2.97061,35.28933],[-2.95037,35.2651],[-2.92788,35.27479],[-2.93238,35.29418],[-2.95262,35.32003]],[[-15.37902,27.93177],[-15.36102,27.93661],[-15.37902,27.94631],[-15.38352,27.96731],[-15.36777,27.99155],[-15.38801,28.0287],[-15.415,28.04809],[-15.4195,28.06263],[-15.41051,28.09818],[-15.4285,28.12564],[-15.4285,28.14665],[-15.41275,28.12887],[-15.40376,28.17411],[-15.42175,28.18057],[-15.44199,28.1628],[-15.43075,28.14503],[-15.44649,28.13049],[-15.46898,28.12564],[-15.47798,28.13695],[-15.52971,28.15472],[-15.5432,28.14826],[-15.57919,28.14341],[-15.61293,28.14826],[-15.63767,28.1725],[-15.66466,28.15796],[-15.68265,28.16926],[-15.70964,28.16603],[-15.69614,28.15149],[-15.71414,28.10302],[-15.70739,28.0901],[-15.73888,28.05455],[-15.76587,28.04648],[-15.79061,28.01901],[-15.82209,28.01255],[-15.8176,28.00447],[-15.83334,27.97539],[-15.82884,27.94954],[-15.83334,27.91076],[-15.8176,27.89299],[-15.78611,27.83483],[-15.72538,27.78798],[-15.6894,27.77182],[-15.67365,27.7492],[-15.66016,27.75728],[-15.62867,27.74435],[-15.61967,27.7492],[-15.59943,27.73466],[-15.56794,27.73951],[-15.56345,27.7589],[-15.48698,27.79282],[-15.43974,27.8009],[-15.42175,27.8106],[-15.41275,27.84775],[-15.38576,27.85745],[-15.39251,27.88491],[-15.37902,27.93177]],[[-14.36017,28.04809],[-14.32643,28.04648],[-14.30169,28.07394],[-14.24996,28.11756],[-14.22297,28.1628],[-14.20048,28.1725],[-14.15774,28.17573],[-14.15325,28.18219],[-14.07228,28.20158],[-14.0093,28.20966],[-13.98906,28.22743],[-13.94858,28.22743],[-13.92609,28.24197],[-13.89685,28.28882],[-13.90359,28.2969],[-13.8946,28.32436],[-13.87885,28.33729],[-13.86311,28.38576],[-13.85186,28.39384],[-13.85186,28.42453],[-13.86311,28.43907],[-13.85636,28.46008],[-13.86761,28.48108],[-13.86311,28.49401],[-13.84287,28.5037],[-13.83837,28.54247],[-13.82712,28.55217],[-13.82937,28.58287],[-13.82263,28.59256],[-13.83387,28.67496],[-13.83162,28.69434],[-13.84512,28.72827],[-13.86761,28.73635],[-13.86761,28.74604],[-13.8901,28.75735],[-13.91484,28.74443],[-13.92609,28.75089],[-13.95757,28.73473],[-13.97557,28.73473],[-14.0183,28.71535],[-14.0183,28.69434],[-14.0093,28.67657],[-14.03854,28.61195],[-14.03404,28.59256],[-14.06778,28.55055],[-14.07453,28.5247],[-14.10152,28.47623],[-14.12626,28.45685],[-14.151,28.42938],[-14.16224,28.39222],[-14.16224,28.37283],[-14.17574,28.34698],[-14.20273,28.32921],[-14.21397,28.28721],[-14.20947,28.25974],[-14.22297,28.21612],[-14.24546,28.19511],[-14.31518,28.14503],[-14.38266,28.11433],[-14.42989,28.10141],[-14.49961,28.09979],[-14.49286,28.08364],[-14.50411,28.07233],[-14.47712,28.07717],[-14.40965,28.05779],[-14.36017,28.04809]],[[-13.82263,28.73797],[-13.81363,28.76543],[-13.83612,28.75251],[-13.82263,28.73797]],[[-13.70117,28.9173],[-13.64494,28.91892],[-13.61571,28.93022],[-13.59996,28.948],[-13.55048,28.95769],[-13.49425,28.99323],[-13.48526,28.99162],[-13.46277,29.02393],[-13.46951,29.03363],[-13.44702,29.09179],[-13.46277,29.11602],[-13.44702,29.14672],[-13.42903,29.1548],[-13.42003,29.20165],[-13.46951,29.23881],[-13.4965,29.21781],[-13.52124,29.17095],[-13.52349,29.14187],[-13.53924,29.1241],[-13.56173,29.11764],[-13.58422,29.13379],[-13.60446,29.13541],[-13.63145,29.11764],[-13.65844,29.1241],[-13.66294,29.11279],[-13.71017,29.07886],[-13.7529,29.07886],[-13.81363,29.03363],[-13.83387,28.99],[-13.82937,28.93022],[-13.8811,28.88499],[-13.8766,28.85914],[-13.82937,28.86237],[-13.79339,28.85429],[-13.78664,28.83813],[-13.7529,28.87368],[-13.73491,28.90761],[-13.70117,28.9173]],[[-13.48751,29.2485],[-13.47176,29.26628],[-13.48301,29.2792],[-13.50775,29.29051],[-13.52349,29.26628],[-13.52574,29.24204],[-13.54598,29.23235],[-13.54373,29.21942],[-13.52124,29.21942],[-13.48751,29.2485]],[[-13.52349,29.41168],[-13.53024,29.38583],[-13.50775,29.38422],[-13.48976,29.4036],[-13.5055,29.41653],[-13.52349,29.41168]],[[-17.96101,27.69265],[-17.95651,27.72012],[-17.93177,27.7282],[-17.92502,27.74597],[-17.88229,27.81221],[-17.89354,27.8316],[-17.91828,27.84775],[-17.95426,27.84129],[-17.9925,27.8219],[-17.98575,27.80736],[-17.99699,27.79121],[-18.03973,27.76213],[-18.06447,27.75405],[-18.10495,27.75728],[-18.13194,27.77182],[-18.15218,27.76051],[-18.15218,27.73143],[-18.16118,27.71689],[-18.14544,27.70396],[-18.12519,27.70558],[-18.05097,27.69265],[-18.02848,27.6765],[-18.01049,27.64903],[-17.98575,27.63772],[-17.97001,27.64903],[-17.97225,27.67165],[-17.96101,27.69265]],[[-17.91828,28.59256],[-17.90028,28.57317],[-17.88004,28.54086],[-17.87554,28.49077],[-17.85755,28.46008],[-17.83281,28.45846],[-17.81707,28.49401],[-17.79682,28.51824],[-17.78783,28.54409],[-17.76084,28.56994],[-17.75634,28.61356],[-17.74959,28.62002],[-17.76983,28.67657],[-17.74509,28.71212],[-17.7316,28.72019],[-17.72485,28.74281],[-17.75859,28.78643],[-17.75859,28.80421],[-17.77883,28.83813],[-17.80807,28.84298],[-17.85755,28.83329],[-17.89578,28.84298],[-17.92052,28.85752],[-17.96776,28.82521],[-17.979,28.80421],[-17.99475,28.79613],[-18.00599,28.77674],[-18.00149,28.75251],[-17.98125,28.72827],[-17.96326,28.66849],[-17.93852,28.63941],[-17.91828,28.59256]],[[-17.32901,28.08041],[-17.32001,28.06102],[-17.27278,28.03517],[-17.27053,28.02547],[-17.24354,28.02063],[-17.2278,28.02709],[-17.19856,28.02386],[-17.16707,28.03678],[-17.15357,28.05455],[-17.0996,28.09495],[-17.10409,28.12887],[-17.11759,28.15149],[-17.17607,28.17734],[-17.20081,28.19996],[-17.24354,28.19996],[-17.25928,28.21773],[-17.27503,28.21773],[-17.31776,28.20319],[-17.347,28.14826],[-17.34025,28.13211],[-17.34925,28.09818],[-17.32901,28.08041]],[[-16.63853,28.0077],[-16.59579,28.0287],[-16.55981,28.03194],[-16.54631,28.02547],[-16.54181,28.04325],[-16.49233,28.08202],[-16.46309,28.11918],[-16.42486,28.15149],[-16.43386,28.15634],[-16.42036,28.19835],[-16.42486,28.20158],[-16.38662,28.26459],[-16.38437,28.28397],[-16.36188,28.30659],[-16.35963,28.31952],[-16.36863,28.35506],[-16.35514,28.38253],[-16.32815,28.40191],[-16.31915,28.4003],[-16.26742,28.44877],[-16.25393,28.45038],[-16.23593,28.48593],[-16.22019,28.48916],[-16.15496,28.52309],[-16.14372,28.52147],[-16.12123,28.55217],[-16.13472,28.58125],[-16.15721,28.58933],[-16.1932,28.57156],[-16.22469,28.56509],[-16.27417,28.57802],[-16.29891,28.56832],[-16.3304,28.5764],[-16.33265,28.55702],[-16.36638,28.54571],[-16.37763,28.54732],[-16.42261,28.51824],[-16.42936,28.48916],[-16.47434,28.45361],[-16.47659,28.44069],[-16.49683,28.43907],[-16.50358,28.42453],[-16.52157,28.41807],[-16.55531,28.41807],[-16.60254,28.39384],[-16.65202,28.39545],[-16.67451,28.4003],[-16.68126,28.39061],[-16.75548,28.37445],[-16.80946,28.37606],[-16.8297,28.39384],[-16.87019,28.37122],[-16.91742,28.35991],[-16.91967,28.34214],[-16.90392,28.33891],[-16.88143,28.30336],[-16.86119,28.28721],[-16.8387,28.25489],[-16.84544,28.23874],[-16.8342,28.20158],[-16.80496,28.17088],[-16.79371,28.14018],[-16.76897,28.10949],[-16.73974,28.08848],[-16.73749,28.05455],[-16.7105,28.04648],[-16.70825,28.01093],[-16.67901,27.99801],[-16.66552,28.0077],[-16.63853,28.0077]]]}}]}