{"type":"FeatureCollection", "features": [
{"type":"Feature","geometry":{"type":"Polygon","coordinates":[[[-2.7637,38.5319],[-2.67375,38.49635],[-2.59725,38.5125],[-2.56575,38.4899],[-2.5725,38.41395],[-2.4848,38.3978],[-2.4848,38.30085],[-2.44205,38.2847],[-2.4533,38.2201],[-2.44655,38.18455],[-2.5523,38.08435],[-2.4241,38.03265],[-2.34085,38.0262],[-2.3251,38.06985],[-2.26665,38.1086],[-2.21265,38.2023],[-2.1137,38.23785],[-2.04845,38.3057],[-1.98325,38.2815],[-1.89555,38.3025],[-1.85055,38.3332],[-1.74485,38.38005],[-1.68185,38.35905],[-1.6661,38.31055],[-1.58965,38.31055],[-1.47945,38.3768],[-1.47945,38.4802],[-1.4997,38.5319],[-1.4862,38.5642],[-1.45245,38.582],[-1.44795,38.64985],[-1.403,38.69025],[-1.367,38.70475],[-1.34225,38.6773],[-1.28375,38.7064],[-1.25005,38.7387],[-1.1848,38.75485],[-1.1196,38.7371],[-1.1151,38.71125],[-1.0251,38.6563],[-0.96215,38.6563],[-0.9149,38.6967],[-0.96215,38.77425],[-0.9284,38.78395],[-0.93515,38.855],[-0.9239,38.8922],[-0.9599,38.9439],[-1.1466,38.92935],[-1.16005,38.9552],[-1.22755,39.02465],[-1.26355,39.04565],[-1.2568,39.10545],[-1.1938,39.17975],[-1.1758,39.22985],[-1.16905,39.31385],[-1.22305,39.3155],[-1.36475,39.35585],[-1.385,39.35425],[-1.48395,39.4237],[-1.5042,39.41725],[-1.5559,39.4011],[-1.61665,39.36555],[-1.74035,39.32195],[-1.7696,39.27995],[-1.84605,39.2864],[-1.88655,39.30415],[-1.99,39.29445],[-2.044,39.3591],[-2.0957,39.3591],[-2.0732,39.2654],[-2.1677,39.28155],[-2.28915,39.2266],[-2.3206,39.28315],[-2.34985,39.2783],[-2.3746,39.2331],[-2.4848,39.3155],[-2.5118,39.34295],[-2.5478,39.32355],[-2.5995,39.3397],[-2.658,39.32355],[-2.74345,39.3187],[-2.7232,39.267],[-2.8424,39.13455],[-2.80645,39.0796],[-2.81095,39.02305],[-2.8784,38.9552],[-2.83565,38.9067],[-2.7997,38.90835],[-2.76145,38.88085],[-2.7502,38.80655],[-2.69845,38.78395],[-2.63775,38.73385],[-2.66925,38.64985],[-2.70295,38.624],[-2.7502,38.6159],[-2.7637,38.5319]]]},"properties":{"name":"Albacete"},"id":"02"},
{"type":"Feature","geometry":{"type":"Polygon","coordinates":[[[-0.762,37.84685],[-0.75075,37.89695],[-0.71925,37.9115],[-0.69675,37.96965],[-0.654,37.9858],[-0.6383,38.13285],[-0.6113,38.17645],[-0.5101,38.2023],[-0.51905,38.26695],[-0.5101,38.3251],[-0.4471,38.36225],[-0.40885,38.36065],[-0.39985,38.41235],[-0.37515,38.44305],[-0.30315,38.4818],[-0.1907,38.51575],[-0.1502,38.53515],[-0.09625,38.5238],[-0.031,38.6159],[0.0702,38.63855],[0.09945,38.67245],[0.14665,38.687],[0.19615,38.729],[0.23215,38.73225],[0.1849,38.78555],[0.1984,38.8017],[0.09495,38.8534],[0.0342,38.85985],[-0.03775,38.88735],[-0.14795,38.85825],[-0.16145,38.88735],[-0.2312,38.8534],[-0.3099,38.88085],[-0.3819,38.834],[-0.44035,38.82435],[-0.4741,38.8033],[-0.5348,38.8098],[-0.59555,38.79525],[-0.5663,38.75485],[-0.5303,38.7678],[-0.50785,38.74355],[-0.61805,38.687],[-0.64275,38.7274],[-0.70575,38.73385],[-0.74625,38.7581],[-0.82945,38.73225],[-0.86095,38.771],[-0.9284,38.78395],[-0.96215,38.77425],[-0.9149,38.6967],[-0.96215,38.6563],[-1.0251,38.6563],[-1.00265,38.5723],[-1.0251,38.5222],[-1.0139,38.49635],[-1.08135,38.4414],[-1.0836,38.3461],[-0.98915,38.32025],[-0.9689,38.25565],[-0.98915,38.1991],[-1.03635,38.1377],[-1.0229,38.0763],[-0.96665,38.0133],[-0.92165,37.9438],[-0.82945,37.86465],[-0.762,37.84685]]]},"properties":{"name":"Alacant/Alicante"},"id":"03"},
{"type":"Feature","geometry":{"type":"Polygon","coordinates":[[[-3.12805,36.7515],[-2.97735,36.73855],[-2.93915,36.7515],[-2.8964,36.73695],[-2.85815,36.69815],[-2.8199,36.70625],[-2.7592,36.6804],[-2.7007,36.6836],[-2.65125,36.6998],[-2.61975,36.72725],[-2.5995,36.7741],[-2.56125,36.8161],[-2.4758,36.8371],[-2.42635,36.81125],[-2.3611,36.84195],[-2.31835,36.83385],[-2.2509,36.7854],[-2.1924,36.7208],[-2.12495,36.7321],[-2.1047,36.7628],[-2.0642,36.7757],[-2.06195,36.8032],[-1.999,36.84035],[-2.00125,36.88395],[-1.9675,36.8985],[-1.93375,36.9389],[-1.89555,36.9486],[-1.90005,36.98735],[-1.85055,37.06815],[-1.82355,37.1699],[-1.79655,37.2297],[-1.7066,37.30725],[-1.6706,37.35735],[-1.63015,37.3751],[-1.7381,37.44295],[-1.84605,37.45425],[-1.954,37.58835],[-2.0125,37.6724],[-1.99675,37.7273],[-2.008,37.77415],[-1.9945,37.842],[-1.97425,37.86785],[-2.1002,37.87755],[-2.1227,37.9002],[-2.1722,37.8889],[-2.20815,37.91635],[-2.28915,37.88565],[-2.30265,37.8097],[-2.2779,37.7758],[-2.32285,37.695],[-2.3161,37.6223],[-2.36335,37.6207],[-2.35885,37.52215],[-2.4353,37.5092],[-2.5028,37.48335],[-2.568,37.4462],[-2.64225,37.38805],[-2.63775,37.3428],[-2.66475,37.28465],[-2.66025,37.21195],[-2.7322,37.2378],[-2.7592,37.22645],[-2.8199,37.27815],[-2.84465,37.2798],[-2.8739,37.2313],[-2.8964,37.1667],[-2.9279,37.157],[-2.9481,37.0972],[-2.98635,37.09235],[-3.0291,37.1134],[-2.99985,37.0116],[-2.97735,36.97445],[-3.02235,36.95345],[-3.03135,36.92435],[-3.0696,36.90175],[-3.0291,36.8452],[-3.1393,36.787],[-3.12805,36.7515]]]},"properties":{"name":"Almería"},"id":"04"},
{"type":"Feature","geometry":{"type":"Polygon","coordinates":[[[-5.73705,40.29455],[-5.69205,40.2913],[-5.59535,40.217],[-5.5301,40.1944],[-5.47165,40.2073],[-5.4289,40.25255],[-5.34345,40.26385],[-5.37045,40.2154],[-5.3682,40.1637],[-5.3367,40.1152],[-5.21075,40.1055],[-5.1995,40.0813],[-5.14325,40.091],[-5.0668,40.15075],[-5.0173,40.15885],[-5.00605,40.11035],[-4.9251,40.1362],[-4.9251,40.17015],[-4.83965,40.2089],[-4.7609,40.2606],[-4.69795,40.2816],[-4.6867,40.21055],[-4.63945,40.1976],[-4.57875,40.217],[-4.56975,40.259],[-4.5045,40.31555],[-4.45505,40.3188],[-4.44155,40.38825],[-4.41455,40.40925],[-4.33135,40.40765],[-4.32235,40.44965],[-4.3246,40.5498],[-4.2886,40.56435],[-4.2796,40.60475],[-4.2144,40.60635],[-4.1739,40.6306],[-4.1604,40.6904],[-4.2526,40.68875],[-4.2751,40.67745],[-4.3201,40.64835],[-4.3336,40.63705],[-4.41905,40.63385],[-4.43255,40.7421],[-4.4753,40.7776],[-4.49775,40.83415],[-4.54725,40.8261],[-4.536,40.87295],[-4.5585,40.88585],[-4.56525,40.95695],[-4.60575,40.9715],[-4.63945,41.02965],[-4.71595,41.07165],[-4.7227,41.1492],[-4.78565,41.14435],[-4.8284,41.09915],[-4.86435,41.0943],[-4.96785,41.15245],[-5.0128,41.16375],[-5.06005,41.1379],[-5.12525,41.13145],[-5.14775,41.09265],[-5.1455,41.0442],[-5.1073,41.02965],[-5.0893,40.99735],[-5.1275,40.9489],[-5.1118,40.91495],[-5.1635,40.8681],[-5.15675,40.82445],[-5.29395,40.70975],[-5.3794,40.67585],[-5.3839,40.6209],[-5.4469,40.5789],[-5.5166,40.58215],[-5.5121,40.5482],[-5.43115,40.5676],[-5.4604,40.4739],[-5.50985,40.45935],[-5.54585,40.4238],[-5.59085,40.4674],[-5.63355,40.46095],[-5.69205,40.4222],[-5.6853,40.35595],[-5.73705,40.29455]]]},"properties":{"name":"Ávila"},"id":"05"},
{"type":"Feature","geometry":{"type":"Polygon","coordinates":[[[-6.9313,38.20875],[-6.8571,38.1797],[-6.7941,38.1781],[-6.80985,38.11185],[-6.7694,38.11185],[-6.6614,38.09245],[-6.6232,38.0973],[-6.58045,38.05205],[-6.5872,38.0262],[-6.495,38.01975],[-6.414,38.0585],[-6.3668,38.0488],[-6.35555,38.01005],[-6.3038,37.97775],[-6.19585,37.95675],[-6.1801,37.9406],[-6.1194,37.98095],[-6.03165,37.9971],[-5.95295,37.9955],[-5.90795,38.0682],[-5.9282,38.0876],[-5.91245,38.12315],[-5.83825,38.17485],[-5.72805,38.19745],[-5.68755,38.1813],[-5.6943,38.1506],[-5.74155,38.12635],[-5.73255,38.0876],[-5.6943,38.08435],[-5.63355,38.1377],[-5.5841,38.1312],[-5.53685,38.1684],[-5.5211,38.20715],[-5.5256,38.2637],[-5.55485,38.317],[-5.55935,38.3671],[-5.5841,38.3865],[-5.56835,38.43335],[-5.4109,38.5206],[-5.3727,38.5836],[-5.30745,38.57875],[-5.2917,38.61105],[-5.18375,38.65955],[-5.17025,38.71285],[-5.10055,38.708],[-5.04655,38.729],[-4.99035,38.7403],[-4.97235,38.7613],[-4.9431,38.855],[-4.91385,38.88735],[-4.84865,38.88085],[-4.8374,38.93095],[-4.9341,38.9762],[-4.96335,39.0586],[-4.8599,39.03115],[-4.82615,39.06345],[-4.87335,39.09575],[-4.85315,39.1523],[-4.8104,39.19915],[-4.7429,39.1943],[-4.7092,39.21045],[-4.7609,39.3203],[-4.71145,39.34615],[-4.6687,39.4237],[-4.6867,39.44955],[-4.7564,39.41565],[-4.8711,39.3688],[-4.94085,39.39465],[-4.9521,39.39465],[-4.99255,39.3704],[-5.05555,39.36395],[-5.11405,39.3882],[-5.11855,39.34295],[-5.15,39.3203],[-5.24675,39.30255],[-5.33895,39.33325],[-5.3547,39.26215],[-5.34795,39.23955],[-5.3839,39.1733],[-5.41315,39.15715],[-5.4649,39.1604],[-5.52785,39.19105],[-5.55035,39.2153],[-5.61335,39.18785],[-5.57735,39.1507],[-5.60435,39.1006],[-5.64705,39.1022],[-5.6898,39.08285],[-5.7685,39.13615],[-5.9237,39.08285],[-5.9417,39.1087],[-6.00695,39.057],[-6.0159,39.1297],[-6.1531,39.05215],[-6.2026,39.057],[-6.23185,39.0893],[-6.3128,39.1103],[-6.31055,39.15555],[-6.34205,39.1846],[-6.37805,39.162],[-6.43875,39.17655],[-6.4905,39.16845],[-6.5782,39.17975],[-6.65915,39.19915],[-6.68165,39.17655],[-6.7514,39.1943],[-6.80085,39.23955],[-6.7604,39.2767],[-6.74915,39.32515],[-6.79635,39.34455],[-6.8031,39.3898],[-6.87285,39.3817],[-7.04825,39.43665],[-7.06625,39.41405],[-7.01005,39.3882],[-7.0505,39.32195],[-7.1045,39.38655],[-7.16075,39.3607],[-7.15175,39.32195],[-7.20345,39.2654],[-7.23045,39.2783],[-7.24845,39.2541],[-7.2417,39.20885],[-7.1315,39.1652],[-7.145,39.1087],[-7.1045,39.099],[-7.05275,39.11835],[-6.9808,39.08765],[-6.95155,39.02305],[-7.05275,38.9067],[-7.03255,38.87765],[-7.09775,38.81465],[-7.12475,38.81625],[-7.2012,38.75],[-7.2597,38.72415],[-7.27095,38.6369],[-7.24395,38.624],[-7.3024,38.5448],[-7.3159,38.4398],[-7.2012,38.32835],[-7.09775,38.1781],[-7.02805,38.1829],[-6.9808,38.212],[-6.9313,38.20875]]]},"properties":{"name":"Badajoz"},"id":"06"},
{"type":"Feature","geometry":{"type":"MultiPolygon","coordinates":[[[[1.41065,38.89055],[1.4399,38.9164],[1.4759,38.9132],[1.5299,38.9455],[1.53215,38.97945],[1.5816,38.9891],[1.5951,39.05215],[1.5906,39.09735],[1.53215,39.11835],[1.4399,39.0812],[1.3612,39.07475],[1.29145,39.02465],[1.3072,38.97295],[1.233,38.9681],[1.21275,38.89705],[1.26675,38.87765],[1.3432,38.8712],[1.4062,38.8324],[1.41065,38.89055]]],[[[1.3882,38.64175],[1.44215,38.68375],[1.49165,38.69025],[1.4489,38.73225],[1.3792,38.7193],[1.3882,38.64175]]],[[[2.5982,39.54815],[2.63195,39.56915],[2.6882,39.55295],[2.75115,39.5045],[2.7219,39.4754],[2.7489,39.43665],[2.75115,39.39465],[2.7894,39.36235],[2.8816,39.36555],[2.9648,39.3591],[3.0503,39.2654],[3.07275,39.2686],[3.147,39.33],[3.22345,39.3575],[3.2752,39.41565],[3.29545,39.49965],[3.3674,39.55135],[3.39215,39.6176],[3.45515,39.65475],[3.45735,39.74525],[3.37865,39.76625],[3.3247,39.75815],[3.25495,39.7291],[3.15375,39.76785],[3.12,39.8034],[3.12,39.8325],[3.1785,39.84055],[3.18525,39.87125],[3.111,39.85835],[3.0548,39.92295],[3.0278,39.9359],[2.9873,39.9084],[2.9513,39.9197],[2.6702,39.7921],[2.5847,39.71615],[2.53075,39.7016],[2.46325,39.65155],[2.3553,39.6063],[2.3463,39.5643],[2.4048,39.5368],[2.452,39.5368],[2.4565,39.5045],[2.524,39.45765],[2.5375,39.51745],[2.5982,39.54815]]],[[[4.15685,39.8551],[4.27155,39.80825],[4.30755,39.84865],[4.3053,39.8971],[4.2828,39.94395],[4.18835,40.03445],[3.95895,40.0619],[3.82175,40.0506],[3.7925,40.0199],[3.82625,39.99565],[3.82175,39.92295],[3.89595,39.92295],[3.9567,39.9391],[4.01965,39.92295],[4.15685,39.8551]]]]},"properties":{"name":"Illes Balears"},"id":"07"},
{"type":"Feature","geometry":{"type":"Polygon","coordinates":[[[1.64685,41.19445],[1.7278,41.21545],[1.85375,41.23485],[1.9347,41.2623],[2.02245,41.26555],[2.14165,41.29945],[2.1754,41.3673],[2.22485,41.4077],[2.2676,41.4594],[2.38005,41.49495],[2.47,41.54665],[2.77815,41.65005],[2.7579,41.67915],[2.7669,41.7244],[2.72415,41.74375],[2.5375,41.72115],[2.515,41.76155],[2.43625,41.80355],[2.3553,41.80675],[2.32605,41.85525],[2.3373,41.88915],[2.3823,41.8714],[2.40705,41.89565],[2.47,41.90535],[2.4745,41.96995],[2.49925,42.00225],[2.497,42.0588],[2.45875,42.0798],[2.4273,42.06045],[2.36655,42.1202],[2.3036,42.11215],[2.27435,42.1428],[2.1439,42.1315],[2.09215,42.14445],[2.06065,42.13475],[2.00445,42.1622],[2.06065,42.1945],[2.0292,42.21555],[2.02695,42.2527],[2.06965,42.2866],[2.01795,42.31085],[1.9842,42.2979],[1.90325,42.32215],[1.8425,42.306],[1.77505,42.29145],[1.6738,42.285],[1.7053,42.23815],[1.68055,42.20585],[1.73905,42.1897],[1.73905,42.1622],[1.69855,42.13475],[1.7233,42.1008],[1.6918,42.0863],[1.6648,42.01035],[1.71655,41.9829],[1.6491,41.9441],[1.61535,41.90535],[1.6311,41.84395],[1.54785,41.77125],[1.4669,41.77125],[1.4264,41.80195],[1.40395,41.7454],[1.40395,41.6856],[1.4489,41.63715],[1.39495,41.6355],[1.3612,41.6129],[1.3927,41.57575],[1.4534,41.5693],[1.4489,41.53695],[1.40395,41.50625],[1.47365,41.4869],[1.46915,41.44485],[1.4894,41.39965],[1.5366,41.3851],[1.5726,41.356],[1.5726,41.31725],[1.62885,41.2946],[1.6176,41.2526],[1.5816,41.23645],[1.64685,41.19445]]]},"properties":{"name":"Barcelona"},"id":"08"},
{"type":"Feature","geometry":{"type":"MultiPolygon","coordinates":[[[[-3.98045,41.5838],[-3.895,41.5515],[-3.82305,41.4804],[-3.80505,41.51435],[-3.7713,41.5208],[-3.76905,41.4594],[-3.73305,41.4691],[-3.72855,41.5176],[-3.67235,41.5612],[-3.6161,41.57735],[-3.5419,41.57735],[-3.45865,41.58865],[-3.39345,41.69045],[-3.35745,41.6937],[-3.3552,41.7373],[-3.2765,41.768],[-3.29,41.8423],[-3.27875,41.86815],[-3.19555,41.8294],[-3.1708,41.79225],[-3.09205,41.87625],[-3.01785,41.88755],[-2.9976,41.9328],[-2.9324,42.0184],[-2.9144,42.02325],[-2.93465,42.0895],[-3.0336,42.0863],[-3.12805,42.201],[-3.08755,42.2462],[-3.11005,42.35125],[-3.06735,42.35445],[-3.0471,42.44495],[-3.07405,42.47725],[-3.0718,42.52735],[-3.10555,42.5532],[-3.0606,42.6033],[-3.08305,42.64045],[-3.00435,42.64365],[-2.8829,42.62105],[-2.85815,42.6388],[-2.8964,42.655],[-2.90315,42.69375],[-2.9796,42.70345],[-3.01785,42.7406],[-3.06285,42.76],[-3.13705,42.76485],[-3.15955,42.80525],[-3.1123,42.8618],[-3.19105,42.86985],[-3.236,42.83755],[-3.28325,42.8763],[-3.22475,42.949],[-3.1438,42.9345],[-3.1258,42.9038],[-3.01785,42.90865],[-2.98185,42.93935],[-3.0381,42.98295],[-3.0898,43.0007],[-3.1438,43.0072],[-3.1348,43.09765],[-3.18205,43.1203],[-3.14155,43.16065],[-3.16855,43.17845],[-3.2225,43.172],[-3.254,43.19945],[-3.4182,43.1332],[-3.50815,43.13645],[-3.64985,43.18005],[-3.6836,43.13645],[-3.7578,43.08635],[-3.88825,43.04275],[-3.9085,43.0169],[-3.967,42.98455],[-3.98945,42.93125],[-3.9265,42.9038],[-3.868,42.9555],[-3.8298,42.92965],[-3.8635,42.88925],[-3.8253,42.86825],[-3.82305,42.79875],[-3.8635,42.78585],[-3.895,42.80525],[-3.94675,42.7616],[-4.0007,42.7697],[-4.0457,42.76645],[-4.0817,42.7616],[-4.10865,42.73415],[-4.14465,42.75355],[-4.2751,42.67275],[-4.2841,42.58065],[-4.27285,42.51925],[-4.24585,42.4934],[-4.2436,42.45625],[-4.31785,42.4595],[-4.33585,42.4304],[-4.32235,42.3803],[-4.2796,42.36415],[-4.2526,42.30925],[-4.22785,42.22845],[-4.1919,42.1816],[-4.2054,42.13475],[-4.1199,42.1283],[-4.05695,42.1008],[-4.10415,42.06205],[-3.9827,42.05075],[-3.97145,42.03295],[-4.0142,41.99905],[-4.0322,41.9538],[-3.8905,41.9974],[-3.89275,41.95705],[-3.9355,41.95705],[-3.98045,41.9312],[-3.98045,41.9005],[-4.0367,41.873],[-4.08845,41.8714],[-4.0907,41.831],[-4.03895,41.7906],[-4.0412,41.768],[-4.0682,41.726],[-4.02545,41.6937],[-4.0277,41.6145],[-3.98045,41.5838]]],[[[-2.8649,42.74385],[-2.8244,42.7083],[-2.78395,42.6986],[-2.7682,42.6663],[-2.6535,42.6695],[-2.6355,42.6485],[-2.58375,42.65175],[-2.6085,42.69535],[-2.5725,42.72445],[-2.604,42.7697],[-2.63325,42.76485],[-2.7322,42.7939],[-2.79295,42.7939],[-2.85365,42.76805],[-2.8649,42.74385]]]]},"properties":{"name":"Burgos"},"id":"09"},
{"type":"Feature","geometry":{"type":"Polygon","coordinates":[[[-7.23045,39.2783],[-7.20345,39.2654],[-7.15175,39.32195],[-7.16075,39.3607],[-7.1045,39.38655],[-7.0505,39.32195],[-7.01005,39.3882],[-7.06625,39.41405],[-7.04825,39.43665],[-6.87285,39.3817],[-6.8031,39.3898],[-6.79635,39.34455],[-6.74915,39.32515],[-6.7604,39.2767],[-6.80085,39.23955],[-6.7514,39.1943],[-6.68165,39.17655],[-6.65915,39.19915],[-6.5782,39.17975],[-6.4905,39.16845],[-6.43875,39.17655],[-6.37805,39.162],[-6.34205,39.1846],[-6.31055,39.15555],[-6.3128,39.1103],[-6.23185,39.0893],[-6.2026,39.057],[-6.1531,39.05215],[-6.0159,39.1297],[-6.00695,39.057],[-5.9417,39.1087],[-5.9237,39.08285],[-5.7685,39.13615],[-5.6898,39.08285],[-5.64705,39.1022],[-5.60435,39.1006],[-5.57735,39.1507],[-5.61335,39.18785],[-5.55035,39.2153],[-5.52785,39.19105],[-5.4649,39.1604],[-5.41315,39.15715],[-5.3839,39.1733],[-5.34795,39.23955],[-5.3547,39.26215],[-5.33895,39.33325],[-5.24675,39.30255],[-5.15,39.3203],[-5.11855,39.34295],[-5.11405,39.3882],[-5.05555,39.36395],[-4.99255,39.3704],[-4.9521,39.39465],[-5.0083,39.43505],[-5.0578,39.48995],[-5.08255,39.48995],[-5.20625,39.59985],[-5.16125,39.64345],[-5.13875,39.71455],[-5.168,39.79855],[-5.20625,39.79695],[-5.25345,39.7533],[-5.3097,39.75975],[-5.30745,39.8357],[-5.2827,39.8567],[-5.32545,39.89225],[-5.4064,39.8777],[-5.36595,39.98275],[-5.37495,40.05865],[-5.3682,40.10065],[-5.3367,40.1152],[-5.3682,40.1637],[-5.37045,40.2154],[-5.34345,40.26385],[-5.4289,40.25255],[-5.47165,40.2073],[-5.5301,40.1944],[-5.59535,40.217],[-5.69205,40.2913],[-5.73705,40.29455],[-5.764,40.28],[-5.7955,40.3511],[-5.89445,40.3188],[-5.9372,40.2816],[-6.0047,40.30585],[-6.0159,40.3398],[-6.08565,40.3608],[-6.06765,40.39795],[-6.1284,40.42055],[-6.15535,40.45775],[-6.20035,40.4836],[-6.24085,40.4852],[-6.2948,40.45125],[-6.33305,40.44805],[-6.3758,40.39955],[-6.4185,40.39955],[-6.43875,40.3737],[-6.53545,40.34785],[-6.5602,40.32845],[-6.5557,40.2913],[-6.5872,40.2703],[-6.71765,40.2687],[-6.7559,40.2461],[-6.83685,40.2493],[-6.86385,40.2703],[-6.9066,40.25415],[-6.95155,40.2574],[-7.0123,40.22505],[-7.0303,40.1847],[-7.00105,40.12005],[-6.9403,40.112],[-6.9178,40.06675],[-6.8931,40.0603],[-6.87285,39.99565],[-6.88635,39.9407],[-6.9066,39.9197],[-6.90435,39.87125],[-6.98755,39.80985],[-6.9763,39.7727],[-7.01455,39.6709],[-7.055,39.6596],[-7.15175,39.65315],[-7.2507,39.6677],[-7.33165,39.64185],[-7.39915,39.6467],[-7.45535,39.66285],[-7.5341,39.6677],[-7.50035,39.59015],[-7.4666,39.5772],[-7.4261,39.53195],[-7.39015,39.53035],[-7.38115,39.4916],[-7.34965,39.48835],[-7.29345,39.45605],[-7.32265,39.38495],[-7.3114,39.34135],[-7.23045,39.2783]]]},"properties":{"name":"Cáceres"},"id":"10"},
{"type":"Feature","geometry":{"type":"Polygon","coordinates":[[[-6.36455,36.79025],[-6.441,36.7208],[-6.3938,36.6481],[-6.35555,36.61575],[-6.30155,36.619],[-6.2656,36.5802],[-6.22285,36.5689],[-6.23635,36.5253],[-6.17335,36.52205],[-6.22735,36.4623],[-6.21835,36.3928],[-6.18235,36.36855],[-6.1419,36.29585],[-6.11265,36.29265],[-6.0339,36.18115],[-5.9147,36.1844],[-5.87425,36.15695],[-5.7955,36.07775],[-5.782,36.08745],[-5.7123,36.05835],[-5.6493,36.0519],[-5.6066,36.0099],[-5.5751,36.01475],[-5.43115,36.0713],[-5.4424,36.08905],[-5.4424,36.15855],[-5.38615,36.17955],[-5.35245,36.1521],[-5.33895,36.1537],[-5.31645,36.228],[-5.25345,36.31205],[-5.2782,36.3379],[-5.32095,36.32495],[-5.33445,36.3944],[-5.3547,36.4332],[-5.39515,36.47035],[-5.43115,36.535],[-5.4919,36.5366],[-5.52335,36.4978],[-5.60885,36.51235],[-5.59985,36.55115],[-5.5436,36.5382],[-5.50315,36.5479],[-5.4379,36.61415],[-5.3839,36.6303],[-5.3232,36.67395],[-5.32545,36.724],[-5.2917,36.7757],[-5.3412,36.81935],[-5.3007,36.8694],[-5.26695,36.8759],[-5.222,36.84195],[-5.17025,36.8242],[-5.13425,36.8387],[-5.10505,36.8985],[-5.08705,36.90495],[-5.11405,36.98895],[-5.14325,37.0035],[-5.1635,36.9809],[-5.2355,36.9405],[-5.30295,37.01965],[-5.3929,36.9728],[-5.4379,36.93565],[-5.4514,36.9825],[-5.4199,37.0132],[-5.4334,37.052],[-5.50985,37.0342],[-5.4694,36.9922],[-5.55035,36.9211],[-5.58635,36.94695],[-5.6943,36.95665],[-5.7168,36.9195],[-5.764,36.92595],[-5.845,36.91465],[-5.8765,36.89525],[-5.89445,36.85165],[-5.9732,36.84355],[-6.1059,36.8581],[-6.1576,36.88555],[-6.27905,36.9098],[-6.3308,36.8985],[-6.35105,36.86135],[-6.34655,36.7967],[-6.36455,36.79025]]]},"properties":{"name":"Cádiz"},"id":"11"},
{"type":"Feature","geometry":{"type":"Polygon","coordinates":[[[-0.79795,39.88095],[-0.73725,39.82115],[-0.69,39.85185],[-0.65625,39.8357],[-0.65175,39.7533],[-0.5888,39.742],[-0.57755,39.7727],[-0.5303,39.79695],[-0.49885,39.74685],[-0.4606,39.71615],[-0.40885,39.74525],[-0.3774,39.80015],[-0.30765,39.79695],[-0.27165,39.7517],[-0.18845,39.7226],[-0.121,39.8147],[-0.004,39.9165],[0.04995,40.03605],[0.1197,40.0619],[0.2029,40.18145],[0.2636,40.2089],[0.27935,40.24445],[0.3311,40.28],[0.4008,40.35755],[0.4188,40.4012],[0.4773,40.4658],[0.5155,40.52235],[0.4368,40.5498],[0.43005,40.5789],[0.38955,40.60635],[0.31535,40.61445],[0.2681,40.65805],[0.29285,40.68715],[0.2254,40.7324],[0.1714,40.7324],[0.07245,40.7146],[0.0432,40.6904],[0.0162,40.72755],[-0.06475,40.72755],[-0.1277,40.7534],[-0.1457,40.7857],[-0.1952,40.78245],[-0.22445,40.7534],[-0.25145,40.6904],[-0.31665,40.6629],[-0.35715,40.67745],[-0.37965,40.62415],[-0.32115,40.60315],[-0.29415,40.61285],[-0.3009,40.52235],[-0.2739,40.4739],[-0.3459,40.4432],[-0.28965,40.38985],[-0.31215,40.35915],[-0.39985,40.29615],[-0.3841,40.26385],[-0.4516,40.23475],[-0.49435,40.2283],[-0.5438,40.2509],[-0.5708,40.1556],[-0.6293,40.1023],[-0.62255,40.0748],[-0.66525,40.0506],[-0.762,40.0393],[-0.7912,39.9892],[-0.83395,39.9795],[-0.8452,39.9472],[-0.82945,39.9068],[-0.79795,39.88095]]]},"properties":{"name":"Castelló/Castellón"},"id":"12"},
{"type":"Feature","geometry":{"type":"MultiPolygon","coordinates":[[[[-4.26835,38.3477],[-4.2751,38.39135],[-4.2234,38.3978],[-4.1559,38.38005],[-4.07045,38.38005],[-4.0052,38.3671],[-3.859,38.37355],[-3.8073,38.42205],[-3.7308,38.42365],[-3.6206,38.39455],[-3.58685,38.4059],[-3.5824,38.4511],[-3.5419,38.44465],[-3.5284,38.4091],[-3.47215,38.3978],[-3.42495,38.4075],[-3.3777,38.4398],[-3.37545,38.47535],[-3.308,38.4802],[-3.281,38.4608],[-3.1303,38.4382],[-3.0651,38.4786],[-3.00435,38.41555],[-2.9616,38.4705],[-2.88965,38.45595],[-2.8087,38.49475],[-2.7637,38.5319],[-2.7502,38.6159],[-2.70295,38.624],[-2.66925,38.64985],[-2.63775,38.73385],[-2.69845,38.78395],[-2.7502,38.80655],[-2.76145,38.88085],[-2.7997,38.90835],[-2.83565,38.9067],[-2.8784,38.9552],[-2.81095,39.02305],[-2.80645,39.0796],[-2.8424,39.13455],[-2.7232,39.267],[-2.74345,39.3187],[-2.79295,39.39785],[-2.8469,39.3478],[-2.8964,39.36555],[-2.8694,39.3914],[-2.9324,39.4722],[-2.97735,39.44475],[-3.02235,39.45765],[-3.0696,39.44955],[-3.1438,39.4948],[-3.1843,39.4754],[-3.2945,39.4706],[-3.34395,39.40755],[-3.4092,39.40435],[-3.4699,39.372],[-3.47665,39.34295],[-3.5554,39.2993],[-3.58685,39.3074],[-3.6746,39.2961],[-3.7218,39.27025],[-3.7668,39.29285],[-3.80955,39.288],[-3.841,39.25895],[-3.967,39.2993],[-3.97145,39.35265],[-4.1289,39.36555],[-4.11765,39.45605],[-4.07945,39.4512],[-4.0682,39.5029],[-4.02995,39.5223],[-4.0412,39.5756],[-4.16715,39.5675],[-4.1919,39.49805],[-4.24135,39.47865],[-4.3201,39.4835],[-4.4528,39.51745],[-4.5315,39.5562],[-4.554,39.51095],[-4.6147,39.4851],[-4.6192,39.4544],[-4.6867,39.44955],[-4.6687,39.4237],[-4.71145,39.34615],[-4.7609,39.3203],[-4.7092,39.21045],[-4.7429,39.1943],[-4.8104,39.19915],[-4.85315,39.1523],[-4.87335,39.09575],[-4.82615,39.06345],[-4.8599,39.03115],[-4.96335,39.0586],[-4.9341,38.9762],[-4.8374,38.93095],[-4.84865,38.88085],[-4.91385,38.88735],[-4.9431,38.855],[-4.97235,38.7613],[-4.99035,38.7403],[-5.04655,38.729],[-5.00155,38.6951],[-4.9431,38.68215],[-4.87785,38.6854],[-4.86215,38.61755],[-4.7092,38.5723],[-4.7047,38.5545],[-4.62145,38.5238],[-4.6102,38.49635],[-4.563,38.4899],[-4.5135,38.46405],[-4.4528,38.40105],[-4.41905,38.3962],[-4.26835,38.3477]]],[[[-4.7564,39.41565],[-4.74065,39.45605],[-4.76315,39.5142],[-4.86215,39.5562],[-4.9071,39.4932],[-4.94085,39.39465],[-4.8711,39.3688],[-4.7564,39.41565]]]]},"properties":{"name":"Ciudad Real"},"id":"13"},
{"type":"Feature","geometry":{"type":"Polygon","coordinates":[[[-5.5841,38.1312],[-5.4964,38.04235],[-5.49415,37.99875],[-5.4154,37.9422],[-5.4199,37.8937],[-5.40415,37.86305],[-5.33895,37.83395],[-5.3502,37.79515],[-5.3097,37.77415],[-5.3052,37.72085],[-5.39065,37.69825],[-5.4109,37.6417],[-5.3592,37.60615],[-5.27595,37.6239],[-5.177,37.68045],[-5.15,37.66105],[-5.11405,37.68855],[-5.04655,37.7176],[-4.9993,37.7063],[-4.93185,37.61585],[-4.9341,37.5205],[-4.9026,37.4672],[-4.83965,37.4349],[-4.8509,37.41065],[-4.82165,37.35895],[-4.78115,37.32825],[-4.67995,37.3347],[-4.65295,37.25555],[-4.6147,37.24265],[-4.60125,37.2087],[-4.5405,37.21195],[-4.4618,37.25395],[-4.44605,37.27815],[-4.37855,37.2701],[-4.3718,37.21515],[-4.3291,37.18445],[-4.25485,37.2297],[-4.26385,37.2604],[-4.23685,37.29755],[-4.2391,37.32825],[-4.2099,37.3525],[-4.15815,37.3428],[-4.0862,37.4042],[-4.0007,37.40255],[-4.04795,37.4672],[-4.08845,37.4866],[-4.1154,37.548],[-4.1604,37.57545],[-4.1829,37.61585],[-4.22785,37.64005],[-4.1649,37.6821],[-4.1829,37.7063],[-4.2391,37.71925],[-4.2256,37.7871],[-4.28635,37.7968],[-4.2616,37.9632],[-4.2841,38.0036],[-4.25935,38.02295],[-4.2481,38.06985],[-4.19415,38.128],[-4.1604,38.14575],[-4.16715,38.1797],[-4.21665,38.24595],[-4.2099,38.30085],[-4.26835,38.3477],[-4.41905,38.3962],[-4.4528,38.40105],[-4.5135,38.46405],[-4.563,38.4899],[-4.6102,38.49635],[-4.62145,38.5238],[-4.7047,38.5545],[-4.7092,38.5723],[-4.86215,38.61755],[-4.87785,38.6854],[-4.9431,38.68215],[-5.00155,38.6951],[-5.04655,38.729],[-5.10055,38.708],[-5.17025,38.71285],[-5.18375,38.65955],[-5.2917,38.61105],[-5.30745,38.57875],[-5.3727,38.5836],[-5.4109,38.5206],[-5.56835,38.43335],[-5.5841,38.3865],[-5.55935,38.3671],[-5.55485,38.317],[-5.5256,38.2637],[-5.5211,38.20715],[-5.53685,38.1684],[-5.5841,38.1312]]]},"properties":{"name":"Córdoba"},"id":"14"},
{"type":"Feature","geometry":{"type":"Polygon","coordinates":[[[-7.7005,43.73585],[-7.72525,43.75035],[-7.86695,43.69865],[-7.8602,43.7633],[-7.90295,43.76815],[-7.92995,43.73905],[-8.0064,43.70515],[-8.06265,43.70515],[-8.0761,43.6599],[-8.14135,43.63245],[-8.26055,43.5581],[-8.30105,43.5565],[-8.3235,43.5258],[-8.3123,43.4531],[-8.2583,43.41915],[-8.21555,43.41755],[-8.2088,43.3287],[-8.25155,43.3497],[-8.2673,43.38525],[-8.33925,43.382],[-8.34825,43.34645],[-8.44275,43.3804],[-8.48545,43.361],[-8.53045,43.3174],[-8.5934,43.3206],[-8.7126,43.2899],[-8.7711,43.2996],[-8.8071,43.3271],[-8.90605,43.29475],[-8.9578,43.29315],[-8.9398,43.2269],[-9.00275,43.22855],[-9.059,43.1849],[-9.1512,43.193],[-9.19845,43.1542],[-9.2164,43.1041],[-9.2614,43.0492],[-9.2569,43.00235],[-9.2974,42.92155],[-9.1602,42.91185],[-9.14895,42.8747],[-9.1062,42.823],[-9.13545,42.7891],[-9.11295,42.7519],[-9.01625,42.78425],[-8.94205,42.77455],[-9.02525,42.7083],[-9.0455,42.62915],[-9.07925,42.59845],[-9.02975,42.5516],[-8.95555,42.5839],[-8.90155,42.64045],[-8.87455,42.63235],[-8.84305,42.68245],[-8.7936,42.6372],[-8.75535,42.6469],[-8.7261,42.6889],[-8.7171,42.7067],[-8.60015,42.74385],[-8.49445,42.75675],[-8.4315,42.74545],[-8.391,42.7891],[-8.355,42.7794],[-8.2988,42.81975],[-8.2538,42.83595],[-8.21105,42.823],[-8.1841,42.86015],[-8.1166,42.8408],[-8.0716,42.8521],[-8.04465,42.8327],[-7.99965,42.84885],[-7.93445,42.9038],[-7.9052,42.9862],[-7.9434,43.06695],[-7.93665,43.1122],[-7.9614,43.18975],[-7.92095,43.2689],[-7.9479,43.2867],[-7.8872,43.33675],[-7.8827,43.40785],[-7.8242,43.4014],[-7.77925,43.44825],[-7.74325,43.5258],[-7.75675,43.5484],[-7.7185,43.58395],[-7.732,43.6163],[-7.6915,43.6583],[-7.7005,43.73585]]]},"properties":{"name":"A Coruña"},"id":"15"},
{"type":"Feature","geometry":{"type":"Polygon","coordinates":[[[-2.74345,39.3187],[-2.658,39.32355],[-2.5995,39.3397],[-2.5478,39.32355],[-2.5118,39.34295],[-2.4848,39.3155],[-2.3746,39.2331],[-2.34985,39.2783],[-2.3206,39.28315],[-2.28915,39.2266],[-2.1677,39.28155],[-2.0732,39.2654],[-2.0957,39.3591],[-2.044,39.3591],[-1.99,39.29445],[-1.88655,39.30415],[-1.84605,39.2864],[-1.7696,39.27995],[-1.74035,39.32195],[-1.61665,39.36555],[-1.5559,39.4011],[-1.5042,39.41725],[-1.52445,39.45765],[-1.4997,39.5029],[-1.5042,39.5643],[-1.46145,39.5772],[-1.4187,39.65475],[-1.36925,39.6903],[-1.313,39.6709],[-1.2613,39.6984],[-1.2748,39.73875],[-1.21405,39.80825],[-1.19605,39.91325],[-1.20505,39.9488],[-1.1421,39.9714],[-1.16455,40.0102],[-1.2478,39.99565],[-1.286,40.0086],[-1.376,40.01665],[-1.38275,40.0393],[-1.45695,40.1346],[-1.44795,40.1459],[-1.47495,40.1847],[-1.54015,40.19115],[-1.6594,40.2816],[-1.77635,40.3915],[-1.80555,40.39795],[-1.8573,40.4254],[-1.927,40.59345],[-1.9855,40.58535],[-2.0305,40.5999],[-2.0912,40.64675],[-2.15645,40.65805],[-2.1677,40.6322],[-2.2149,40.6193],[-2.27565,40.64515],[-2.2869,40.5886],[-2.33185,40.5676],[-2.39935,40.61445],[-2.4151,40.5805],[-2.3791,40.54335],[-2.5298,40.4981],[-2.54105,40.4739],[-2.50505,40.44805],[-2.51405,40.4254],[-2.5905,40.44965],[-2.7007,40.43025],[-2.7232,40.39635],[-2.7862,40.42705],[-2.8087,40.406],[-2.81765,40.34785],[-2.80195,40.26385],[-2.82665,40.20245],[-2.86265,40.20085],[-2.91215,40.1572],[-2.9976,40.2089],[-3.01335,40.1556],[-3.06735,40.1572],[-3.05385,40.10715],[-3.0898,40.06995],[-3.1618,40.06515],[-3.1708,40.04735],[-3.14155,39.98435],[-3.09655,39.9876],[-3.09655,39.93425],[-3.12805,39.8745],[-3.0606,39.8373],[-2.99985,39.7226],[-2.90765,39.64185],[-2.92565,39.60145],[-2.9324,39.4722],[-2.8694,39.3914],[-2.8964,39.36555],[-2.8469,39.3478],[-2.79295,39.39785],[-2.74345,39.3187]]]},"properties":{"name":"Cuenca"},"id":"16"},
{"type":"Feature","geometry":{"type":"Polygon","coordinates":[[[1.8425,42.306],[1.90325,42.32215],[1.9842,42.2979],[2.01795,42.31085],[2.06965,42.2866],[2.02695,42.2527],[2.0292,42.21555],[2.06065,42.1945],[2.00445,42.1622],[2.06065,42.13475],[2.09215,42.14445],[2.1439,42.1315],[2.27435,42.1428],[2.3036,42.11215],[2.36655,42.1202],[2.4273,42.06045],[2.45875,42.0798],[2.497,42.0588],[2.49925,42.00225],[2.4745,41.96995],[2.47,41.90535],[2.40705,41.89565],[2.3823,41.8714],[2.3373,41.88915],[2.32605,41.85525],[2.3553,41.80675],[2.43625,41.80355],[2.515,41.76155],[2.5375,41.72115],[2.72415,41.74375],[2.7669,41.7244],[2.7579,41.67915],[2.77815,41.65005],[2.7939,41.6727],[2.8546,41.70015],[2.9356,41.7163],[2.98055,41.7599],[3.04355,41.7793],[3.10425,41.84555],[3.1335,41.84555],[3.2032,41.8908],[3.2302,41.96995],[3.19425,42.02005],[3.2077,42.0701],[3.17625,42.11215],[3.12225,42.1315],[3.111,42.20585],[3.13575,42.24785],[3.1695,42.264],[3.2797,42.2527],[3.27745,42.28015],[3.3067,42.327],[3.16275,42.36095],[3.1605,42.4288],[3.08625,42.42555],[3.04805,42.45625],[2.9468,42.4821],[2.9176,42.45625],[2.83885,42.4595],[2.7714,42.411],[2.7174,42.4207],[2.67245,42.3884],[2.6747,42.34155],[2.5622,42.3577],[2.542,42.33345],[2.4835,42.33995],[2.4138,42.39165],[2.25635,42.4385],[2.20685,42.4175],[2.12815,42.41265],[2.08765,42.36415],[2.0247,42.3561],[1.9707,42.37385],[1.91675,42.44655],[1.80425,42.4902],[1.73005,42.4918],[1.7323,42.4401],[1.79525,42.4304],[1.79975,42.3787],[1.83575,42.35445],[1.8425,42.306]]]},"properties":{"name":"Girona"},"id":"17"},
{"type":"Feature","geometry":{"type":"Polygon","coordinates":[[[-3.77805,36.73855],[-3.6746,36.73045],[-3.6611,36.74665],[-3.60035,36.7434],[-3.55315,36.7143],[-3.52615,36.724],[-3.4834,36.69655],[-3.4182,36.69495],[-3.3642,36.7143],[-3.33945,36.73855],[-3.245,36.7547],[-3.1438,36.7434],[-3.12805,36.7515],[-3.1393,36.787],[-3.0291,36.8452],[-3.0696,36.90175],[-3.03135,36.92435],[-3.02235,36.95345],[-2.97735,36.97445],[-2.99985,37.0116],[-3.0291,37.1134],[-2.98635,37.09235],[-2.9481,37.0972],[-2.9279,37.157],[-2.8964,37.1667],[-2.8739,37.2313],[-2.84465,37.2798],[-2.8199,37.27815],[-2.7592,37.22645],[-2.7322,37.2378],[-2.66025,37.21195],[-2.66475,37.28465],[-2.63775,37.3428],[-2.64225,37.38805],[-2.568,37.4462],[-2.5028,37.48335],[-2.4353,37.5092],[-2.35885,37.52215],[-2.36335,37.6207],[-2.3161,37.6223],[-2.32285,37.695],[-2.2779,37.7758],[-2.30265,37.8097],[-2.28915,37.88565],[-2.20815,37.91635],[-2.27565,37.95995],[-2.29815,38.0036],[-2.34085,38.0262],[-2.4241,38.03265],[-2.5523,38.08435],[-2.5995,38.0585],[-2.59725,38.0052],[-2.6715,37.9616],[-2.7232,37.9632],[-2.74345,37.9341],[-2.7862,37.91635],[-2.8199,37.85335],[-2.9054,37.7483],[-2.90315,37.6659],[-2.9751,37.632],[-2.9841,37.6013],[-3.0516,37.61745],[-3.0898,37.59645],[-3.17305,37.6433],[-3.26075,37.6336],[-3.29675,37.58835],[-3.4002,37.56415],[-3.4362,37.57385],[-3.5059,37.61745],[-3.53515,37.5819],[-3.62735,37.5286],[-3.6836,37.5173],[-3.72855,37.4882],[-3.79155,37.4656],[-3.841,37.3864],[-3.95125,37.37835],[-4.0007,37.40255],[-4.0862,37.4042],[-4.15815,37.3428],[-4.2099,37.3525],[-4.2391,37.32825],[-4.23685,37.29755],[-4.26385,37.2604],[-4.25485,37.2297],[-4.3291,37.18445],[-4.28635,37.11985],[-4.27285,37.0148],[-4.2234,37.0116],[-4.16715,36.95665],[-4.1109,36.9502],[-4.0907,36.93245],[-3.99845,36.8904],[-3.97145,36.89205],[-3.82755,36.8549],[-3.76905,36.80155],[-3.77805,36.73855]]]},"properties":{"name":"Granada"},"id":"18"},
{"type":"Feature","geometry":{"type":"Polygon","coordinates":[[[-3.53965,41.16535],[-3.4879,41.104],[-3.44745,41.08135],[-3.43845,41.0426],[-3.39345,41.0006],[-3.4362,40.94565],[-3.47215,40.86485],[-3.47665,40.8261],[-3.50365,40.78895],[-3.4452,40.76145],[-3.4362,40.7227],[-3.46765,40.6904],[-3.3282,40.6403],[-3.33045,40.59665],[-3.28325,40.55145],[-3.2,40.51425],[-3.1978,40.44155],[-3.15505,40.43995],[-3.1303,40.4044],[-3.14155,40.3511],[-3.1798,40.31395],[-3.19555,40.2477],[-3.1123,40.28485],[-3.09655,40.2687],[-3.06735,40.1572],[-3.01335,40.1556],[-2.9976,40.2089],[-2.91215,40.1572],[-2.86265,40.20085],[-2.82665,40.20245],[-2.80195,40.26385],[-2.81765,40.34785],[-2.8087,40.406],[-2.7862,40.42705],[-2.7232,40.39635],[-2.7007,40.43025],[-2.5905,40.44965],[-2.51405,40.4254],[-2.50505,40.44805],[-2.54105,40.4739],[-2.5298,40.4981],[-2.3791,40.54335],[-2.4151,40.5805],[-2.39935,40.61445],[-2.33185,40.5676],[-2.2869,40.5886],[-2.27565,40.64515],[-2.2149,40.6193],[-2.1677,40.6322],[-2.15645,40.65805],[-2.0912,40.64675],[-2.0305,40.5999],[-1.9855,40.58535],[-1.927,40.59345],[-1.8573,40.4254],[-1.80555,40.39795],[-1.74935,40.46255],[-1.6931,40.4868],[-1.7021,40.54175],[-1.6661,40.58215],[-1.59865,40.56275],[-1.54465,40.59505],[-1.5649,40.61445],[-1.53565,40.68715],[-1.56265,40.74045],[-1.54015,40.76145],[-1.54465,40.8164],[-1.62115,40.881],[-1.61665,40.94405],[-1.7156,41.0135],[-1.8033,41.08945],[-1.85955,41.104],[-1.89555,41.13465],[-1.9315,41.1379],[-1.9585,41.17185],[-2.0507,41.1476],[-2.06645,41.0959],[-2.1182,41.10235],[-2.17445,41.08295],[-2.2329,41.0975],[-2.2644,41.0668],[-2.32285,41.0571],[-2.35435,41.0862],[-2.4196,41.0571],[-2.46905,41.07815],[-2.5388,41.15405],[-2.57475,41.1395],[-2.59275,41.20255],[-2.76145,41.2736],[-2.77495,41.2494],[-2.86715,41.27525],[-2.87615,41.3221],[-2.90765,41.32695],[-2.9436,41.29785],[-3.06285,41.2736],[-3.20675,41.3043],[-3.254,41.2591],[-3.326,41.2623],[-3.4002,41.25425],[-3.40245,41.21385],[-3.44295,41.21545],[-3.4654,41.18315],[-3.53965,41.16535]]]},"properties":{"name":"Guadalajara"},"id":"19"},
{"type":"Feature","geometry":{"type":"Polygon","coordinates":[[[-2.2509,42.8957],[-2.2104,42.95065],[-2.18115,42.9345],[-2.10245,42.949],[-2.0957,42.97165],[-2.03725,42.98135],[-2.0125,43.07345],[-1.94725,43.09765],[-1.9023,43.1348],[-1.9225,43.17845],[-1.8753,43.21075],[-1.7943,43.2463],[-1.7831,43.2867],[-1.7291,43.29475],[-1.7381,43.3303],[-1.78985,43.35295],[-1.79655,43.382],[-1.8483,43.3804],[-1.9158,43.33675],[-2.008,43.32385],[-2.17665,43.2883],[-2.2284,43.3109],[-2.2824,43.29475],[-2.41285,43.3206],[-2.4398,43.2883],[-2.41735,43.2673],[-2.48705,43.20105],[-2.5073,43.1655],[-2.50505,43.09765],[-2.54555,43.08795],[-2.54105,43.02495],[-2.595,43.0088],[-2.5815,42.96355],[-2.5343,42.97325],[-2.50055,42.9587],[-2.4061,42.9587],[-2.3004,42.92315],[-2.2509,42.8957]]]},"properties":{"name":"Gipuzkoa"},"id":"20"},
{"type":"Feature","geometry":{"type":"Polygon","coordinates":[[[-6.9313,38.20875],[-6.96955,38.1603],[-7.00105,38.02295],[-7.04375,38.0133],[-7.09775,38.044],[-7.12025,38.0052],[-7.1742,37.9923],[-7.2012,38.0036],[-7.26195,37.97775],[-7.2552,37.9228],[-7.3204,37.8194],[-7.3789,37.78225],[-7.4486,37.69825],[-7.45535,37.64655],[-7.52285,37.55285],[-7.50935,37.52375],[-7.46435,37.4866],[-7.4621,37.4074],[-7.4396,37.39125],[-7.44185,37.30725],[-7.42165,37.2733],[-7.40815,37.18285],[-7.37215,37.1699],[-7.27095,37.20225],[-7.145,37.2087],[-7.01455,37.199],[-6.9538,37.1699],[-6.8391,37.1376],[-6.7154,37.0843],[-6.5827,37.0148],[-6.50625,36.96635],[-6.44325,36.9001],[-6.39605,36.8064],[-6.36455,36.79025],[-6.34655,36.7967],[-6.35105,36.86135],[-6.3308,36.8985],[-6.37805,36.93405],[-6.3533,36.98575],[-6.3803,37.04875],[-6.38255,37.09075],[-6.3443,37.11985],[-6.36005,37.13925],[-6.3443,37.2184],[-6.36005,37.23615],[-6.33305,37.29915],[-6.3848,37.33795],[-6.35555,37.41225],[-6.30605,37.4365],[-6.35555,37.4963],[-6.40275,37.5803],[-6.39605,37.611],[-6.44325,37.6239],[-6.5377,37.62715],[-6.4725,37.70955],[-6.3893,37.7483],[-6.31055,37.76445],[-6.2521,37.76285],[-6.1846,37.8097],[-6.1239,37.80485],[-6.15985,37.8727],[-6.1801,37.9406],[-6.19585,37.95675],[-6.3038,37.97775],[-6.35555,38.01005],[-6.3668,38.0488],[-6.414,38.0585],[-6.495,38.01975],[-6.5872,38.0262],[-6.58045,38.05205],[-6.6232,38.0973],[-6.6614,38.09245],[-6.7694,38.11185],[-6.80985,38.11185],[-6.7941,38.1781],[-6.8571,38.1797],[-6.9313,38.20875]]]},"properties":{"name":"Huelva"},"id":"21"},
{"type":"Feature","geometry":{"type":"Polygon","coordinates":[[[-0.9014,42.7422],[-0.8812,42.69375],[-0.9014,42.6566],[-0.90815,42.5871],[-0.93515,42.5726],[-0.89245,42.50955],[-0.9059,42.43685],[-0.84295,42.4078],[-0.84295,42.3658],[-0.88795,42.2866],[-0.8137,42.264],[-0.77095,42.3464],[-0.744,42.34155],[-0.72825,42.2963],[-0.75975,42.264],[-0.7485,42.15415],[-0.77545,42.0556],[-0.8272,42.08305],[-0.8857,42.0039],[-0.7777,41.95705],[-0.6585,41.95705],[-0.6023,41.8827],[-0.55505,41.8714],[-0.5168,41.83745],[-0.50335,41.7454],[-0.4471,41.7066],[-0.3684,41.68235],[-0.3549,41.6323],[-0.24245,41.5725],[-0.20645,41.6016],[-0.15695,41.5903],[-0.15695,41.53535],[-0.10525,41.48525],[-0.06925,41.37215],[-0.004,41.38835],[0.00945,41.36085],[0.1062,41.35115],[0.12865,41.38835],[0.16465,41.4061],[0.21865,41.40285],[0.24115,41.4287],[0.3356,41.4077],[0.35585,41.45295],[0.3401,41.48365],[0.39855,41.4901],[0.4458,41.5418],[0.40305,41.5935],[0.3491,41.59995],[0.3581,41.6323],[0.32885,41.68235],[0.4008,41.7567],[0.47055,41.7664],[0.48405,41.80195],[0.5425,41.8197],[0.592,41.8843],[0.60325,41.9231],[0.56275,41.9328],[0.592,41.96995],[0.6572,42.00225],[0.6842,42.09275],[0.69995,42.10565],[0.6977,42.1719],[0.7719,42.35125],[0.7112,42.43525],[0.71345,42.48695],[0.7562,42.5645],[0.76745,42.61135],[0.6977,42.62915],[0.69545,42.6582],[0.65945,42.6905],[0.6055,42.6986],[0.4818,42.7002],[0.42105,42.6905],[0.36035,42.72445],[0.2951,42.67275],[0.2591,42.71635],[0.1759,42.7374],[0.1062,42.7099],[0.0005,42.68565],[-0.0625,42.69535],[-0.10975,42.73415],[-0.1592,42.79875],[-0.17945,42.78585],[-0.31215,42.84885],[-0.39535,42.79875],[-0.4426,42.79555],[-0.5101,42.8246],[-0.5438,42.7939],[-0.6023,42.8327],[-0.73275,42.8973],[-0.72825,42.91995],[-0.7822,42.92155],[-0.8182,42.90215],[-0.81595,42.8747],[-0.85645,42.84725],[-0.84745,42.78585],[-0.9014,42.7422]]]},"properties":{"name":"Huesca"},"id":"22"},
{"type":"Feature","geometry":{"type":"Polygon","coordinates":[[[-4.26835,38.3477],[-4.2099,38.30085],[-4.21665,38.24595],[-4.16715,38.1797],[-4.1604,38.14575],[-4.19415,38.128],[-4.2481,38.06985],[-4.25935,38.02295],[-4.2841,38.0036],[-4.2616,37.9632],[-4.28635,37.7968],[-4.2256,37.7871],[-4.2391,37.71925],[-4.1829,37.7063],[-4.1649,37.6821],[-4.22785,37.64005],[-4.1829,37.61585],[-4.1604,37.57545],[-4.1154,37.548],[-4.08845,37.4866],[-4.04795,37.4672],[-4.0007,37.40255],[-3.95125,37.37835],[-3.841,37.3864],[-3.79155,37.4656],[-3.72855,37.4882],[-3.6836,37.5173],[-3.62735,37.5286],[-3.53515,37.5819],[-3.5059,37.61745],[-3.4362,37.57385],[-3.4002,37.56415],[-3.29675,37.58835],[-3.26075,37.6336],[-3.17305,37.6433],[-3.0898,37.59645],[-3.0516,37.61745],[-2.9841,37.6013],[-2.9751,37.632],[-2.90315,37.6659],[-2.9054,37.7483],[-2.8199,37.85335],[-2.7862,37.91635],[-2.74345,37.9341],[-2.7232,37.9632],[-2.6715,37.9616],[-2.59725,38.0052],[-2.5995,38.0585],[-2.5523,38.08435],[-2.44655,38.18455],[-2.4533,38.2201],[-2.44205,38.2847],[-2.4848,38.30085],[-2.4848,38.3978],[-2.5725,38.41395],[-2.56575,38.4899],[-2.59725,38.5125],[-2.67375,38.49635],[-2.7637,38.5319],[-2.8087,38.49475],[-2.88965,38.45595],[-2.9616,38.4705],[-3.00435,38.41555],[-3.0651,38.4786],[-3.1303,38.4382],[-3.281,38.4608],[-3.308,38.4802],[-3.37545,38.47535],[-3.3777,38.4398],[-3.42495,38.4075],[-3.47215,38.3978],[-3.5284,38.4091],[-3.5419,38.44465],[-3.5824,38.4511],[-3.58685,38.4059],[-3.6206,38.39455],[-3.7308,38.42365],[-3.8073,38.42205],[-3.859,38.37355],[-4.0052,38.3671],[-4.07045,38.38005],[-4.1559,38.38005],[-4.2234,38.3978],[-4.2751,38.39135],[-4.26835,38.3477]]]},"properties":{"name":"Jaén"},"id":"23"},
{"type":"Feature","geometry":{"type":"Polygon","coordinates":[[[-7.0775,42.50795],[-6.97405,42.4934],[-6.91555,42.5112],[-6.8076,42.4692],[-6.8211,42.38515],[-6.7334,42.3593],[-6.74015,42.2979],[-6.7851,42.2543],[-6.70415,42.20905],[-6.63895,42.21715],[-6.6142,42.2026],[-6.55795,42.20745],[-6.47925,42.1816],[-6.4275,42.2026],[-6.32855,42.19935],[-6.2521,42.1735],[-6.2116,42.14765],[-6.1711,42.159],[-6.0294,42.15735],[-5.95295,42.12345],[-5.91245,42.1412],[-5.83825,42.1186],[-5.75505,42.13635],[-5.7438,42.11375],[-5.6493,42.13475],[-5.5616,42.0556],[-5.5211,42.0976],[-5.48065,42.05235],[-5.42215,42.03135],[-5.37715,42.04105],[-5.39065,42.0895],[-5.37045,42.1299],[-5.3884,42.1719],[-5.36145,42.2252],[-5.30745,42.19935],[-5.2647,42.2107],[-5.2445,42.264],[-5.19725,42.26075],[-5.0938,42.30925],[-5.0623,42.27855],[-5.00155,42.28985],[-4.95435,42.2963],[-4.9431,42.3464],[-4.9116,42.38195],[-4.9251,42.43685],[-4.90035,42.4514],[-4.88685,42.53705],[-4.91385,42.5451],[-4.8936,42.6243],[-4.8981,42.67435],[-4.8711,42.7083],[-4.93635,42.74385],[-4.90935,42.7794],[-4.8891,42.8408],[-4.8554,42.8925],[-4.81265,42.9248],[-4.79465,42.9862],[-4.7384,43.02175],[-4.73395,43.0476],[-4.76765,43.07505],[-4.8329,43.1025],[-4.8509,43.12675],[-4.8419,43.18005],[-4.8711,43.22855],[-4.9431,43.2253],[-4.99705,43.1849],[-5.0398,43.1849],[-5.0938,43.1445],[-5.1028,43.1025],[-5.18825,43.0993],[-5.2827,43.07665],[-5.34345,43.09445],[-5.3839,43.08795],[-5.39065,43.0492],[-5.48065,43.05405],[-5.5391,43.0185],[-5.6291,43.03305],[-5.68755,43.05725],[-5.72805,43.04275],[-5.76625,42.9862],[-5.8045,42.96195],[-5.8877,42.9797],[-5.9552,43.0169],[-5.9732,43.06535],[-6.0159,43.05405],[-6.08115,43.07665],[-6.0969,43.0314],[-6.1374,43.02175],[-6.1891,43.0492],[-6.26335,43.01525],[-6.32855,43.0314],[-6.3578,43.05725],[-6.39605,43.0379],[-6.40725,42.9991],[-6.4455,42.98295],[-6.432,42.93935],[-6.51075,42.928],[-6.5422,42.91185],[-6.61195,42.9248],[-6.72215,42.9167],[-6.77165,42.89895],[-6.82335,42.9151],[-6.8706,42.8731],[-6.84135,42.823],[-6.86835,42.78745],[-6.98305,42.718],[-7.046,42.69535],[-7.01455,42.66465],[-7.046,42.63235],[-7.0775,42.50795]]]},"properties":{"name":"León"},"id":"24"},
{"type":"Feature","geometry":{"type":"Polygon","coordinates":[[[0.38505,41.27845],[0.4323,41.27685],[0.43455,41.32045],[0.46155,41.335],[0.50205,41.28975],[0.55375,41.32695],[0.6145,41.2914],[0.69545,41.314],[0.7517,41.31725],[0.96535,41.356],[0.9811,41.39155],[1.0283,41.40935],[1.07555,41.4594],[1.179,41.4885],[1.16325,41.51275],[1.2195,41.5693],[1.37245,41.56605],[1.3927,41.57575],[1.3612,41.6129],[1.39495,41.6355],[1.4489,41.63715],[1.40395,41.6856],[1.40395,41.7454],[1.4264,41.80195],[1.4669,41.77125],[1.54785,41.77125],[1.6311,41.84395],[1.61535,41.90535],[1.6491,41.9441],[1.71655,41.9829],[1.6648,42.01035],[1.6918,42.0863],[1.7233,42.1008],[1.69855,42.13475],[1.73905,42.1622],[1.73905,42.1897],[1.68055,42.20585],[1.7053,42.23815],[1.6738,42.285],[1.77505,42.29145],[1.8425,42.306],[1.83575,42.35445],[1.79975,42.3787],[1.79525,42.4304],[1.7323,42.4401],[1.73005,42.4918],[1.6626,42.4934],[1.6581,42.46755],[1.5996,42.46755],[1.55235,42.432],[1.4444,42.4417],[1.44215,42.47565],[1.46915,42.50955],[1.4129,42.655],[1.3567,42.7196],[1.1655,42.7083],[1.13405,42.7277],[1.1093,42.7713],[0.96085,42.80525],[0.9316,42.7891],[0.8574,42.82625],[0.7809,42.83595],[0.70895,42.8618],[0.65945,42.83755],[0.6707,42.80525],[0.65045,42.76485],[0.67295,42.718],[0.65945,42.6905],[0.69545,42.6582],[0.6977,42.62915],[0.76745,42.61135],[0.7562,42.5645],[0.71345,42.48695],[0.7112,42.43525],[0.7719,42.35125],[0.6977,42.1719],[0.69995,42.10565],[0.6842,42.09275],[0.6572,42.00225],[0.592,41.96995],[0.56275,41.9328],[0.60325,41.9231],[0.592,41.8843],[0.5425,41.8197],[0.48405,41.80195],[0.47055,41.7664],[0.4008,41.7567],[0.32885,41.68235],[0.3581,41.6323],[0.3491,41.59995],[0.40305,41.5935],[0.4458,41.5418],[0.39855,41.4901],[0.3401,41.48365],[0.35585,41.45295],[0.3356,41.4077],[0.31985,41.3948],[0.37385,41.35115],[0.3491,41.32855],[0.38505,41.27845]]]},"properties":{"name":"Lleida"},"id":"25"},
{"type":"Feature","geometry":{"type":"Polygon","coordinates":[[[-2.9144,42.02325],[-2.8829,42.00875],[-2.79745,42.0475],[-2.7907,42.1089],[-2.73445,42.12505],[-2.70745,42.0863],[-2.75695,42.03295],[-2.67375,41.9974],[-2.6265,42.0071],[-2.57925,41.9958],[-2.5523,42.0459],[-2.43755,42.138],[-2.31835,42.14445],[-2.2374,42.10245],[-2.1272,42.0976],[-2.16095,42.0669],[-2.11595,42.02165],[-2.12495,41.9958],[-2.1002,41.9554],[-2.02825,41.9538],[-1.981,41.91825],[-1.9158,41.9328],[-1.8573,41.9667],[-1.8483,42.00875],[-1.9023,42.02975],[-1.89105,42.0863],[-1.8213,42.15415],[-1.7201,42.13315],[-1.6796,42.1509],[-1.7066,42.20745],[-1.80105,42.222],[-1.8933,42.28985],[-1.91805,42.327],[-1.96525,42.33345],[-2.01475,42.369],[-2.07095,42.34315],[-2.0867,42.38355],[-2.1407,42.4207],[-2.17445,42.4078],[-2.23515,42.42555],[-2.3251,42.46755],[-2.3476,42.4514],[-2.4196,42.48855],[-2.577,42.4837],[-2.60625,42.5031],[-2.7052,42.51605],[-2.6805,42.5936],[-2.7637,42.62265],[-2.7817,42.57905],[-2.85815,42.6388],[-2.8829,42.62105],[-3.00435,42.64365],[-3.08305,42.64045],[-3.0606,42.6033],[-3.10555,42.5532],[-3.0718,42.52735],[-3.07405,42.47725],[-3.0471,42.44495],[-3.06735,42.35445],[-3.11005,42.35125],[-3.08755,42.2462],[-3.12805,42.201],[-3.0336,42.0863],[-2.93465,42.0895],[-2.9144,42.02325]]]},"properties":{"name":"La Rioja"},"id":"26"},
{"type":"Feature","geometry":{"type":"Polygon","coordinates":[[[-7.92995,42.57905],[-7.87595,42.5112],[-7.7815,42.4724],[-7.75225,42.4514],[-7.63305,42.4078],[-7.5768,42.40455],[-7.53635,42.38355],[-7.50035,42.39],[-7.3879,42.43365],[-7.3069,42.4288],[-7.2687,42.41425],[-7.20345,42.3254],[-7.14725,42.43685],[-7.1,42.45785],[-7.0775,42.50795],[-7.046,42.63235],[-7.01455,42.66465],[-7.046,42.69535],[-6.98305,42.718],[-6.86835,42.78745],[-6.84135,42.823],[-6.8706,42.8731],[-6.82335,42.9151],[-6.83685,42.9571],[-6.88185,42.99105],[-6.90885,42.9894],[-6.96505,43.02655],[-6.95155,43.07505],[-6.8661,43.1009],[-6.8211,43.1429],[-6.88635,43.15745],[-6.93805,43.1332],[-6.9808,43.16715],[-6.9718,43.2043],[-7.01905,43.214],[-7.06175,43.2447],[-7.064,43.30125],[-7.1315,43.3303],[-7.127,43.3723],[-7.17645,43.382],[-7.17195,43.4305],[-7.127,43.424],[-7.046,43.47735],[-7.03255,43.5452],[-7.064,43.5581],[-7.1675,43.5549],[-7.2372,43.5694],[-7.29345,43.59365],[-7.3564,43.6712],[-7.46885,43.7035],[-7.5251,43.73745],[-7.59705,43.67445],[-7.6083,43.7197],[-7.65105,43.7439],[-7.7005,43.73585],[-7.6915,43.6583],[-7.732,43.6163],[-7.7185,43.58395],[-7.75675,43.5484],[-7.74325,43.5258],[-7.77925,43.44825],[-7.8242,43.4014],[-7.8827,43.40785],[-7.8872,43.33675],[-7.9479,43.2867],[-7.92095,43.2689],[-7.9614,43.18975],[-7.93665,43.1122],[-7.9434,43.06695],[-7.9052,42.9862],[-7.93445,42.9038],[-7.99965,42.84885],[-7.9569,42.83915],[-7.98165,42.78745],[-7.9524,42.75355],[-7.86245,42.7067],[-7.8917,42.6776],[-7.8917,42.62915],[-7.92995,42.57905]]]},"properties":{"name":"Lugo"},"id":"27"},
{"type":"Feature","geometry":{"type":"Polygon","coordinates":[[[-4.1604,40.6904],[-4.1739,40.6306],[-4.2144,40.60635],[-4.2796,40.60475],[-4.2886,40.56435],[-4.3246,40.5498],[-4.32235,40.44965],[-4.33135,40.40765],[-4.41455,40.40925],[-4.44155,40.38825],[-4.45505,40.3188],[-4.5045,40.31555],[-4.56975,40.259],[-4.57875,40.217],[-4.518,40.2154],[-4.4483,40.23315],[-4.4348,40.259],[-4.35605,40.3091],[-4.3426,40.24125],[-4.29535,40.2186],[-4.24585,40.27355],[-4.10415,40.24125],[-4.07945,40.2671],[-3.9917,40.2089],[-3.9535,40.21215],[-3.91525,40.19115],[-3.86575,40.1879],[-3.8343,40.16205],[-3.80055,40.175],[-3.7713,40.13945],[-3.71955,40.1475],[-3.6071,40.10875],[-3.62285,40.0538],[-3.69935,40.0199],[-3.7263,39.9892],[-3.78705,39.95365],[-3.87475,39.9294],[-3.87475,39.91005],[-3.8073,39.8874],[-3.7106,39.95525],[-3.6296,39.9682],[-3.6386,39.9876],[-3.5891,40.01345],[-3.53065,40.01825],[-3.5059,40.04895],[-3.42495,40.04735],[-3.3777,40.0748],[-3.3282,40.07965],[-3.3035,40.0538],[-3.1618,40.06515],[-3.0898,40.06995],[-3.05385,40.10715],[-3.06735,40.1572],[-3.09655,40.2687],[-3.1123,40.28485],[-3.19555,40.2477],[-3.1798,40.31395],[-3.14155,40.3511],[-3.1303,40.4044],[-3.15505,40.43995],[-3.1978,40.44155],[-3.2,40.51425],[-3.28325,40.55145],[-3.33045,40.59665],[-3.3282,40.6403],[-3.46765,40.6904],[-3.4362,40.7227],[-3.4452,40.76145],[-3.50365,40.78895],[-3.47665,40.8261],[-3.47215,40.86485],[-3.4362,40.94565],[-3.39345,41.0006],[-3.43845,41.0426],[-3.44745,41.08135],[-3.4879,41.104],[-3.53965,41.16535],[-3.60035,41.1557],[-3.6791,41.0846],[-3.7398,41.0539],[-3.7803,41.0006],[-3.87925,40.97475],[-3.9085,40.95535],[-3.95125,40.89395],[-3.94675,40.86325],[-3.98045,40.7986],[-4.02095,40.78085],[-4.07045,40.7938],[-4.1604,40.6904]]]},"properties":{"name":"Madrid"},"id":"28"},
{"type":"Feature","geometry":{"type":"Polygon","coordinates":[[[-5.25345,36.31205],[-5.21975,36.37505],[-5.177,36.41545],[-5.08255,36.44935],[-5.0083,36.45905],[-4.9341,36.49945],[-4.8554,36.5075],[-4.74065,36.4849],[-4.63945,36.5075],[-4.60795,36.5592],[-4.5135,36.59475],[-4.4348,36.6998],[-4.39655,36.7224],[-4.34035,36.7127],[-4.2481,36.7111],[-4.1109,36.72565],[-4.06595,36.74825],[-3.958,36.72565],[-3.8343,36.7547],[-3.77805,36.73855],[-3.76905,36.80155],[-3.82755,36.8549],[-3.97145,36.89205],[-3.99845,36.8904],[-4.0907,36.93245],[-4.1109,36.9502],[-4.16715,36.95665],[-4.2234,37.0116],[-4.27285,37.0148],[-4.28635,37.11985],[-4.3291,37.18445],[-4.3718,37.21515],[-4.37855,37.2701],[-4.44605,37.27815],[-4.4618,37.25395],[-4.5405,37.21195],[-4.60125,37.2087],[-4.6147,37.24265],[-4.65295,37.25555],[-4.72045,37.2604],[-4.73615,37.24425],[-4.7092,37.1974],[-4.78565,37.1554],[-4.85765,37.17315],[-4.8981,37.1554],[-4.90935,37.115],[-4.9791,37.06815],[-5.14325,37.0035],[-5.11405,36.98895],[-5.08705,36.90495],[-5.10505,36.8985],[-5.13425,36.8387],[-5.17025,36.8242],[-5.222,36.84195],[-5.26695,36.8759],[-5.3007,36.8694],[-5.3412,36.81935],[-5.2917,36.7757],[-5.32545,36.724],[-5.3232,36.67395],[-5.3839,36.6303],[-5.4379,36.61415],[-5.50315,36.5479],[-5.5436,36.5382],[-5.59985,36.55115],[-5.60885,36.51235],[-5.52335,36.4978],[-5.4919,36.5366],[-5.43115,36.535],[-5.39515,36.47035],[-5.3547,36.4332],[-5.33445,36.3944],[-5.32095,36.32495],[-5.2782,36.3379],[-5.25345,36.31205]]]},"properties":{"name":"Málaga"},"id":"29"},
{"type":"Feature","geometry":{"type":"Polygon","coordinates":[[[-1.63015,37.3751],[-1.4817,37.45265],[-1.4592,37.4866],[-1.32425,37.56415],[-1.2568,37.55765],[-1.2388,37.57705],[-1.12635,37.55285],[-1.0746,37.5835],[-0.97565,37.57705],[-0.9194,37.55445],[-0.85195,37.5819],[-0.8227,37.57545],[-0.73275,37.6013],[-0.726,37.6352],[-0.81145,37.6627],[-0.8587,37.7176],[-0.8497,37.74185],[-0.8002,37.78225],[-0.762,37.84685],[-0.82945,37.86465],[-0.92165,37.9438],[-0.96665,38.0133],[-1.0229,38.0763],[-1.03635,38.1377],[-0.98915,38.1991],[-0.9689,38.25565],[-0.98915,38.32025],[-1.0836,38.3461],[-1.08135,38.4414],[-1.0139,38.49635],[-1.0251,38.5222],[-1.00265,38.5723],[-1.0251,38.6563],[-1.1151,38.71125],[-1.1196,38.7371],[-1.1848,38.75485],[-1.25005,38.7387],[-1.28375,38.7064],[-1.34225,38.6773],[-1.367,38.70475],[-1.403,38.69025],[-1.44795,38.64985],[-1.45245,38.582],[-1.4862,38.5642],[-1.4997,38.5319],[-1.47945,38.4802],[-1.47945,38.3768],[-1.58965,38.31055],[-1.6661,38.31055],[-1.68185,38.35905],[-1.74485,38.38005],[-1.85055,38.3332],[-1.89555,38.3025],[-1.98325,38.2815],[-2.04845,38.3057],[-2.1137,38.23785],[-2.21265,38.2023],[-2.26665,38.1086],[-2.3251,38.06985],[-2.34085,38.0262],[-2.29815,38.0036],[-2.27565,37.95995],[-2.20815,37.91635],[-2.1722,37.8889],[-2.1227,37.9002],[-2.1002,37.87755],[-1.97425,37.86785],[-1.9945,37.842],[-2.008,37.77415],[-1.99675,37.7273],[-2.0125,37.6724],[-1.954,37.58835],[-1.84605,37.45425],[-1.7381,37.44295],[-1.63015,37.3751]]]},"properties":{"name":"Murcia"},"id":"30"},
{"type":"Feature","geometry":{"type":"MultiPolygon","coordinates":[[[[-2.4196,42.48855],[-2.3476,42.4514],[-2.3251,42.46755],[-2.23515,42.42555],[-2.17445,42.4078],[-2.1407,42.4207],[-2.0867,42.38355],[-2.07095,42.34315],[-2.01475,42.369],[-1.96525,42.33345],[-1.91805,42.327],[-1.8933,42.28985],[-1.80105,42.222],[-1.7066,42.20745],[-1.6796,42.1509],[-1.7201,42.13315],[-1.8213,42.15415],[-1.89105,42.0863],[-1.9023,42.02975],[-1.8483,42.00875],[-1.76735,41.9958],[-1.7426,41.96835],[-1.67285,41.9667],[-1.6144,41.95055],[-1.5964,41.92635],[-1.52445,41.91015],[-1.50195,41.9247],[-1.42095,41.9134],[-1.38275,41.9441],[-1.34,42.0184],[-1.304,42.04265],[-1.35125,42.07335],[-1.3985,42.12665],[-1.39175,42.1816],[-1.41645,42.222],[-1.3985,42.29145],[-1.32875,42.3561],[-1.36025,42.3787],[-1.34225,42.42395],[-1.27255,42.4821],[-1.29275,42.5112],[-1.2658,42.5564],[-1.2253,42.5419],[-1.2028,42.57905],[-1.1578,42.60005],[-1.1533,42.6469],[-1.0386,42.6485],[-1.02735,42.7002],[-0.94865,42.7115],[-0.9014,42.7422],[-0.84745,42.78585],[-0.85645,42.84725],[-0.81595,42.8747],[-0.8182,42.90215],[-0.7822,42.92155],[-0.72825,42.91995],[-0.75075,42.9668],[-0.81145,42.95065],[-0.9149,42.96355],[-0.94415,42.95385],[-1.00715,42.99105],[-1.08585,43.00235],[-1.1151,43.02335],[-1.2478,43.04275],[-1.34675,43.0912],[-1.3535,43.0282],[-1.4412,43.04595],[-1.47045,43.0912],[-1.4142,43.12835],[-1.37825,43.23015],[-1.4142,43.27375],[-1.46145,43.27215],[-1.53565,43.29475],[-1.57615,43.24955],[-1.61665,43.2576],[-1.62565,43.3061],[-1.69535,43.31255],[-1.7291,43.29475],[-1.7831,43.2867],[-1.7943,43.2463],[-1.8753,43.21075],[-1.9225,43.17845],[-1.9023,43.1348],[-1.94725,43.09765],[-2.0125,43.07345],[-2.03725,42.98135],[-2.0957,42.97165],[-2.10245,42.949],[-2.18115,42.9345],[-2.2104,42.95065],[-2.2509,42.8957],[-2.23515,42.8343],[-2.28015,42.78585],[-2.2734,42.7422],[-2.32285,42.72445],[-2.30935,42.67115],[-2.34535,42.63395],[-2.4151,42.66305],[-2.48255,42.61135],[-2.4623,42.5871],[-2.3971,42.59845],[-2.3926,42.51765],[-2.4196,42.48855]]],[[[-1.1286,42.4482],[-1.0611,42.43365],[-1.1016,42.48535],[-1.1286,42.4482]]]]},"properties":{"name":"Navarra"},"id":"31"},
{"type":"Feature","geometry":{"type":"Polygon","coordinates":[[[-8.19755,42.15415],[-8.18185,42.06525],[-8.11885,42.08305],[-8.09635,42.07175],[-8.0851,42.0168],[-8.16385,41.9829],[-8.2178,41.9134],[-8.1998,41.873],[-8.1616,41.8617],[-8.1661,41.8181],[-8.1301,41.8084],[-8.01315,41.8294],[-7.9884,41.86815],[-7.92095,41.8811],[-7.8917,41.8601],[-7.84445,41.8811],[-7.73425,41.8924],[-7.705,41.90695],[-7.60155,41.86655],[-7.61505,41.831],[-7.4486,41.84555],[-7.3159,41.8423],[-7.1967,41.8795],[-7.1742,41.91985],[-7.18545,41.96995],[-7.1405,41.99095],[-7.0865,41.9732],[-7.0775,41.9522],[-7.00555,41.95055],[-6.9853,41.97155],[-6.96055,42.0265],[-7.0078,42.05235],[-6.9898,42.1218],[-6.9493,42.13635],[-6.93805,42.17675],[-6.88635,42.2139],[-6.8301,42.22685],[-6.7851,42.2543],[-6.74015,42.2979],[-6.7334,42.3593],[-6.8211,42.38515],[-6.8076,42.4692],[-6.91555,42.5112],[-6.97405,42.4934],[-7.0775,42.50795],[-7.1,42.45785],[-7.14725,42.43685],[-7.20345,42.3254],[-7.2687,42.41425],[-7.3069,42.4288],[-7.3879,42.43365],[-7.50035,42.39],[-7.53635,42.38355],[-7.5768,42.40455],[-7.63305,42.4078],[-7.75225,42.4514],[-7.7815,42.4724],[-7.87595,42.5112],[-7.92995,42.57905],[-8.04915,42.5548],[-8.13685,42.5548],[-8.17285,42.5726],[-8.2178,42.5338],[-8.2718,42.5209],[-8.3033,42.4902],[-8.3415,42.4918],[-8.33925,42.43365],[-8.3123,42.34315],[-8.2628,42.3157],[-8.26505,42.2527],[-8.23355,42.2333],[-8.1661,42.2462],[-8.18185,42.15735],[-8.19755,42.15415]]]},"properties":{"name":"Ourense"},"id":"32"},
{"type":"Feature","geometry":{"type":"Polygon","coordinates":[[[-7.03255,43.5452],[-7.046,43.47735],[-7.127,43.424],[-7.17195,43.4305],[-7.17645,43.382],[-7.127,43.3723],[-7.1315,43.3303],[-7.064,43.30125],[-7.06175,43.2447],[-7.01905,43.214],[-6.9718,43.2043],[-6.9808,43.16715],[-6.93805,43.1332],[-6.88635,43.15745],[-6.8211,43.1429],[-6.8661,43.1009],[-6.95155,43.07505],[-6.96505,43.02655],[-6.90885,42.9894],[-6.88185,42.99105],[-6.83685,42.9571],[-6.82335,42.9151],[-6.77165,42.89895],[-6.72215,42.9167],[-6.61195,42.9248],[-6.5422,42.91185],[-6.51075,42.928],[-6.432,42.93935],[-6.4455,42.98295],[-6.40725,42.9991],[-6.39605,43.0379],[-6.3578,43.05725],[-6.32855,43.0314],[-6.26335,43.01525],[-6.1891,43.0492],[-6.1374,43.02175],[-6.0969,43.0314],[-6.08115,43.07665],[-6.0159,43.05405],[-5.9732,43.06535],[-5.9552,43.0169],[-5.8877,42.9797],[-5.8045,42.96195],[-5.76625,42.9862],[-5.72805,43.04275],[-5.68755,43.05725],[-5.6291,43.03305],[-5.5391,43.0185],[-5.48065,43.05405],[-5.39065,43.0492],[-5.3839,43.08795],[-5.34345,43.09445],[-5.2827,43.07665],[-5.18825,43.0993],[-5.1028,43.1025],[-5.0938,43.1445],[-5.0398,43.1849],[-4.99705,43.1849],[-4.9431,43.2253],[-4.8711,43.22855],[-4.8419,43.18005],[-4.73395,43.18815],[-4.72945,43.256],[-4.6372,43.27375],[-4.60795,43.2964],[-4.5225,43.28025],[-4.53375,43.36745],[-4.5135,43.3933],[-4.65295,43.4014],[-4.7654,43.42885],[-4.8711,43.4418],[-4.93635,43.45955],[-5.0128,43.45795],[-5.12975,43.4838],[-5.21525,43.4741],[-5.3007,43.5355],[-5.38615,43.5355],[-5.41315,43.5549],[-5.64705,43.54195],[-5.75505,43.58235],[-5.84275,43.65665],[-5.9597,43.5791],[-6.02265,43.5856],[-6.11265,43.5549],[-6.19135,43.5662],[-6.2431,43.59045],[-6.30605,43.56295],[-6.3713,43.55165],[-6.52425,43.55005],[-6.6277,43.5694],[-6.80985,43.5549],[-6.82785,43.5662],[-6.9493,43.57265],[-7.03255,43.5452]]]},"properties":{"name":"Asturias"},"id":"33"},
{"type":"Feature","geometry":{"type":"Polygon","coordinates":[[[-5.00155,42.28985],[-5.02405,42.22035],[-5.0263,42.15415],[-4.92735,42.1509],[-4.91835,42.0911],[-4.94985,42.05075],[-5.0038,41.93765],[-4.94985,41.9344],[-4.92735,41.915],[-4.86885,41.9312],[-4.8374,41.89885],[-4.79015,41.8181],[-4.75865,41.82615],[-4.7272,41.86815],[-4.6687,41.9005],[-4.59,41.83745],[-4.4865,41.8197],[-4.50225,41.77125],[-4.4438,41.7583],[-4.38755,41.7874],[-4.31785,41.76315],[-4.25935,41.80515],[-4.1514,41.7987],[-4.09965,41.77445],[-4.0412,41.768],[-4.03895,41.7906],[-4.0907,41.831],[-4.08845,41.8714],[-4.0367,41.873],[-3.98045,41.9005],[-3.98045,41.9312],[-3.9355,41.95705],[-3.89275,41.95705],[-3.8905,41.9974],[-4.0322,41.9538],[-4.0142,41.99905],[-3.97145,42.03295],[-3.9827,42.05075],[-4.10415,42.06205],[-4.05695,42.1008],[-4.1199,42.1283],[-4.2054,42.13475],[-4.1919,42.1816],[-4.22785,42.22845],[-4.2526,42.30925],[-4.2796,42.36415],[-4.32235,42.3803],[-4.33585,42.4304],[-4.31785,42.4595],[-4.2436,42.45625],[-4.24585,42.4934],[-4.27285,42.51925],[-4.2841,42.58065],[-4.2751,42.67275],[-4.14465,42.75355],[-4.10865,42.73415],[-4.0817,42.7616],[-4.0974,42.7907],[-4.1514,42.7891],[-4.18515,42.81655],[-4.12665,42.85695],[-4.14915,42.87145],[-4.19865,42.844],[-4.2234,42.8634],[-4.2391,42.95385],[-4.3471,42.97165],[-4.3988,43.03465],[-4.4618,43.0605],[-4.52025,43.0476],[-4.5585,43.0185],[-4.60575,43.03465],[-4.63945,43.0169],[-4.7384,43.02175],[-4.79465,42.9862],[-4.81265,42.9248],[-4.8554,42.8925],[-4.8891,42.8408],[-4.90935,42.7794],[-4.93635,42.74385],[-4.8711,42.7083],[-4.8981,42.67435],[-4.8936,42.6243],[-4.91385,42.5451],[-4.88685,42.53705],[-4.90035,42.4514],[-4.9251,42.43685],[-4.9116,42.38195],[-4.9431,42.3464],[-4.95435,42.2963],[-5.00155,42.28985]]]},"properties":{"name":"Palencia"},"id":"34"},
{"type":"Feature","geometry":{"type":"Polygon","coordinates":[[[-8.7261,42.6889],[-8.76885,42.6065],[-8.8363,42.5516],[-8.81385,42.52895],[-8.8318,42.4821],[-8.8903,42.4821],[-8.86555,42.411],[-8.7711,42.39],[-8.7531,42.3448],[-8.81835,42.3076],[-8.8588,42.3044],[-8.8633,42.26885],[-8.7891,42.24785],[-8.71935,42.28985],[-8.69015,42.28015],[-8.6114,42.3464],[-8.6294,42.285],[-8.70365,42.25915],[-8.7396,42.22685],[-8.8161,42.18805],[-8.82285,42.11695],[-8.90155,42.11215],[-8.8858,42.05075],[-8.8813,41.8827],[-8.75535,41.9344],[-8.7441,41.9651],[-8.6609,42.0039],[-8.6294,42.05075],[-8.5462,42.05395],[-8.5237,42.0782],[-8.4315,42.07335],[-8.3325,42.08305],[-8.2448,42.1396],[-8.19755,42.15415],[-8.18185,42.15735],[-8.1661,42.2462],[-8.23355,42.2333],[-8.26505,42.2527],[-8.2628,42.3157],[-8.3123,42.34315],[-8.33925,42.43365],[-8.3415,42.4918],[-8.3033,42.4902],[-8.2718,42.5209],[-8.2178,42.5338],[-8.17285,42.5726],[-8.13685,42.5548],[-8.04915,42.5548],[-7.92995,42.57905],[-7.8917,42.62915],[-7.8917,42.6776],[-7.86245,42.7067],[-7.9524,42.75355],[-7.98165,42.78745],[-7.9569,42.83915],[-7.99965,42.84885],[-8.04465,42.8327],[-8.0716,42.8521],[-8.1166,42.8408],[-8.1841,42.86015],[-8.21105,42.823],[-8.2538,42.83595],[-8.2988,42.81975],[-8.355,42.7794],[-8.391,42.7891],[-8.4315,42.74545],[-8.49445,42.75675],[-8.60015,42.74385],[-8.7171,42.7067],[-8.7261,42.6889]]]},"properties":{"name":"Pontevedra"},"id":"36"},
{"type":"Feature","geometry":{"type":"Polygon","coordinates":[[[-6.47925,41.2946],[-6.5512,41.24615],[-6.64795,41.24775],[-6.6929,41.2074],[-6.70865,41.17345],[-6.76715,41.13465],[-6.75365,41.104],[-6.80985,41.0361],[-6.9313,41.02965],[-6.85935,40.9505],[-6.82335,40.8455],[-6.8166,40.797],[-6.8301,40.7421],[-6.7941,40.6613],[-6.84585,40.56595],[-6.80085,40.5498],[-6.8121,40.5046],[-6.85035,40.45125],[-6.8391,40.4141],[-6.78065,40.364],[-6.7896,40.33495],[-6.86385,40.29615],[-6.86385,40.2703],[-6.83685,40.2493],[-6.7559,40.2461],[-6.71765,40.2687],[-6.5872,40.2703],[-6.5557,40.2913],[-6.5602,40.32845],[-6.53545,40.34785],[-6.43875,40.3737],[-6.4185,40.39955],[-6.3758,40.39955],[-6.33305,40.44805],[-6.2948,40.45125],[-6.24085,40.4852],[-6.20035,40.4836],[-6.15535,40.45775],[-6.1284,40.42055],[-6.06765,40.39795],[-6.08565,40.3608],[-6.0159,40.3398],[-6.0047,40.30585],[-5.9372,40.2816],[-5.89445,40.3188],[-5.7955,40.3511],[-5.764,40.28],[-5.73705,40.29455],[-5.6853,40.35595],[-5.69205,40.4222],[-5.63355,40.46095],[-5.59085,40.4674],[-5.54585,40.4238],[-5.50985,40.45935],[-5.4604,40.4739],[-5.43115,40.5676],[-5.5121,40.5482],[-5.5166,40.58215],[-5.4469,40.5789],[-5.3839,40.6209],[-5.3794,40.67585],[-5.29395,40.70975],[-5.15675,40.82445],[-5.1635,40.8681],[-5.1118,40.91495],[-5.1275,40.9489],[-5.0893,40.99735],[-5.1073,41.02965],[-5.1455,41.0442],[-5.14775,41.09265],[-5.12525,41.13145],[-5.17925,41.167],[-5.2175,41.1589],[-5.25345,41.1993],[-5.28945,41.18155],[-5.29845,41.1266],[-5.4019,41.1476],[-5.40865,41.18635],[-5.4964,41.1767],[-5.5571,41.21385],[-5.6291,41.21385],[-5.65605,41.24455],[-5.791,41.21545],[-5.8967,41.23805],[-5.92145,41.2187],[-5.9147,41.1799],[-5.93495,41.15085],[-6.00245,41.15245],[-6.0092,41.2009],[-6.1104,41.2122],[-6.13515,41.1896],[-6.3713,41.28655],[-6.414,41.27525],[-6.47925,41.2946]]]},"properties":{"name":"Salamanca"},"id":"37"},
{"type":"Feature","geometry":{"type":"MultiPolygon","coordinates":[[[[-4.7384,43.02175],[-4.63945,43.0169],[-4.60575,43.03465],[-4.5585,43.0185],[-4.52025,43.0476],[-4.4618,43.0605],[-4.3988,43.03465],[-4.3471,42.97165],[-4.2391,42.95385],[-4.2234,42.8634],[-4.19865,42.844],[-4.14915,42.87145],[-4.12665,42.85695],[-4.18515,42.81655],[-4.1514,42.7891],[-4.0974,42.7907],[-4.0817,42.7616],[-4.0457,42.76645],[-4.0007,42.7697],[-3.94675,42.7616],[-3.895,42.80525],[-3.8635,42.78585],[-3.82305,42.79875],[-3.8253,42.86825],[-3.8635,42.88925],[-3.8298,42.92965],[-3.868,42.9555],[-3.9265,42.9038],[-3.98945,42.93125],[-3.967,42.98455],[-3.9085,43.0169],[-3.88825,43.04275],[-3.7578,43.08635],[-3.6836,43.13645],[-3.64985,43.18005],[-3.50815,43.13645],[-3.4182,43.1332],[-3.4497,43.2366],[-3.4002,43.2463],[-3.3822,43.27055],[-3.2945,43.30125],[-3.209,43.28345],[-3.1573,43.30125],[-3.1528,43.35295],[-3.22025,43.3933],[-3.326,43.41595],[-3.4227,43.4127],[-3.4497,43.43535],[-3.4317,43.4628],[-3.51265,43.47735],[-3.54865,43.50965],[-3.59585,43.5129],[-3.7061,43.47895],[-3.8028,43.42565],[-3.8118,43.4951],[-3.9445,43.46925],[-4.0232,43.4418],[-4.21665,43.39655],[-4.2796,43.38845],[-4.4438,43.39815],[-4.5135,43.3933],[-4.53375,43.36745],[-4.5225,43.28025],[-4.60795,43.2964],[-4.6372,43.27375],[-4.72945,43.256],[-4.73395,43.18815],[-4.8419,43.18005],[-4.8509,43.12675],[-4.8329,43.1025],[-4.76765,43.07505],[-4.73395,43.0476],[-4.7384,43.02175]]],[[[-3.2765,43.26405],[-3.29675,43.2059],[-3.26525,43.2059],[-3.2765,43.26405]]]]},"properties":{"name":"Cantabria"},"id":"39"},
{"type":"Feature","geometry":{"type":"Polygon","coordinates":[[[-4.7227,41.1492],[-4.71595,41.07165],[-4.63945,41.02965],[-4.60575,40.9715],[-4.56525,40.95695],[-4.5585,40.88585],[-4.536,40.87295],[-4.54725,40.8261],[-4.49775,40.83415],[-4.4753,40.7776],[-4.43255,40.7421],[-4.41905,40.63385],[-4.3336,40.63705],[-4.3201,40.64835],[-4.2751,40.67745],[-4.2526,40.68875],[-4.1604,40.6904],[-4.07045,40.7938],[-4.02095,40.78085],[-3.98045,40.7986],[-3.94675,40.86325],[-3.95125,40.89395],[-3.9085,40.95535],[-3.87925,40.97475],[-3.7803,41.0006],[-3.7398,41.0539],[-3.6791,41.0846],[-3.60035,41.1557],[-3.53965,41.16535],[-3.4654,41.18315],[-3.44295,41.21545],[-3.40245,41.21385],[-3.4002,41.25425],[-3.326,41.2623],[-3.254,41.2591],[-3.20675,41.3043],[-3.3282,41.377],[-3.3462,41.3964],[-3.3507,41.4578],[-3.42495,41.48205],[-3.42045,41.51275],[-3.4789,41.5208],[-3.53515,41.54825],[-3.5419,41.57735],[-3.6161,41.57735],[-3.67235,41.5612],[-3.72855,41.5176],[-3.73305,41.4691],[-3.76905,41.4594],[-3.7713,41.5208],[-3.80505,41.51435],[-3.82305,41.4804],[-3.895,41.5515],[-3.98045,41.5838],[-4.0007,41.51595],[-4.13565,41.4772],[-4.15815,41.48205],[-4.23235,41.4562],[-4.29985,41.4578],[-4.36505,41.4368],[-4.41005,41.44165],[-4.51575,41.3948],[-4.48425,41.3673],[-4.57425,41.2736],[-4.6507,41.2219],[-4.7227,41.1492]]]},"properties":{"name":"Segovia"},"id":"40"},
{"type":"Feature","geometry":{"type":"Polygon","coordinates":[[[-6.3308,36.8985],[-6.27905,36.9098],[-6.1576,36.88555],[-6.1059,36.8581],[-5.9732,36.84355],[-5.89445,36.85165],[-5.8765,36.89525],[-5.845,36.91465],[-5.764,36.92595],[-5.7168,36.9195],[-5.6943,36.95665],[-5.58635,36.94695],[-5.55035,36.9211],[-5.4694,36.9922],[-5.50985,37.0342],[-5.4334,37.052],[-5.4199,37.0132],[-5.4514,36.9825],[-5.4379,36.93565],[-5.3929,36.9728],[-5.30295,37.01965],[-5.2355,36.9405],[-5.1635,36.9809],[-5.14325,37.0035],[-4.9791,37.06815],[-4.90935,37.115],[-4.8981,37.1554],[-4.85765,37.17315],[-4.78565,37.1554],[-4.7092,37.1974],[-4.73615,37.24425],[-4.72045,37.2604],[-4.65295,37.25555],[-4.67995,37.3347],[-4.78115,37.32825],[-4.82165,37.35895],[-4.8509,37.41065],[-4.83965,37.4349],[-4.9026,37.4672],[-4.9341,37.5205],[-4.93185,37.61585],[-4.9993,37.7063],[-5.04655,37.7176],[-5.11405,37.68855],[-5.15,37.66105],[-5.177,37.68045],[-5.27595,37.6239],[-5.3592,37.60615],[-5.4109,37.6417],[-5.39065,37.69825],[-5.3052,37.72085],[-5.3097,37.77415],[-5.3502,37.79515],[-5.33895,37.83395],[-5.40415,37.86305],[-5.4199,37.8937],[-5.4154,37.9422],[-5.49415,37.99875],[-5.4964,38.04235],[-5.5841,38.1312],[-5.63355,38.1377],[-5.6943,38.08435],[-5.73255,38.0876],[-5.74155,38.12635],[-5.6943,38.1506],[-5.68755,38.1813],[-5.72805,38.19745],[-5.83825,38.17485],[-5.91245,38.12315],[-5.9282,38.0876],[-5.90795,38.0682],[-5.95295,37.9955],[-6.03165,37.9971],[-6.1194,37.98095],[-6.1801,37.9406],[-6.15985,37.8727],[-6.1239,37.80485],[-6.1846,37.8097],[-6.2521,37.76285],[-6.31055,37.76445],[-6.3893,37.7483],[-6.4725,37.70955],[-6.5377,37.62715],[-6.44325,37.6239],[-6.39605,37.611],[-6.40275,37.5803],[-6.35555,37.4963],[-6.30605,37.4365],[-6.35555,37.41225],[-6.3848,37.33795],[-6.33305,37.29915],[-6.36005,37.23615],[-6.3443,37.2184],[-6.36005,37.13925],[-6.3443,37.11985],[-6.38255,37.09075],[-6.3803,37.04875],[-6.3533,36.98575],[-6.37805,36.93405],[-6.3308,36.8985]]]},"properties":{"name":"Sevilla"},"id":"41"},
{"type":"Feature","geometry":{"type":"Polygon","coordinates":[[[-3.20675,41.3043],[-3.06285,41.2736],[-2.9436,41.29785],[-2.90765,41.32695],[-2.87615,41.3221],[-2.86715,41.27525],[-2.77495,41.2494],[-2.76145,41.2736],[-2.59275,41.20255],[-2.57475,41.1395],[-2.5388,41.15405],[-2.46905,41.07815],[-2.4196,41.0571],[-2.35435,41.0862],[-2.32285,41.0571],[-2.2644,41.0668],[-2.2329,41.0975],[-2.17445,41.08295],[-2.1182,41.10235],[-2.06645,41.0959],[-2.0507,41.1476],[-2.07995,41.1702],[-2.1452,41.18475],[-2.16995,41.31885],[-2.12045,41.38025],[-2.10245,41.4465],[-2.035,41.4271],[-2.01025,41.3851],[-1.954,41.40935],[-1.954,41.46265],[-1.981,41.4869],[-1.9675,41.54505],[-1.99225,41.6016],[-1.9225,41.59835],[-1.85955,41.66135],[-1.8123,41.66135],[-1.77635,41.7244],[-1.8258,41.7793],[-1.82355,41.86495],[-1.8573,41.91015],[-1.8573,41.9667],[-1.9158,41.9328],[-1.981,41.91825],[-2.02825,41.9538],[-2.1002,41.9554],[-2.12495,41.9958],[-2.11595,42.02165],[-2.16095,42.0669],[-2.1272,42.0976],[-2.2374,42.10245],[-2.31835,42.14445],[-2.43755,42.138],[-2.5523,42.0459],[-2.57925,41.9958],[-2.6265,42.0071],[-2.67375,41.9974],[-2.75695,42.03295],[-2.70745,42.0863],[-2.73445,42.12505],[-2.7907,42.1089],[-2.79745,42.0475],[-2.8829,42.00875],[-2.9144,42.02325],[-2.9324,42.0184],[-2.9976,41.9328],[-3.01785,41.88755],[-3.09205,41.87625],[-3.1708,41.79225],[-3.19555,41.8294],[-3.27875,41.86815],[-3.29,41.8423],[-3.2765,41.768],[-3.3552,41.7373],[-3.35745,41.6937],[-3.39345,41.69045],[-3.45865,41.58865],[-3.5419,41.57735],[-3.53515,41.54825],[-3.4789,41.5208],[-3.42045,41.51275],[-3.42495,41.48205],[-3.3507,41.4578],[-3.3462,41.3964],[-3.3282,41.377],[-3.20675,41.3043]]]},"properties":{"name":"Soria"},"id":"42"},
{"type":"Feature","geometry":{"type":"Polygon","coordinates":[[[0.5155,40.52235],[0.538,40.5676],[0.601,40.6225],[0.74495,40.63705],[0.8484,40.67905],[0.84165,40.73075],[0.78315,40.77115],[0.7292,40.76955],[0.69995,40.80025],[0.79665,40.87615],[0.9001,40.97635],[0.98335,41.03935],[1.0463,41.0636],[1.12955,41.0749],[1.17225,41.0555],[1.2937,41.1266],[1.39495,41.13145],[1.4579,41.16215],[1.54335,41.18315],[1.64685,41.19445],[1.5816,41.23645],[1.6176,41.2526],[1.62885,41.2946],[1.5726,41.31725],[1.5726,41.356],[1.5366,41.3851],[1.4894,41.39965],[1.46915,41.44485],[1.47365,41.4869],[1.40395,41.50625],[1.4489,41.53695],[1.4534,41.5693],[1.3927,41.57575],[1.37245,41.56605],[1.2195,41.5693],[1.16325,41.51275],[1.179,41.4885],[1.07555,41.4594],[1.0283,41.40935],[0.9811,41.39155],[0.96535,41.356],[0.7517,41.31725],[0.69545,41.314],[0.6145,41.2914],[0.55375,41.32695],[0.50205,41.28975],[0.46155,41.335],[0.43455,41.32045],[0.4323,41.27685],[0.38505,41.27845],[0.36485,41.22675],[0.3221,41.22515],[0.3041,41.16375],[0.25015,41.12985],[0.21415,41.1363],[0.20065,41.0846],[0.2209,41.07165],[0.2816,40.98765],[0.27485,40.93595],[0.2389,40.88425],[0.27935,40.82125],[0.1714,40.7324],[0.2254,40.7324],[0.29285,40.68715],[0.2681,40.65805],[0.31535,40.61445],[0.38955,40.60635],[0.43005,40.5789],[0.4368,40.5498],[0.5155,40.52235]]]},"properties":{"name":"Tarragona"},"id":"43"},
{"type":"Feature","geometry":{"type":"Polygon","coordinates":[[[-1.80555,40.39795],[-1.77635,40.3915],[-1.6594,40.2816],[-1.54015,40.19115],[-1.47495,40.1847],[-1.44795,40.1459],[-1.3535,40.12975],[-1.28375,40.17175],[-1.25005,40.1233],[-1.20955,40.11035],[-1.1578,40.1152],[-1.07235,40.0603],[-1.0836,40.03605],[-1.16455,40.0102],[-1.1421,39.9714],[-1.0566,39.9811],[-0.96665,39.97465],[-0.9059,39.9407],[-0.9104,39.868],[-0.8677,39.847],[-0.79795,39.88095],[-0.82945,39.9068],[-0.8452,39.9472],[-0.83395,39.9795],[-0.7912,39.9892],[-0.762,40.0393],[-0.66525,40.0506],[-0.62255,40.0748],[-0.6293,40.1023],[-0.5708,40.1556],[-0.5438,40.2509],[-0.49435,40.2283],[-0.4516,40.23475],[-0.3841,40.26385],[-0.39985,40.29615],[-0.31215,40.35915],[-0.28965,40.38985],[-0.3459,40.4432],[-0.2739,40.4739],[-0.3009,40.52235],[-0.29415,40.61285],[-0.32115,40.60315],[-0.37965,40.62415],[-0.35715,40.67745],[-0.31665,40.6629],[-0.25145,40.6904],[-0.22445,40.7534],[-0.1952,40.78245],[-0.1457,40.7857],[-0.1277,40.7534],[-0.06475,40.72755],[0.0162,40.72755],[0.0432,40.6904],[0.07245,40.7146],[0.1714,40.7324],[0.27935,40.82125],[0.2389,40.88425],[0.27485,40.93595],[0.2816,40.98765],[0.2209,41.07165],[0.14665,41.0636],[0.1197,41.0765],[0.0567,41.0749],[0.03645,41.04745],[-0.01075,41.12015],[-0.07825,41.15085],[-0.103,41.1492],[-0.1817,41.188],[-0.2222,41.1896],[-0.3099,41.2526],[-0.34365,41.2397],[-0.4066,41.272],[-0.4246,41.314],[-0.4696,41.31885],[-0.50335,41.3544],[-0.58205,41.34795],[-0.57755,41.3156],[-0.52805,41.28815],[-0.5483,41.26715],[-0.60455,41.3221],[-0.6293,41.3124],[-0.6248,41.24775],[-0.66975,41.23645],[-0.60905,41.1912],[-0.6945,41.11205],[-0.753,41.167],[-0.78895,41.1072],[-0.82945,41.0959],[-0.88345,41.12985],[-0.94415,41.0749],[-0.99815,41.0959],[-1.0004,41.13465],[-1.0386,41.13465],[-1.1061,41.167],[-1.12185,41.13465],[-1.17355,41.12335],[-1.20955,41.1395],[-1.25455,41.12335],[-1.2523,41.07815],[-1.2703,41.0555],[-1.33325,41.05065],[-1.37825,41.0733],[-1.41195,41.0345],[-1.4592,41.00705],[-1.44795,40.97635],[-1.4727,40.9489],[-1.51095,40.95695],[-1.55815,40.9392],[-1.61665,40.94405],[-1.62115,40.881],[-1.54465,40.8164],[-1.54015,40.76145],[-1.56265,40.74045],[-1.53565,40.68715],[-1.5649,40.61445],[-1.54465,40.59505],[-1.59865,40.56275],[-1.6661,40.58215],[-1.7021,40.54175],[-1.6931,40.4868],[-1.74935,40.46255],[-1.80555,40.39795]]]},"properties":{"name":"Teruel"},"id":"44"},
{"type":"Feature","geometry":{"type":"Polygon","coordinates":[[[-4.94085,39.39465],[-4.9071,39.4932],[-4.86215,39.5562],[-4.76315,39.5142],[-4.74065,39.45605],[-4.7564,39.41565],[-4.6867,39.44955],[-4.6192,39.4544],[-4.6147,39.4851],[-4.554,39.51095],[-4.5315,39.5562],[-4.4528,39.51745],[-4.3201,39.4835],[-4.24135,39.47865],[-4.1919,39.49805],[-4.16715,39.5675],[-4.0412,39.5756],[-4.02995,39.5223],[-4.0682,39.5029],[-4.07945,39.4512],[-4.11765,39.45605],[-4.1289,39.36555],[-3.97145,39.35265],[-3.967,39.2993],[-3.841,39.25895],[-3.80955,39.288],[-3.7668,39.29285],[-3.7218,39.27025],[-3.6746,39.2961],[-3.58685,39.3074],[-3.5554,39.2993],[-3.47665,39.34295],[-3.4699,39.372],[-3.4092,39.40435],[-3.34395,39.40755],[-3.2945,39.4706],[-3.1843,39.4754],[-3.1438,39.4948],[-3.0696,39.44955],[-3.02235,39.45765],[-2.97735,39.44475],[-2.9324,39.4722],[-2.92565,39.60145],[-2.90765,39.64185],[-2.99985,39.7226],[-3.0606,39.8373],[-3.12805,39.8745],[-3.09655,39.93425],[-3.09655,39.9876],[-3.14155,39.98435],[-3.1708,40.04735],[-3.1618,40.06515],[-3.3035,40.0538],[-3.3282,40.07965],[-3.3777,40.0748],[-3.42495,40.04735],[-3.5059,40.04895],[-3.53065,40.01825],[-3.5891,40.01345],[-3.6386,39.9876],[-3.6296,39.9682],[-3.7106,39.95525],[-3.8073,39.8874],[-3.87475,39.91005],[-3.87475,39.9294],[-3.78705,39.95365],[-3.7263,39.9892],[-3.69935,40.0199],[-3.62285,40.0538],[-3.6071,40.10875],[-3.71955,40.1475],[-3.7713,40.13945],[-3.80055,40.175],[-3.8343,40.16205],[-3.86575,40.1879],[-3.91525,40.19115],[-3.9535,40.21215],[-3.9917,40.2089],[-4.07945,40.2671],[-4.10415,40.24125],[-4.24585,40.27355],[-4.29535,40.2186],[-4.3426,40.24125],[-4.35605,40.3091],[-4.4348,40.259],[-4.4483,40.23315],[-4.518,40.2154],[-4.57875,40.217],[-4.63945,40.1976],[-4.6867,40.21055],[-4.69795,40.2816],[-4.7609,40.2606],[-4.83965,40.2089],[-4.9251,40.17015],[-4.9251,40.1362],[-5.00605,40.11035],[-5.0173,40.15885],[-5.0668,40.15075],[-5.14325,40.091],[-5.1995,40.0813],[-5.21075,40.1055],[-5.3367,40.1152],[-5.3682,40.10065],[-5.37495,40.05865],[-5.36595,39.98275],[-5.4064,39.8777],[-5.32545,39.89225],[-5.2827,39.8567],[-5.30745,39.8357],[-5.3097,39.75975],[-5.25345,39.7533],[-5.20625,39.79695],[-5.168,39.79855],[-5.13875,39.71455],[-5.16125,39.64345],[-5.20625,39.59985],[-5.08255,39.48995],[-5.0578,39.48995],[-5.0083,39.43505],[-4.9521,39.39465],[-4.94085,39.39465]]]},"properties":{"name":"Toledo"},"id":"45"},
{"type":"Feature","geometry":{"type":"MultiPolygon","coordinates":[[[[-0.9284,38.78395],[-0.86095,38.771],[-0.82945,38.73225],[-0.74625,38.7581],[-0.70575,38.73385],[-0.64275,38.7274],[-0.61805,38.687],[-0.50785,38.74355],[-0.5303,38.7678],[-0.5663,38.75485],[-0.59555,38.79525],[-0.5348,38.8098],[-0.4741,38.8033],[-0.44035,38.82435],[-0.3819,38.834],[-0.3099,38.88085],[-0.2312,38.8534],[-0.16145,38.88735],[-0.14795,38.85825],[-0.03775,38.88735],[-0.13445,38.96975],[-0.21095,39.078],[-0.2402,39.16685],[-0.21995,39.18625],[-0.28965,39.30255],[-0.3324,39.4092],[-0.31665,39.4237],[-0.3234,39.50125],[-0.27615,39.57235],[-0.2604,39.61275],[-0.21095,39.65315],[-0.18845,39.7226],[-0.27165,39.7517],[-0.30765,39.79695],[-0.3774,39.80015],[-0.40885,39.74525],[-0.4606,39.71615],[-0.49885,39.74685],[-0.5303,39.79695],[-0.57755,39.7727],[-0.5888,39.742],[-0.65175,39.7533],[-0.65625,39.8357],[-0.69,39.85185],[-0.73725,39.82115],[-0.79795,39.88095],[-0.8677,39.847],[-0.9104,39.868],[-0.9059,39.9407],[-0.96665,39.97465],[-1.0566,39.9811],[-1.1421,39.9714],[-1.20505,39.9488],[-1.19605,39.91325],[-1.21405,39.80825],[-1.2748,39.73875],[-1.2613,39.6984],[-1.313,39.6709],[-1.36925,39.6903],[-1.4187,39.65475],[-1.46145,39.5772],[-1.5042,39.5643],[-1.4997,39.5029],[-1.52445,39.45765],[-1.5042,39.41725],[-1.48395,39.4237],[-1.385,39.35425],[-1.36475,39.35585],[-1.22305,39.3155],[-1.16905,39.31385],[-1.1758,39.22985],[-1.1938,39.17975],[-1.2568,39.10545],[-1.26355,39.04565],[-1.22755,39.02465],[-1.16005,38.9552],[-1.1466,38.92935],[-0.9599,38.9439],[-0.9239,38.8922],[-0.93515,38.855],[-0.9284,38.78395]]],[[[-1.44795,40.1459],[-1.45695,40.1346],[-1.38275,40.0393],[-1.376,40.01665],[-1.286,40.0086],[-1.2478,39.99565],[-1.16455,40.0102],[-1.0836,40.03605],[-1.07235,40.0603],[-1.1578,40.1152],[-1.20955,40.11035],[-1.25005,40.1233],[-1.28375,40.17175],[-1.3535,40.12975],[-1.44795,40.1459]]]]},"properties":{"name":"València/Valencia"},"id":"46"},
{"type":"Feature","geometry":{"type":"MultiPolygon","coordinates":[[[[-5.12525,41.13145],[-5.06005,41.1379],[-5.0128,41.16375],[-4.96785,41.15245],[-4.86435,41.0943],[-4.8284,41.09915],[-4.78565,41.14435],[-4.7227,41.1492],[-4.6507,41.2219],[-4.57425,41.2736],[-4.48425,41.3673],[-4.51575,41.3948],[-4.41005,41.44165],[-4.36505,41.4368],[-4.29985,41.4578],[-4.23235,41.4562],[-4.15815,41.48205],[-4.13565,41.4772],[-4.0007,41.51595],[-3.98045,41.5838],[-4.0277,41.6145],[-4.02545,41.6937],[-4.0682,41.726],[-4.0412,41.768],[-4.09965,41.77445],[-4.1514,41.7987],[-4.25935,41.80515],[-4.31785,41.76315],[-4.38755,41.7874],[-4.4438,41.7583],[-4.50225,41.77125],[-4.4865,41.8197],[-4.59,41.83745],[-4.6687,41.9005],[-4.7272,41.86815],[-4.75865,41.82615],[-4.79015,41.8181],[-4.8374,41.89885],[-4.86885,41.9312],[-4.92735,41.915],[-4.94985,41.9344],[-5.0038,41.93765],[-4.94985,42.05075],[-4.91835,42.0911],[-4.92735,42.1509],[-5.0263,42.15415],[-5.02405,42.22035],[-5.00155,42.28985],[-5.0623,42.27855],[-5.0938,42.30925],[-5.19725,42.26075],[-5.2445,42.264],[-5.2647,42.2107],[-5.30745,42.19935],[-5.36145,42.2252],[-5.3884,42.1719],[-5.37045,42.1299],[-5.39065,42.0895],[-5.37715,42.04105],[-5.32545,42.02005],[-5.28045,41.97805],[-5.33445,41.94085],[-5.29395,41.91985],[-5.30745,41.85845],[-5.32995,41.831],[-5.28045,41.81325],[-5.39065,41.7599],[-5.3592,41.70015],[-5.3277,41.68075],[-5.32995,41.61615],[-5.27145,41.6016],[-5.29395,41.5741],[-5.22875,41.5289],[-5.26245,41.50305],[-5.33445,41.47555],[-5.33895,41.4255],[-5.3232,41.32695],[-5.2962,41.293],[-5.2962,41.23],[-5.3412,41.19445],[-5.28945,41.18155],[-5.25345,41.1993],[-5.2175,41.1589],[-5.17925,41.167],[-5.12525,41.13145]]],[[[-5.5211,42.0976],[-5.5076,42.0572],[-5.4379,41.9667],[-5.42215,42.03135],[-5.48065,42.05235],[-5.5211,42.0976]]]]},"properties":{"name":"Valladolid"},"id":"47"},
{"type":"Feature","geometry":{"type":"Polygon","coordinates":[[[-3.14155,43.16065],[-3.1123,43.1429],[-3.02685,43.16065],[-2.98185,43.2027],[-2.9369,43.1429],[-2.9751,43.0993],[-2.88965,43.04595],[-2.82215,43.03625],[-2.667,43.0314],[-2.63325,43.04435],[-2.63325,43.08635],[-2.54555,43.08795],[-2.50505,43.09765],[-2.5073,43.1655],[-2.48705,43.20105],[-2.41735,43.2673],[-2.4398,43.2883],[-2.41285,43.3206],[-2.46005,43.33515],[-2.50955,43.37715],[-2.54555,43.37395],[-2.61975,43.3917],[-2.64675,43.41595],[-2.6962,43.40625],[-2.75245,43.45635],[-2.8087,43.4305],[-2.94585,43.43535],[-2.9526,43.4111],[-3.0381,43.3723],[-3.1528,43.35295],[-3.1573,43.30125],[-3.209,43.28345],[-3.2945,43.30125],[-3.3822,43.27055],[-3.4002,43.2463],[-3.4497,43.2366],[-3.4182,43.1332],[-3.254,43.19945],[-3.2225,43.172],[-3.16855,43.17845],[-3.14155,43.16065]],[[-3.2765,43.26405],[-3.26525,43.2059],[-3.29675,43.2059],[-3.2765,43.26405]]]},"properties":{"name":"Bizkaia"},"id":"48"},
{"type":"Feature","geometry":{"type":"Polygon","coordinates":[[[-6.47925,41.2946],[-6.414,41.27525],[-6.3713,41.28655],[-6.13515,41.1896],[-6.1104,41.2122],[-6.0092,41.2009],[-6.00245,41.15245],[-5.93495,41.15085],[-5.9147,41.1799],[-5.92145,41.2187],[-5.8967,41.23805],[-5.791,41.21545],[-5.65605,41.24455],[-5.6291,41.21385],[-5.5571,41.21385],[-5.4964,41.1767],[-5.40865,41.18635],[-5.4019,41.1476],[-5.29845,41.1266],[-5.28945,41.18155],[-5.3412,41.19445],[-5.2962,41.23],[-5.2962,41.293],[-5.3232,41.32695],[-5.33895,41.4255],[-5.33445,41.47555],[-5.26245,41.50305],[-5.22875,41.5289],[-5.29395,41.5741],[-5.27145,41.6016],[-5.32995,41.61615],[-5.3277,41.68075],[-5.3592,41.70015],[-5.39065,41.7599],[-5.28045,41.81325],[-5.32995,41.831],[-5.30745,41.85845],[-5.29395,41.91985],[-5.33445,41.94085],[-5.28045,41.97805],[-5.32545,42.02005],[-5.37715,42.04105],[-5.42215,42.03135],[-5.4379,41.9667],[-5.5076,42.0572],[-5.5211,42.0976],[-5.5616,42.0556],[-5.6493,42.13475],[-5.7438,42.11375],[-5.75505,42.13635],[-5.83825,42.1186],[-5.91245,42.1412],[-5.95295,42.12345],[-6.0294,42.15735],[-6.1711,42.159],[-6.2116,42.14765],[-6.2521,42.1735],[-6.32855,42.19935],[-6.4275,42.2026],[-6.47925,42.1816],[-6.55795,42.20745],[-6.6142,42.2026],[-6.63895,42.21715],[-6.70415,42.20905],[-6.7851,42.2543],[-6.8301,42.22685],[-6.88635,42.2139],[-6.93805,42.17675],[-6.9493,42.13635],[-6.9898,42.1218],[-7.0078,42.05235],[-6.96055,42.0265],[-6.9853,41.97155],[-6.9448,41.9441],[-6.8211,41.9457],[-6.8121,41.99255],[-6.7694,41.9845],[-6.7514,41.9441],[-6.69965,41.9328],[-6.59845,41.94895],[-6.5467,41.9312],[-6.57145,41.8827],[-6.5175,41.87465],[-6.5467,41.79385],[-6.5557,41.7389],[-6.54895,41.6856],[-6.513,41.66135],[-6.45225,41.68075],[-6.35555,41.6759],[-6.30155,41.66135],[-6.25435,41.6323],[-6.1891,41.5741],[-6.24985,41.5014],[-6.30605,41.4497],[-6.2948,41.4352],[-6.3533,41.37865],[-6.39155,41.3835],[-6.45,41.29945],[-6.47925,41.2946]]]},"properties":{"name":"Zamora"},"id":"49"},
{"type":"Feature","geometry":{"type":"Polygon","coordinates":[[[-2.0507,41.1476],[-1.9585,41.17185],[-1.9315,41.1379],[-1.89555,41.13465],[-1.85955,41.104],[-1.8033,41.08945],[-1.7156,41.0135],[-1.61665,40.94405],[-1.55815,40.9392],[-1.51095,40.95695],[-1.4727,40.9489],[-1.44795,40.97635],[-1.4592,41.00705],[-1.41195,41.0345],[-1.37825,41.0733],[-1.33325,41.05065],[-1.2703,41.0555],[-1.2523,41.07815],[-1.25455,41.12335],[-1.20955,41.1395],[-1.17355,41.12335],[-1.12185,41.13465],[-1.1061,41.167],[-1.0386,41.13465],[-1.0004,41.13465],[-0.99815,41.0959],[-0.94415,41.0749],[-0.88345,41.12985],[-0.82945,41.0959],[-0.78895,41.1072],[-0.753,41.167],[-0.6945,41.11205],[-0.60905,41.1912],[-0.66975,41.23645],[-0.6248,41.24775],[-0.6293,41.3124],[-0.60455,41.3221],[-0.5483,41.26715],[-0.52805,41.28815],[-0.57755,41.3156],[-0.58205,41.34795],[-0.50335,41.3544],[-0.4696,41.31885],[-0.4246,41.314],[-0.4066,41.272],[-0.34365,41.2397],[-0.3099,41.2526],[-0.2222,41.1896],[-0.1817,41.188],[-0.103,41.1492],[-0.07825,41.15085],[-0.01075,41.12015],[0.03645,41.04745],[0.0567,41.0749],[0.1197,41.0765],[0.14665,41.0636],[0.2209,41.07165],[0.20065,41.0846],[0.21415,41.1363],[0.25015,41.12985],[0.3041,41.16375],[0.3221,41.22515],[0.36485,41.22675],[0.38505,41.27845],[0.3491,41.32855],[0.37385,41.35115],[0.31985,41.3948],[0.3356,41.4077],[0.24115,41.4287],[0.21865,41.40285],[0.16465,41.4061],[0.12865,41.38835],[0.1062,41.35115],[0.00945,41.36085],[-0.004,41.38835],[-0.06925,41.37215],[-0.10525,41.48525],[-0.15695,41.53535],[-0.15695,41.5903],[-0.20645,41.6016],[-0.24245,41.5725],[-0.3549,41.6323],[-0.3684,41.68235],[-0.4471,41.7066],[-0.50335,41.7454],[-0.5168,41.83745],[-0.55505,41.8714],[-0.6023,41.8827],[-0.6585,41.95705],[-0.7777,41.95705],[-0.8857,42.0039],[-0.8272,42.08305],[-0.77545,42.0556],[-0.7485,42.15415],[-0.75975,42.264],[-0.72825,42.2963],[-0.744,42.34155],[-0.77095,42.3464],[-0.8137,42.264],[-0.88795,42.2866],[-0.84295,42.3658],[-0.84295,42.4078],[-0.9059,42.43685],[-0.89245,42.50955],[-0.93515,42.5726],[-0.90815,42.5871],[-0.9014,42.6566],[-0.8812,42.69375],[-0.9014,42.7422],[-0.94865,42.7115],[-1.02735,42.7002],[-1.0386,42.6485],[-1.1533,42.6469],[-1.1578,42.60005],[-1.2028,42.57905],[-1.2253,42.5419],[-1.2658,42.5564],[-1.29275,42.5112],[-1.27255,42.4821],[-1.34225,42.42395],[-1.36025,42.3787],[-1.32875,42.3561],[-1.3985,42.29145],[-1.41645,42.222],[-1.39175,42.1816],[-1.3985,42.12665],[-1.35125,42.07335],[-1.304,42.04265],[-1.34,42.0184],[-1.38275,41.9441],[-1.42095,41.9134],[-1.50195,41.9247],[-1.52445,41.91015],[-1.5964,41.92635],[-1.6144,41.95055],[-1.67285,41.9667],[-1.7426,41.96835],[-1.76735,41.9958],[-1.8483,42.00875],[-1.8573,41.9667],[-1.8573,41.91015],[-1.82355,41.86495],[-1.8258,41.7793],[-1.77635,41.7244],[-1.8123,41.66135],[-1.85955,41.66135],[-1.9225,41.59835],[-1.99225,41.6016],[-1.9675,41.54505],[-1.981,41.4869],[-1.954,41.46265],[-1.954,41.40935],[-2.01025,41.3851],[-2.035,41.4271],[-2.10245,41.4465],[-2.12045,41.38025],[-2.16995,41.31885],[-2.1452,41.18475],[-2.07995,41.1702],[-2.0507,41.1476]],[[-1.1286,42.4482],[-1.1016,42.48535],[-1.0611,42.43365],[-1.1286,42.4482]]]},"properties":{"name":"Zaragoza"},"id":"50"},
{"type":"Feature","geometry":{"type":"Polygon","coordinates":[[[-5.38165,35.91295],[-5.3727,35.88065],[-5.32095,35.8871],[-5.36595,35.9178],[-5.38165,35.91295]]]},"properties":{"name":"Ceuta"},"id":"51"},
{"type":"Feature","geometry":{"type":"Polygon","coordinates":[[[-2.9526,35.32005],[-2.9706,35.28935],[-2.95035,35.2651],[-2.9279,35.2748],[-2.9526,35.32005]]]},"properties":{"name":"Melilla"},"id":"52"},
{"type":"Feature","geometry":{"type":"Polygon","coordinates":[[[-5.35245,36.1521],[-5.36145,36.144],[-5.3412,36.11655],[-5.33895,36.1537],[-5.35245,36.1521]]]},"properties":{"name":"Gibraltar. Territorio no asociado a ninguna provincia"},"id":"54"},
{"type":"Feature","geometry":{"type":"Polygon","coordinates":[[[-2.85815,42.6388],[-2.7817,42.57905],[-2.7637,42.62265],[-2.6805,42.5936],[-2.7052,42.51605],[-2.60625,42.5031],[-2.577,42.4837],[-2.4196,42.48855],[-2.3926,42.51765],[-2.3971,42.59845],[-2.4623,42.5871],[-2.48255,42.61135],[-2.4151,42.66305],[-2.34535,42.63395],[-2.30935,42.67115],[-2.32285,42.72445],[-2.2734,42.7422],[-2.28015,42.78585],[-2.23515,42.8343],[-2.2509,42.8957],[-2.3004,42.92315],[-2.4061,42.9587],[-2.50055,42.9587],[-2.5343,42.97325],[-2.5815,42.96355],[-2.595,43.0088],[-2.54105,43.02495],[-2.54555,43.08795],[-2.63325,43.08635],[-2.63325,43.04435],[-2.667,43.0314],[-2.82215,43.03625],[-2.88965,43.04595],[-2.9751,43.0993],[-2.9369,43.1429],[-2.98185,43.2027],[-3.02685,43.16065],[-3.1123,43.1429],[-3.14155,43.16065],[-3.18205,43.1203],[-3.1348,43.09765],[-3.1438,43.0072],[-3.0898,43.0007],[-3.0381,42.98295],[-2.98185,42.93935],[-3.01785,42.90865],[-3.1258,42.9038],[-3.1438,42.9345],[-3.22475,42.949],[-3.28325,42.8763],[-3.236,42.83755],[-3.19105,42.86985],[-3.1123,42.8618],[-3.15955,42.80525],[-3.13705,42.76485],[-3.06285,42.76],[-3.01785,42.7406],[-2.9796,42.70345],[-2.90315,42.69375],[-2.8964,42.655],[-2.85815,42.6388]],[[-2.8649,42.74385],[-2.85365,42.76805],[-2.79295,42.7939],[-2.7322,42.7939],[-2.63325,42.76485],[-2.604,42.7697],[-2.5725,42.72445],[-2.6085,42.69535],[-2.58375,42.65175],[-2.6355,42.6485],[-2.6535,42.6695],[-2.7682,42.6663],[-2.78395,42.6986],[-2.8244,42.7083],[-2.8649,42.74385]]]},"properties":{"name":"Araba/Álava"},"id":"01"}
]}