{"type":"FeatureCollection", "features": [
{"type":"Feature","geometry":{"type":"MultiPolygon","coordinates":[[[[-8.7787,41.9407],[-8.8795,41.8314],[-8.6563,41.0293],[-8.6851,40.7533],[-8.7715,40.6057],[-8.8867,40.1787],[-8.8363,40.1162],[-9.1495,39.5433],[-9.3763,39.3385],[-9.4735,38.7309],[-9.2503,38.6562],[-9.2143,38.4479],[-8.9155,38.5121],[-8.8111,38.3003],[-8.8795,37.9583],[-8.7931,37.7327],[-8.8147,37.4306],[-8.9983,37.0331],[-8.5987,37.1216],[-8.1379,37.0765],[-7.8355,37.0053],[-7.4071,37.1789],[-7.5043,37.5851],[-7.4431,37.7275],[-7.1839,38.007],[-7.0219,38.0451],[-7.3423,38.4566],[-7.2811,38.7152],[-7.0471,38.9062],[-6.9967,39.0572],[-7.1731,39.1354],[-7.4467,39.5364],[-7.4539,39.6805],[-7.0363,39.7134],[-6.8959,40.0225],[-7.0147,40.2082],[-6.8095,40.3436],[-6.8167,40.6544],[-6.9283,41.0085],[-6.6907,41.2151],[-6.2119,41.5328],[-6.5431,41.6717],[-6.6187,41.9425],[-7.0291,41.9512],[-7.4035,41.8331],[-7.9219,41.8834],[-8.1523,41.8123],[-8.1307,42.0189],[-8.2135,42.1334],[-8.5375,42.0692],[-8.7787,41.9407]]],[[[-17.192,32.8684],[-17.1704,32.7226],[-16.8392,32.6479],[-16.6916,32.7573],[-16.9292,32.8406],[-17.192,32.8684]]]]},"properties":{"name":"Portugal"},"id":"620"},
{"type":"Feature","geometry":{"type":"Polygon","coordinates":[[[-2.2194,35.1044],[-2.8386,35.1287],[-2.9718,35.4064],[-3.2058,35.2398],[-3.591,35.2276],[-3.6918,35.2797],[-4.329,35.1616],[-4.8366,35.2814],[-5.1067,35.4672],[-5.3371,35.7449],[-5.3983,35.9307],[-5.6215,35.8283],[-5.9239,35.7866],[-6.3523,34.7762],[-6.7555,34.1322],[-6.8995,33.969],[-7.5619,33.6409],[-8.2999,33.3736],[-8.5951,33.1878],[-8.8363,32.9205],[-9.2467,32.5733],[-9.3475,32.0872],[-9.6751,31.7105],[-9.8083,31.424],[-9.8335,30.8477],[-9.8767,30.7175],[-9.6535,30.4484],[-9.6679,30.1099],[-9.8515,29.8095],[-10.4851,29.0648],[-11.0827,28.7141],[-11.4319,28.3825],[-11.9863,28.1291],[-12.4687,28.0093],[-12.7927,27.9781],[-12.9475,27.9138],[-13.1779,27.6517],[-13.5775,26.7351],[-13.9519,26.4886],[-14.1679,26.4157],[-14.4127,26.2542],[-14.5243,25.9261],[-14.7943,25.4036],[-14.8503,25],[-12.3498,25],[-12.1699,25.6397],[-12.0295,26.0303],[-11.7199,26.1049],[-11.4715,26.5198],[-11.3383,26.6327],[-11.3923,26.8826],[-10.9243,27.0111],[-10.5499,26.9903],[-10.2511,26.8601],[-10.0315,26.9104],[-9.7363,26.8601],[-9.4123,27.0892],[-8.7931,27.1205],[-8.7751,27.4607],[-8.6851,27.6569],[-8.6851,28.6204],[-8.6599,28.7193],[-7.9975,29.1325],[-7.6843,29.3495],[-7.4863,29.3929],[-7.0939,29.6255],[-6.6367,29.5682],[-6.4999,29.8095],[-6.2155,29.8113],[-5.7763,29.8686],[-5.4487,29.9571],[-5.1787,30.1654],[-4.9698,30.4658],[-4.3218,30.6984],[-3.987,30.9136],[-3.7026,30.9449],[-3.6234,31.0664],[-3.8322,31.1983],[-3.789,31.3615],[-3.825,31.6619],[-3.4398,31.7053],[-3.0186,31.8337],[-2.9322,32.042],[-2.4498,32.1306],[-1.2762,32.0889],[-1.2402,32.3372],[-1.0638,32.4691],[-1.5102,32.8771],[-1.5498,33.0732],[-1.6794,33.318],[-1.6326,33.5663],[-1.7046,33.7173],[-1.7082,34.1756],[-1.791,34.3683],[-1.7334,34.4672],[-1.8486,34.6079],[-1.7946,34.7519],[-2.133,34.9707],[-2.2194,35.1044]]]},"properties":{"name":"Morocco"},"id":"504"},
{"type":"Feature","geometry":{"type":"Polygon","coordinates":[[[6.9683,46],[-1.1121,46],[-1.0674,45.8051],[-1.1682,45.6853],[-1.0818,45.5325],[-1.1898,45.161],[-1.2438,44.5604],[-1.3446,44.0205],[-1.485,43.5639],[-1.755,43.3243],[-1.4094,43.2393],[-1.287,43.0605],[-0.7614,42.9389],[-0.585,42.7983],[-0.3006,42.8261],[-0.0414,42.689],[0.6318,42.689],[0.6966,42.8452],[1.3482,42.6907],[1.4274,42.5952],[1.7046,42.5032],[2.0322,42.3539],[2.2014,42.4216],[2.5686,42.3452],[2.9682,42.4667],[3.0906,42.5917],[3.051,42.9146],[3.2598,43.1924],[4.0518,43.5934],[4.1634,43.5031],[4.6278,43.3868],[5.0599,43.4441],[5.3191,43.3452],[5.4055,43.2288],[5.8087,43.0986],[6.1147,43.0726],[6.4927,43.1698],[6.7159,43.3729],[7,43.5339],[7,44.2666],[6.8419,44.51],[6.9931,44.8277],[6.7375,44.9215],[6.6331,45.069],[7,45.2173],[7,45.523],[6.8059,45.7096],[6.9683,46]]]},"properties":{"name":"France"},"id":"250"},
{"type":"Feature","geometry":{"type":"Polygon","coordinates":[[[1.7046,42.5032],[1.4274,42.5952],[1.485,42.4338],[1.7046,42.5032]]]},"properties":{"name":"Andorra"},"id":"020"},
{"type":"Feature","geometry":{"type":"Polygon","coordinates":[[[-4.8293,25],[7,25],[7,36.9277],[6.5755,37.0035],[6.4855,37.0851],[6.0643,36.8647],[5.7259,36.8004],[5.4235,36.6754],[5.1967,36.6772],[4.7574,36.8959],[3.7782,36.8959],[3.519,36.7952],[2.9718,36.7848],[2.5938,36.6008],[2.3418,36.6095],[1.2582,36.5192],[0.9702,36.4445],[0.5166,36.2623],[0.153,36.0626],[0.0486,35.9012],[-0.189,35.8196],[-0.4266,35.8613],[-1.089,35.5783],[-1.3374,35.3648],[-1.9134,35.0939],[-2.2194,35.1044],[-2.133,34.9707],[-1.7946,34.7519],[-1.8486,34.6079],[-1.7334,34.4672],[-1.791,34.3683],[-1.7082,34.1756],[-1.7046,33.7173],[-1.6326,33.5663],[-1.6794,33.318],[-1.5498,33.0732],[-1.5102,32.8771],[-1.0638,32.4691],[-1.2402,32.3372],[-1.2762,32.0889],[-2.4498,32.1306],[-2.9322,32.042],[-3.0186,31.8337],[-3.4398,31.7053],[-3.825,31.6619],[-3.789,31.3615],[-3.8322,31.1983],[-3.6234,31.0664],[-3.7026,30.9449],[-3.987,30.9136],[-4.3218,30.6984],[-4.9698,30.4658],[-5.1787,30.1654],[-5.4487,29.9571],[-5.7763,29.8686],[-6.2155,29.8113],[-6.4999,29.8095],[-6.6367,29.5682],[-7.0939,29.6255],[-7.4863,29.3929],[-7.6843,29.3495],[-7.9975,29.1325],[-8.6599,28.7193],[-8.6851,28.6204],[-8.6851,27.6569],[-8.6851,27.2854],[-7.9327,26.8427],[-6.8023,26.1796],[-5.5171,25.4244],[-4.8293,25]]]},"properties":{"name":"Algeria"},"id":"012"}
]}